Land,Kreis,Gemeinde_x,Adresse_Name,Adresse_Name_Standort,Adresse_Strasse_Standort,Adresse_Haus-Nr._Standort,Adresse_Postleitzahl_Standort,Adresse_Ort_Standort,Telefonvorwahl/-nummer,E-Mail Adresse,Internet-Adresse,Traeger,T_Name,EinrichtungsTyp,Allgemeine_Notfallversorgung,Spezielle_Notfallversorgung,Spezielle_Notfallversorgung.1,Spezielle_Notfallversorgung.2,Spezielle_Notfallversorgung.3,Spezielle_Notfallversorgung.4,INSG,0100,0102,0103,0104,0105,0106,0107,0108,0109,0114,0150,0151,0152,0153,0154,0156,0200,0224,260,261,0300,0400,0410,0436,0500,0510,0524,0533,0600,0607,0610,0700,0706,0710,0800,0900,0910,1000,1004,1005,1006,1007,1009,1011,1012,1014,1028,1050,1051,1100,1136,1200,1300,1400,1410,1500,1513,1516,1518,1519,1520,1523,1536,1550,1551,1600,1700,1800,1900,2000,2021,2036,2050,2100,2118,2120,2136,2150,2200,2300,2309,2315,2316,2400,2402,2405,2406,2425,2500,2600,2700,2800,2810,2851,2852,2856,2900,2928,2930,2931,2950,2951,2952,2953,2954,2955,2956,2960,2961,3000,3060,3061,3100,3110,3160,3161,3200,3233,3300,3305,3350,3400,3415,3460,3500,3600,3601,3603,3610,3617,3618,3621,3622,3624,3626,3628,3650,3651,3652,3700,3750,3751,3752,3753,3754,3755,3756,3757,3758,3759,Gemeinde_y,latitude,longitude,x,y
1,56,39,Regio Kliniken GmbH,Regio Klinikum Pinneberg,Fahltskamp,74,25421,pinneberg,04121 798-9831,lutz.abeldt@sana.de,www.sana.de/regiokliniken,3,Regio Kliniken GmbH,2,2,2,2,2,2,2,317,105.0,,,,,,,,,,,,,,,,,,,,,,,,,,,,,,,,,,,,,12.0,,,,,,,,,,,,,,,,,,105.0,,,,,,,,,,,,,,,,,,,,,,,1.0,,,,,39.0,,,,,,1.0,1.0,43.0,,,,,,,,,,,,,,,,,,,,,,,,,,,,,,,,,,,,,,,,,,,,,,,,,,,10.0,,,,,,,,pinneberg,53.7278939,9.6979598,45,19
1,56,39,Regio Kliniken GmbH,Regio Tagesklinik Pinneberg,Fahltskamp,70,25421,pinneberg,04121 798-9831,lutz.abeldt@sana.de,www.sana.de/regiokliniken,3,Regio Kliniken GmbH,2,0,2,2,2,2,2,-,,,,,,,,,,,,,,,,,,,,,,,,,,,,,,,,,,,,,,,,,,,,,,,,,,,,,,,,,,,,,,,,,,,,,,,,,,,,,,,,,,,,,,,,,,,,,,,,,,,,,,,,,,,,,,,,,,,,,,,,,,,,,,,,,,,,,,,,,,,,,,,,,,,,,,,pinneberg,53.7278939,9.6979598,45,19
1,57,9,Fachklinik Freudenholm-Ruhleben,Fachklinik Freudenholm-Ruhleben,Missionsweg,3,24306,plön,04328 18123,barre.marjenn@landesverein.de,landesverein.de/uebersicht-fachklinik-freudenholm-ruhleben,2,Landesverein für Innere Mission in Schleswig-Holstein,2,0,2,2,2,2,2,50,,,,,,,,,,,,,,,,,,,,,,,,,,,,,,,,,,,,,,,,,,,,,,,,,,,,,,,,,,,,,,,,,,,,,,,,,,,,,,,,,,,,,,,,,,,,,,,,,,,,,50.0,,,,,,,,,,,,,,,,,,,,,,,,,,,,,,,,,,,,,,,,,,,,,,,,,,plön,54.158082,10.41771,49,23
1,57,57,Psychiatrische Tagesklinik Plön,Psychiatrische Tagesklinik Plön,Rodomstorstraße,30,24306,plön,0431 9820597,b.marberg-bollmann@bruecke-sh.de,www.bruecke-sh.de/hier-sind-wir-fuer-sie-da/kreis-ploen/,2,Brücke Schleswig-Holstein gGmbH,2,0,2,2,2,2,2,-,,,,,,,,,,,,,,,,,,,,,,,,,,,,,,,,,,,,,,,,,,,,,,,,,,,,,,,,,,,,,,,,,,,,,,,,,,,,,,,,,,,,,,,,,,,,,,,,,,,,,,,,,,,,,,,,,,,,,,,,,,,,,,,,,,,,,,,,,,,,,,,,,,,,,,,plön,54.158082,10.41771,49,23
3,151,9,HELIOS Klinikum Gifhorn GmbH,HELIOS Klinikum Gifhorn - Stationäre Behandlung,Campus,6,38518,gifhorn,05371 87-0,sekretariat.gf@helios-gesundheit.de,www.helios-gesundheit.de,3,HELIOS Klinikum Gifhorn Gmbh,2,2,2,1,2,1,1,372,160.0,,,,,,,,,,,,,,,,34.0,,,,,,,,,,,,,,,,,,,,,33.0,,,,,,,,,,,,,,,,,,30.0,,,,,,,,,,,,,,,,,,,,,,,,73.0,,,,28.0,,,,,,14.0,,,,,,,,,,,,,,,,,,,,,,,,,,,,,,,,,,,,,,,,,,,,,,,,,,,,,,,,,,,,,gifhorn,52.5780612,10.6613448,37,25
3,153,8,Privat-Nervenklinik Dr. med. Fontheim,Tagesklinik  der DR. FONTHEIM Mentale Gesundheit in Goslar - Stationäre Behandlung,Bleicheweg,16,38640,goslar,05346 81-0,info@klinik-dr-fontheim.de,www.klinik-dr-fontheim.de,3,Privat-Nervenklinik Dr. med. Kurt Fontheim GmbH & Co. KG,2,0,2,2,2,2,2,-,,,,,,,,,,,,,,,,,,,,,,,,,,,,,,,,,,,,,,,,,,,,,,,,,,,,,,,,,,,,,,,,,,,,,,,,,,,,,,,,,,,,,,,,,,,,,,,,,,,,,,,,,,,,,,,,,,,,,,,,,,,,,,,,,,,,,,,,,,,,,,,,,,,,,,,goslar,51.9059936,10.4266284,32,23
3,153,17,Asklepios Harzklinik Goslar,Asklepios Harzklinik Goslar - Stationäre Behandlung,Kösliner Straße,12,38642,goslar,05321 44-0,goslar@asklepios.com,www.asklepios.com,3,Asklepios Harzkliniken GmbH,2,2,2,2,2,2,2,296,173.0,,,,,,,,,,,,,,,,,,,,,,,,,,,,,,,,,,,,,,,,,,,,,,,,,,,,,,,54.0,,,,,,,,,,34.0,,,,,,,,,,,,,5.0,,,,,21.0,,,,,,7.0,,,,,,,,,,,,,,,,,,,,,,,,,,,,,,,,,,,2.0,,,,,,,,,,,,,,,,,,,,,,,,,,goslar,51.9059936,10.4266284,32,23
3,154,10,HELIOS St. Marienberg Klinik Helmstedt,Helios St. Marienberg Hauptstandort,Conringstraße,26,38350,helmstedt,05351 14-0,info.helmstedt@helios-gesundheit.de,www.helios-gesundheit.de/helmstedt,3,HELIOS St. Marienberg Klinik Helmstedt GmbH,2,2,2,2,2,2,2,300,93.0,,,,,,,,,,,,,,,,36.0,,,,43.0,,,,,,,,,,,,,,,,,,,,,,,,,,,,,,,,,,,31.0,,,,,,,,,,,,,,,,,,,,,,,10.0,71.0,,,,16.0,,,,,,,,,,,,,,,,,,,,,,,,,,,,,,,,,,,,,,,,,,,,,,,,,,,,,,,,,,,,,,,,,,,helmstedt,52.2089226,11.0028882,34,27
3,154,13,AWO Psychiatriezentrum,Psychiatrische Tagesklinik Gifhorn - Stationäre Behandlung,Campus,7,38518,gifhorn,05353 90-0,poststelle@awo-apz.de,www.awo-psychiatriezentrum.de,2,AWO Niedersachsen gGmbH,2,0,2,2,2,2,2,-,,,,,,,,,,,,,,,,,,,,,,,,,,,,,,,,,,,,,,,,,,,,,,,,,,,,,,,,,,,,,,,,,,,,,,,,,,,,,,,,,,,,,,,,,,,,,,,,,,,,,,,,,,,,,,,,,,,,,,,,,,,,,,,,,,,,,,,,,,,,,,,,,,,,,,,gifhorn,52.5780612,10.6613448,37,25
3,154,13,AWO Psychiatriezentrum,Psychiatrische Tagesklinik Helmstedt - Stationäre Behandlung,Gröpern,9,38350,helmstedt,05353 90-0,poststelle@awo-apz.de,www.awo-psychiatriezentrum.de,2,AWO Niedersachsen gGmbH,2,0,2,2,2,2,2,-,,,,,,,,,,,,,,,,,,,,,,,,,,,,,,,,,,,,,,,,,,,,,,,,,,,,,,,,,,,,,,,,,,,,,,,,,,,,,,,,,,,,,,,,,,,,,,,,,,,,,,,,,,,,,,,,,,,,,,,,,,,,,,,,,,,,,,,,,,,,,,,,,,,,,,,helmstedt,52.2089226,11.0028882,34,27
3,154,13,AWO Psychiatriezentrum,Psychiatrische Tagesklinik Peine - Stationäre Behandlung,Ilseder Straße,35,31226,peine,05353 90-0,poststelle@awo-apz.de,www.awo-psychiatriezentrum.de,2,AWO Niedersachsen gGmbH,2,0,2,2,2,2,2,-,,,,,,,,,,,,,,,,,,,,,,,,,,,,,,,,,,,,,,,,,,,,,,,,,,,,,,,,,,,,,,,,,,,,,,,,,,,,,,,,,,,,,,,,,,,,,,,,,,,,,,,,,,,,,,,,,,,,,,,,,,,,,,,,,,,,,,,,,,,,,,,,,,,,,,,peine,52.3117289,10.251904,35,22
3,154,13,AWO Psychiatriezentrum,Psychiatrische Tagesklinik Wolfenbüttel - Stationäre Behandlung,Monplaisir,4,38304,wolfenbüttel,05353 90-0,poststelle@awo-apz.de,www.awo-psychiatriezentrum.de,2,AWO Niedersachsen gGmbH,2,0,2,2,2,2,2,-,,,,,,,,,,,,,,,,,,,,,,,,,,,,,,,,,,,,,,,,,,,,,,,,,,,,,,,,,,,,,,,,,,,,,,,,,,,,,,,,,,,,,,,,,,,,,,,,,,,,,,,,,,,,,,,,,,,,,,,,,,,,,,,,,,,,,,,,,,,,,,,,,,,,,,,wolfenbüttel,52.1625283,10.5348215,34,24
3,155,11,Helios Albert-Schweitzer-Klinik Northeim,Helios Albert-Schweitzer-Klinik Hauptstandort,Albert-Schweitzer-Weg,1,37154,northeim,05551 97-0,information.northeim@helios-gesundheit.de,www.helios-gesundheit.de,3,Helios Albert-Schweitzer-Klinik Northeim GmbH,2,2,2,2,2,2,2,229,152.0,,,,,,,,,,,,,,,,,,,,,,,,,,,,,,,,,,,,,,,,,,,,,,,,,,,,,,,50.0,,,,,,,,,,,,,,,,,,,,,,,11.0,,,,,15.0,,,,,,1.0,,,,,,,,,,,,,,,,,,,,,,,,,,,,,,,,,,,,,,,,,,,,,,,,,,,,,,,,,,,,,northeim,51.7643823,9.8583289,31,20
3,157,6,Klinikum Peine gGmbH,Klinikum Peine - Stationäre Behandlung,Virchowstraße,8H,31226,peine,05171 93-0,klinikuminfo@klinikum-peine.de,www.klinikum-peine.de,1,Klinikum Peine gGmbH,2,1,2,2,2,2,2,260,161.0,,,,,,,,,,,,,,,,,,,,,,,,,,,,,,,,,,,,,,,,,,,,,,,,,,,,,,,31.0,,,,,,,,,,44.0,,24.0,,,,,,,,,,,,,,,,,,,,,,,,,,,,,,,,,,,,,,,,,,,,,,,,,,,,,,,,,,,,,,,,,,,,,,,,,,,,,,,,,,,peine,52.3117289,10.251904,35,22
3,159,16,Asklepios Fachklinikum Göttingen,Asklepios Fachklinikum Göttingen - Stationäre Behandlung,Rosdorfer Weg,70,37081,göttingen,0551 402-0,poststelle.goettingen@asklepios.com,www.asklepios.com,3,Asklepios Psychiatrie Niedersachsen GmbH,2,0,2,2,2,2,2,436,,,,,,,,,,,,,,,,,,,,,,,,,,,,,,,,,,,,,,,,,,,,,,,,,,,,,,,,,,,,,,,,,,,,,,,,,,,,,,,,,,,,,,,,,,,,,,,,,436.0,,,,,,,,,,,,,,,,,,,,,,,,,,,,,,,,,,,,,,,,,,,,,,,,,,,,,,göttingen,51.5328328,9.9351811,29,21
3,241,1,Kinder- und Jugendkrankenhaus auf der Bult,Tagesklinik und Ambulanz Celle - Stationäre Behandlung,Fritzenwiese,15,29221,celle,0511 8115-0,info@hka.de,www.auf-der-bult.de,2,Stiftung Hannoversche Kinderheilanstalt,2,0,2,2,2,2,2,-,,,,,,,,,,,,,,,,,,,,,,,,,,,,,,,,,,,,,,,,,,,,,,,,,,,,,,,,,,,,,,,,,,,,,,,,,,,,,,,,,,,,,,,,,,,,,,,,,,,,,,,,,,,,,,,,,,,,,,,,,,,,,,,,,,,,,,,,,,,,,,,,,,,,,,,celle,52.624056,10.081052,37,21
3,241,21,KRH Psychiatrie Wunstorf GmbH,Standort Nienburg - Stationäre Behandlung,Hannoversche Straße,65,31582,nienburg (weser),05031 93-0,info.wunstorf@krh.eu,www.krh.eu,1,Klinikum Region Hannover GmbH,2,0,2,2,2,2,2,-,,,,,,,,,,,,,,,,,,,,,,,,,,,,,,,,,,,,,,,,,,,,,,,,,,,,,,,,,,,,,,,,,,,,,,,,,,,,,,,,,,,,,,,,,,,,,,,,,,,,,,,,,,,,,,,,,,,,,,,,,,,,,,,,,,,,,,,,,,,,,,,,,,,,,,,nienburg (weser),52.6487602,9.2578105,37,17
3,251,7,Klinik Bassum,Psychiatrische Tagesklinik Diepholz,Eschfeldstraße,8,49356,diepholz,04241 81-0,,www.kliniken-lkd.de,1,Kliniken Landkreis Diepholz gGmbH,2,0,2,2,2,2,2,-,,,,,,,,,,,,,,,,,,,,,,,,,,,,,,,,,,,,,,,,,,,,,,,,,,,,,,,,,,,,,,,,,,,,,,,,,,,,,,,,,,,,,,,,,,,,,,,,,,,,,,,,,,,,,,,,,,,,,,,,,,,,,,,,,,,,,,,,,,,,,,,,,,,,,,,diepholz,52.7478987,8.7615261,38,14
3,251,12,Klinik Diepholz,Klinik Diepholz - Stationäre Behandlung,Eschfeldstraße,8,49356,diepholz,05441 972-0,,www.kliniken-lkd.de,1,Kliniken Landkreis Diepholz gGmbH,2,1,2,2,2,2,2,116,66.0,,,,,,,,,,,,,,,,,,,,,,,,,,,,,,,,,,,,,,,,,,,,,,,,,,,,,,,30.0,,,,,,,,,,,,,,,,,,,,,,,16.0,,,,,3.0,,,,,,,1.0,,,,,,,,,,,,,,,,,,,,,,,,,,,,,,,,,,,,,,,,,,,,,,,,,,,,,,,,,,,,diepholz,52.7478987,8.7615261,38,14
3,254,21,AMEOS Klinikum Hildesheim,AMEOS TK Goslar,Kornstraße,52,38640,goslar,05121 103-1,info@hildesheim.ameos.de,www.ameos.eu,3,AMEOS Krankenhausgesellschaft Niedersachsen mbH,2,0,2,2,2,2,2,-,,,,,,,,,,,,,,,,,,,,,,,,,,,,,,,,,,,,,,,,,,,,,,,,,,,,,,,,,,,,,,,,,,,,,,,,,,,,,,,,,,,,,,,,,,,,,,,,,,,,,,,,,,,,,,,,,,,,,,,,,,,,,,,,,,,,,,,,,,,,,,,,,,,,,,,goslar,51.9059936,10.4266284,32,23
3,254,21,AMEOS Klinikum Hildesheim,AMEOS Klinikum Hildesheim - Stationäre Behandlung,Goslarsche Landstraße,60,31135,hildesheim,05121 103-1,info@hildesheim.ameos.de,www.ameos.eu,3,AMEOS Krankenhausgesellschaft Niedersachsen mbH,2,0,2,2,2,2,2,366,,,,,,,,,,,,,,,,,,,,,,,,,,,,,,,,,,,,,,,,,,,,,,,,,,,,,,,,,,,,,,,,,,,,,,,,,,,,,,,,,,,,,,,,,,,,,,,,,268.0,,,,,,,,,,,,,93.0,,,5.0,,,,,,,,,,,,,,,,,,,,,,,,,,,,,,,,,,,,,,hildesheim,52.1527188,9.9518083,34,21
3,254,21,AMEOS Klinikum Hildesheim,AMEOS TK Oldokopstr Hi.,Oldekopstraße,14,31134,hildesheim,05121 103-1,info@hildesheim.ameos.de,www.ameos.eu,3,AMEOS Krankenhausgesellschaft Niedersachsen mbH,2,0,2,2,2,2,2,-,,,,,,,,,,,,,,,,,,,,,,,,,,,,,,,,,,,,,,,,,,,,,,,,,,,,,,,,,,,,,,,,,,,,,,,,,,,,,,,,,,,,,,,,,,,,,,,,,,,,,,,,,,,,,,,,,,,,,,,,,,,,,,,,,,,,,,,,,,,,,,,,,,,,,,,hildesheim,52.1527188,9.9518083,34,21
3,254,21,AMEOS Klinikum Hildesheim,AMEOS TK Holzminden,Sollingstraße,85,37603,holzminden,05121 103-1,info@hildesheim.ameos.de,www.ameos.eu,3,AMEOS Krankenhausgesellschaft Niedersachsen mbH,2,0,2,2,2,2,2,-,,,,,,,,,,,,,,,,,,,,,,,,,,,,,,,,,,,,,,,,,,,,,,,,,,,,,,,,,,,,,,,,,,,,,,,,,,,,,,,,,,,,,,,,,,,,,,,,,,,,,,,,,,,,,,,,,,,,,,,,,,,,,,,,,,,,,,,,,,,,,,,,,,,,,,,holzminden,51.8989989,9.5741099,32,19
3,254,21,HELIOS Klinikum Hildesheim GmbH,Helios Klinikum Hildesheim - Stationäre Behandlung,Senator-Braun-Allee,33,31135,hildesheim,05121 89-0,gf.hildesheim@helios-gesundheit.de,www.helios-gesundheit.de,3,HELIOS Klinikum Hildesheim GmbH,2,2,2,1,2,2,2,578,187.0,,,,,,,,,,,,,,,,,,,,,,,,,,,,,,,,,,45.0,,,36.0,,,,,,,,,,,,,,,,,,202.0,,,,,,,,,,,,,19.0,,,,,,,,,,,,,,,39.0,,,,,,15.0,1.0,,,,,,,,,,,,,,,,,,,,,,,,,,3.0,,1.0,,,29.0,,,1.0,,,,,,,,,,,,,,,,,,,,,,,,,,hildesheim,52.1527188,9.9518083,34,21
3,254,21,St. Bernward Krankenhaus,Krankenhaus-Hauptgebäude - Stationäre Behandlung,Treibestraße,9,31134,hildesheim,05121 90-0,info@bernward-khs.de,www.bernward-khs.de,2,St. Bernward KrankenhausGmbH,2,3,2,1,2,2,2,502,148.0,,,,33.0,,,,,,,,,,,,,,,,,,,,,,,,,,,,,,,,,44.0,,,,,,,,,,,,,,,4.0,,,31.0,,,,,,,,,,47.0,,23.0,,,,,,,,,,,38.0,25.0,,,,38.0,,,,,,,1.0,70.0,,,,,,,,,,,,,,,,,,,,,,,,,,,,,,,,,,,,,,,,,,,,,,,,,,,,,,,,,,,hildesheim,52.1527188,9.9518083,34,21
3,255,23,AGAPLESION Evangelisches Krankenhaus Holzminden gGmbH,AGAPLESION KH Holzminden,Forster Weg,34,37603,holzminden,05531 705-0,welcome@evk-holzminden.de,www.evk-holzminden.de,2,AGAPLESION Evangelisches Krankenhaus Holzminden gGmbH,2,2,2,2,2,2,2,189,14.0,,,,,,,,,,,,,,,,,,,,68.0,,,,,,,,,,,24.0,,,,,,,,,,,,,,,,,,,,,,,,33.0,,,,,,,,,,30.0,,,,,,,,,,,,,4.0,,,,,12.0,,,,,,3.0,1.0,,,,,,,,,,,,,,,,,,,,,,,,,,,,,,,,,,,,,,,,,,,,,,,,,,,,,,,,,,,,holzminden,51.8989989,9.5741099,32,19
3,255,23,Albert-Schweitzer-Therapeutikum,Albert-Schweitzer-Therapeutikum - Stationäre Behandlung,Pipping,5,37603,holzminden,05531 9311-0,therapeutikum@familienwerk.de,www.familienwerk.de,2,Albert-Schweitzer-Familienwerk,2,0,2,2,2,2,2,24,,,,,,,,,,,,,,,,,,,,,,,,,,,,,,,,,,,,,,,,,,,,,,,,,,,,,,,,,,,,,,,,,,,,,,,,,,,,,,,,,,,,,,,,,,,,,,,,,,,,,,,,,,,,,,24.0,,,,,,,,,,,,,,,,,,,,,,,,,,,,,,,,,,,,,,,,,holzminden,51.8989989,9.5741099,32,19
3,256,22,HELIOS Kliniken Mittelweser GmbH Klinik Nienburg,Helios Klinik Mittelweser Nienburg,Ziegelkampstraße,39,31582,nienburg (weser),05021 9210-0,info.mittelweser@helios-gesundheit.de,www.helios-gesundheit.de,3,HELIOS Kliniken Mittelweser GmbH,2,2,2,2,2,2,2,290,93.0,,,,,,,,,,,,,,,,,,,,,,,,,,,,,,,,,,,,,,,,,,,,,,,,,,,,,,,89.0,,,,,,,,,,,,,,,,,,,,,,,25.0,12.0,,,,28.0,,,,,,2.0,,41.0,,,,,,,,,,,,,,,,,,,,,,,,,,,,,,,,,,,,,,,,,,,,,,,,,,,,,,,,,,,nienburg (weser),52.6487602,9.2578105,37,17
3,351,6,Allgemeines Krankenhaus Celle,Allgemeines Krankenhaus Celle - Stationäre Behandlung,Siemensplatz,4,29223,celle,05141 72-0,info@akh-celle.de,www.akh-celle.de,2,Stiftung Allgemeines Krankenhaus Celle,2,3,2,1,2,2,2,436,33.0,,,,,,,,,,,,,,,,25.0,,,,63.0,,,,,,,,,,,48.0,,,,,,38.0,,,,,,,,,,,,,,,,,,74.0,,,,,,,,,,,,17.0,,,,,,,,,,,24.0,23.0,,,,48.0,,,,,,,,38.0,,,,,,,,,,,,,,,,,,,,,,,,,3.0,,2.0,,,,,,,,,,,,,,,,,,,,,,,,,,,,,,,,celle,52.624056,10.081052,37,21
3,351,6,Psychiatrisch-Psychosomatische Klinik Celle,Psychiatrische Klinik Celle,Schlepegrellstraße,4,29223,celle,05141 5935-0,mail@warhrendorff.de,www.klinikum-celle.de,3,Klinikum Wahrendorff GmbH,2,0,2,2,2,2,2,76,,,,,,,,,,,,,,,,,,,,,,,,,,,,,,,,,,,,,,,,,,,,,,,,,,,,,,,,,,,,,,,,,,,,,,,,,,,,,,,,,,,,,,,,,,,,,,,,,61.0,,,,,,,,,,,,,,,,15.0,,,,,,,,,,,,,,,,,,,,,,,,,,,,,,,,,,,,,,celle,52.624056,10.081052,37,21
3,352,11,AMEOS Klinikum Seepark Geestland GmbH,AMEOS Klinikum Geestland Standort Cuxhaven,Feldweg,24,27474,cuxhaven,04743 893-0,info@geestland.ameos.de,www.ameos.eu,3,AMEOS Klinikum Geestland GmbH,2,0,2,2,2,2,2,-,,,,,,,,,,,,,,,,,,,,,,,,,,,,,,,,,,,,,,,,,,,,,,,,,,,,,,,,,,,,,,,,,,,,,,,,,,,,,,,,,,,,,,,,,,,,,,,,,,,,,,,,,,,,,,,,,,,,,,,,,,,,,,,,,,,,,,,,,,,,,,,,,,,,,,,cuxhaven,53.86878,8.698286,46,14
3,352,11,HELIOS Klinik Cuxhaven GmbH,Helios Klinik Cuxhaven GmbH - Stationäre Behandlung,Altenwalder Chaussee,10,27474,cuxhaven,04721 78-0,info.cuxhaven@helios-gesundheit.de,www.helios-gesundheit.de,3,HELIOS Klinik Cuxhaven GmbH,2,2,2,1,2,2,2,278,104.0,,,,,,,,,,,,,,,,,,,,,,,,,,,,,,,,,,,25.0,,15.0,,,,,,,,,,,,,,,,,,60.0,,,,,,,,,,,,,,,,,,,,,,,21.0,34.0,,,,18.0,,,,,,1.0,,,,,,,,,,,,,,,,,,,,,,,,,,,,,,,,,,,,,,,,,,,,,,,,,,,,,,,,,,,,,cuxhaven,53.86878,8.698286,46,14
3,355,22,Orthoklinik Lüneburg GmbH,Hauptstandort - Stationäre Behandlung,Ginsterweg,5,21335,lüneburg,04131 722-0,info@orthoklinik-lueneburg.de,www.orthoklinik-lueneburg.de,3,Orthoklinik Lüneburg GmbH,2,0,2,2,2,2,2,36,,,,,,,,,,,,,,,,,,,,,,,,,,,,,,,,,,,,,,,,,,,,,,,,,,,,,,,,,,,,,,,,,,,,,,,,,,,,,,,,36.0,,,,,,,,,,,,,,,,,,,,,,,,,,,,,,,,,,,,,,,,,,,,,,,,,,,,,,,,,,,,,,,,,,,,,,,lüneburg,53.248706,10.407855,42,23
3,355,22,Psychiatrische Klinik Lüneburg gemeinnützige GmbH,Psychiatrische Klinik Lüneburg gGmbH - Stationäre Behandlung,Am Wienebütteler Weg,1,21339,lüneburg,04131 60-0,info@pk.lueneburg.de,www.pk.lueneburg.de,1,Gesundheitsholding Lüneburg GmbH,2,0,2,2,2,2,2,300,,,,,,,,,,,,,,,,,,,,,,,,,,,,,,,,,,,,,,,,,,,,,,,,,,,,,,,,,,,,,,,,,,,,,,,,,,,,,,,,,,,,,,,,,,,,,,,,,224.0,,,,,,,,,,,,,76.0,,,,,,,,,,,,,,,,,,,,,,,,,,,,,,,,,,,,,,,,,lüneburg,53.248706,10.407855,42,23
3,355,22,Städtisches Klinikum Lüneburg gGmbH,Städtisches Klinikum Lüneburg - Stationäre Behandlung,Bögelstraße,1,21339,lüneburg,04131 77-0,info@klinikum-lueneburg.de,www.klinikum-lueneburg.de,1,Städtisches Klinikum Lüneburg gGmbH,2,3,2,1,2,2,2,543,146.0,,,,,,,,,,,,,,,,,,,,54.0,,,,,,,,,,,3.0,,,,,,56.0,,,,,,,,,,,,,,,,,,56.0,,,,,,,,,,56.0,,,,,,,,,,,,,49.0,,,,,59.0,,,,,,5.0,,41.0,,,,,,,,,,,,,,,,,,,,,,,,,4.0,,14.0,,,,,,,,,,,,,,,,,,,,,,,,,,,,,,,,lüneburg,53.248706,10.407855,42,23
3,357,39,AGAPLESION Diakonieklinikum Rotenburg gGmbH,Hauptstandort - Stationäre Behandlung,Elise-Averdieck-Straße,17,27356,rotenburg (wümme),04261 77-0,krankenhaus@diako-online.de,www.diako-online.de,2,AGAPLESION Diakonieklinikum Rotenburg gGmbH,2,3,2,2,2,2,2,741,107.0,,,,,,,,,,,,,,,,,,,,,,,,,,,,,,,49.0,,,,,,33.0,,,,,,,,,,,,,,10.0,,74.0,,88.0,,,,,,,,,,37.0,18.0,,10.0,,,,,,,,,,30.0,26.0,,,,34.0,,,,,,25.0,,62.0,,,,,92.0,,,,,,,,,,,,,,,,22.0,,,,,,,,,,,,14.0,,,,,,,,,,,,,,,,,,10.0,,,,,,,,rotenburg (wümme),53.1108906,9.4049292,41,18
3,357,39,AGAPLESION Diakonieklinikum Rotenburg gGmbH,Unterstedt - Stationäre Behandlung,Verdener Straße,200,27356,rotenburg (wümme),04261 77-0,krankenhaus@diako-online.de,www.diako-online.de,2,AGAPLESION Diakonieklinikum Rotenburg gGmbH,2,0,2,1,2,2,2,24,,,,,,,,,,,,,,,,,,,,,,,,,,,,,,,,,,,,,,,,,,,,,,,,,,,,,,,,,,,,,,,,,,,,,,,,,,,,,,,,,,,,,,,,,,,,,,,,,,,,,,,,,,,,,,24.0,,,,,,,,,,,,,,,,,,,,,,,,,,,,,,,,,,,,,,,,,rotenburg (wümme),53.1108906,9.4049292,41,18
3,451,2,Karl-Jaspers-Klinik,Tagesklinik Cloppenburg - Stationäre Behandlung,Bürgermeister-Heukamp-Straße,22,49661,cloppenburg,0441 9615-0,info@kjk.de,www.karl-jaspers-klinik.de,2,Psychiatrieverbund Oldenburger Land gGmbH,2,0,2,2,2,2,2,-,,,,,,,,,,,,,,,,,,,,,,,,,,,,,,,,,,,,,,,,,,,,,,,,,,,,,,,,,,,,,,,,,,,,,,,,,,,,,,,,,,,,,,,,,,,,,,,,,,,,,,,,,,,,,,,,,,,,,,,,,,,,,,,,,,,,,,,,,,,,,,,,,,,,,,,cloppenburg,52.8461339,8.0438783,39,10
3,453,4,St.-Josefs-Hospital Cloppenburg gGmbH,St. Josefs-Hospital Cloppenburg,Krankenhausstraße,13,49661,cloppenburg,04471 16-0,verwaltung@kh-clp.de,www.krankenhaus-cloppenburg.de,2,St.-Josefs-Hospital Cloppenburg gGmbH,2,1,2,2,2,2,2,278,156.0,,,,,,,,,,,,,,,,,,,,,,,,,,,,,,,,,,,,,,,,,,,,,,,,,,,,,,,58.0,,,,,,,,,,,,,,,,,,,,,,,,,,,48.0,15.0,,,,,,1.0,,,,,,,,,,,,,,,,,,,,,,,,,,,,,,,,,,,,,,,,,,,,,,,,,,,,,,,,,,,,,cloppenburg,52.8461339,8.0438783,39,10
3,458,5,Klinik für Kinder- und Jugendpsychotherapie Wichernstift gGmbH,Tagesklinik Cuxhaven - Stationäre Behandlung,Altenwalder-Chaussee,10,27474,cuxhaven,04221 852-0,klinik@wichernsstift.de,www.wichernstift.de,2,Ev.-luth. Wichernstift Ganderkesee,2,0,2,2,2,2,2,-,,,,,,,,,,,,,,,,,,,,,,,,,,,,,,,,,,,,,,,,,,,,,,,,,,,,,,,,,,,,,,,,,,,,,,,,,,,,,,,,,,,,,,,,,,,,,,,,,,,,,,,,,,,,,,,,,,,,,,,,,,,,,,,,,,,,,,,,,,,,,,,,,,,,,,,cuxhaven,53.86878,8.698286,46,14
3,460,9,St. Marienhospital Vechta gGmbH,St. Marienhospital - Stationäre Behandlung,Marienstraße,6-8,49377,vechta,04441 99-0,info@marienhospital-vechta.de,www.marienhospital-vechta.de,2,St. Marienhospital Vechta gGmbH,2,2,2,1,2,2,2,328,98.0,,,,,,,,,,,,,,,,,,,,50.0,,,,,,,,,,,,,,,,,19.0,,,,,,,,,,,,,,23.0,,,,47.0,,,,,,,,,,,,,,,,,,,,,,,,,,,,55.0,,,,,,31.0,,,,,,,,,,,,,,,,,,,,,,,,,,,,,1.0,,,4.0,,,,,,,,,,,,,,,,,,,,,,,,,,,,,vechta,52.7310691,8.2873162,38,12
3,462,19,Krankenhaus Wittmund gGmbH,Krankenhaus Wittmund,Dohuser Weg,10,26409,wittmund,04462 8602,info@kh-wtm.de,www.kh-wtm.de,1,Krankenhaus Wittmund gGmbH,2,1,2,2,2,2,2,168,81.0,,,,,,,,,,,,,,,,,,,,,,,,,,,,,,,,,,,,,,,,,,,,,,,,,,,,,,,56.0,,,,,,,,,,,,,,,,,,,,,,,,25.0,,,,,,,,5.0,,1.0,,,,,,,,,,,,,,,,,,,,,,,,,,,,,,,,,,,,,,,,,,,,,,,,,,,,,,,,,,,,,wittmund,53.5364786,7.7462334,44,9
5,158,24,Ev. Krankenhaus Mettmann GmbH,Ev. Krankenhaus Mettmann,Gartenstraße,4-8,40822,mettmann,02104 773-0,info@evk-mettmann.de,www.evk-mettmann.de,2,Evangelisches Krankenhaus Mettmann GmbH,2,2,2,2,2,2,2,245,128.0,,,,,,,,,,,,,,,,,,,,,,,,,,,,,,,,,,,,,,,,,,,,,,,,,,,,,,,80.0,,,,,,,,,,,,,,,,,,,,,,,,,,,,30.0,,,,,,7.0,,,,,,,,,,,,,,,,,,,,,,,,,,,,,,,,,,,,,,,,,,,,,,,,,,,,,,,,,,,,,mettmann,51.2527778,6.9777778,27,4
5,166,32,Allgemeines Krankenhaus Viersen GmbH,Allgemeines Krankenhaus Viersen GmbH,Hoserkirchweg,63,41747,viersen,02162 104-0,info@akh-viersen.de,akh-viersen.de/,2,Allgemeines Krankenhaus Viersen GmbH,2,2,2,1,2,2,1,345,101.0,,,,,,,,,,,,,,,,,,,,55.0,,,,5.0,,,,,,,4.0,,,,,,40.0,,,,,,,,,,,,,,,,,,20.0,,,,,,,,,,31.0,,,,,,,,,,,,,24.0,,,,,42.0,,,,,,3.0,,,,,,,,,,,,,,,,,,,,,,,,,,,,,,,,,,,,20.0,,,,,,,,,,,,,,,,,,,,,,,,,viersen,51.2562118,6.3905476,27,1
5,166,32,LVR-Klinik für Orthopädie Viersen,LVR-Klinik für Orthopädie Viersen,Horionstraße,2,41749,viersen,02162 966-0,orthopaedie.viersen@lvr.de,www.orthopaedie-viersen.lvr.de,1,Landschaftsverband Rheinland KdöR,2,0,2,2,2,2,2,78,,,,,,,,,,,,,,,,,,,,,,,,,,,,,,,,,,,,,,,,,,,,,,,,,,,,,,,,,,,,,,,,,,,,,,,,,,,,,,,,78.0,,,,,,,,,,,,,,,,,,,,,,,,,,,,,,,,,,,,,,,,,,,,,,,,,,,,,,,,,,,,,,,,,,,,,,,viersen,51.2562118,6.3905476,27,1
5,166,32,LVR-Klinik Mönchengladbach,"Johannisstraße 70, 41749 Viersen",Johannisstraße,70,41749,viersen,02166 618-0,klinik-mg@lvr.de,klinik-moenchengladbach.lvr.de,1,Landschaftsverband Rheinland KdöR,2,0,2,2,2,2,2,60,,,,,,,,,,,,,,,,,,,,,,,,,,,,,,,,,,,,,,,,,,,,,,,,,,,,,,,,,,,,,,,,,,,,,,,,,,,,,,,,,,,,,,,,,,,,,,,,,60.0,,,,,,,,,,,,,,,,,,,,,,,,,,,,,,,,,,,,,,,,,,,,,,,,,,,,,,viersen,51.2562118,6.3905476,27,1
5,166,32,LVR-Klinik Viersen,"Süchtelner Straße 208, 41747 Viersen",Süchtelner Straße,208,41747,viersen,02162 9631,klinik-viersen@lvr.de,klinik-viersen.lvr.de/de/nav_main/startseite.html,1,Landschaftsverband Rheinland KdöR,2,0,2,2,2,2,2,11,,,,,,,,,,,,,,,,,,,,,,,,,,,,,,,,,,,,,,,,,,,,,,,,,,,,,,,,,,,,,,,,,,,,,,,,,,,,,,,,,,,,,,,,,,,,,,,,,,,,,,,,,,,,,,11.0,,,,,,,,,,,,,,,,,,,,,,,,,,,,,,,,,,,,,,,,,viersen,51.2562118,6.3905476,27,1
5,166,32,LVR-Klinik Viersen,"Johannisstraße 70, 41749 Viersen",Johannisstraße,,41749,viersen,02162 9631,klinik-viersen@lvr.de,klinik-viersen.lvr.de/de/nav_main/startseite.html,1,Landschaftsverband Rheinland KdöR,2,0,2,2,2,2,2,322,,,,,,,,,,,,,,,,,,,,,,,,,,,,,,,,,,,,,,,,,,,,,,,,,,,,,,,,,,,,,,,,,,,,,,,,,,,,,,,,,,,,,,,,,,,,,,,,,188.0,,,,,,,,,,,,,114.0,,,20.0,,,,,,,,,,,,,,,,,,,,,,,,,,,,,,,,,,,,,,viersen,51.2562118,6.3905476,27,1
5,166,32,St. Irmgardis - Krankenhaus Süchteln GmbH,St. Irmgardis-Krankenhaus Süchteln,Tönisvorster Straße,26,41749,viersen,02162 899-0,verwaltung@st-irmgardis.de,www.st-irmgardis.de/startseite.html,2,St. Irmgardis-Krankenhaus Süchteln GmbH,2,1,2,2,2,2,2,185,62.0,,,,,,,,,,,,,,,,65.0,,,,,,,,,,,,,,,,,,,,,,,,,,,,,,,,,,,,,,,58.0,,,,,,,,,,,,,,,,,,,,,,,,,,,,,,,,,,,,,,,,,,,,,,,,,,,,,,,,,,,,,,,,,,,,,,,,,,,,,,,,,,,,,,,,,,,,,,,viersen,51.2562118,6.3905476,27,1
5,366,16,LVR-Klinik Bonn,"Gottfried-Disse-Straße 40, 53879 Euskirchen",Gottfried-Disse-Straße,40,53879,euskirchen,0228 551-1,klinik-bonn@lvr.de,klinik-bonn.lvr.de/de/nav_main/startseite.html,1,Landschaftsverband Rheinland KdöR,2,0,2,2,2,2,2,-,,,,,,,,,,,,,,,,,,,,,,,,,,,,,,,,,,,,,,,,,,,,,,,,,,,,,,,,,,,,,,,,,,,,,,,,,,,,,,,,,,,,,,,,,,,,,,,,,,,,,,,,,,,,,,,,,,,,,,,,,,,,,,,,,,,,,,,,,,,,,,,,,,,,,,,euskirchen,50.6612623,6.7871219,23,3
5,366,16,Marien-Hospital Euskirchen,Marien-Hospital Euskirchen,Gottfried-Disse-Straße,40,53879,euskirchen,02251 90-0,info@marien-hospital.com,www.marien-hospital.com,2,Marien-Hospital Euskirchen GmbH,2,2,2,2,2,2,2,380,39.0,,41.0,,,,,,,,,,,,,,,,,,,,,,,,,,,,,20.0,,,,,,,,,,,,,,,,,,,,,,,,25.0,,,,,,,,,,37.0,3.0,16.0,,,,,,,,,,,,,,,,,,,,6.0,14.0,,,56.0,,,,,113.0,,,,,,,,,,,,,,,,,,,,,,,,,,,,,,,,,,,,,,,,,,,,,,7.0,3.0,,,,,,,euskirchen,50.6612623,6.7871219,23,3
5,370,16,LVR-Klinik Viersen,"Tagesklinik - Genneper Straße 1, 52525 Heinsberg",Genneper Straße,1,52525,heinsberg,02162 9631,klinik-viersen@lvr.de,klinik-viersen.lvr.de/de/nav_main/startseite.html,1,Landschaftsverband Rheinland KdöR,2,0,2,2,2,2,2,-,,,,,,,,,,,,,,,,,,,,,,,,,,,,,,,,,,,,,,,,,,,,,,,,,,,,,,,,,,,,,,,,,,,,,,,,,,,,,,,,,,,,,,,,,,,,,,,,,,,,,,,,,,,,,,,,,,,,,,,,,,,,,,,,,,,,,,,,,,,,,,,,,,,,,,,heinsberg,51.0654268,6.0984461,26,0
5,558,12,Christophorus-Kliniken,"Christophorus-Kliniken, Standort Coesfeld",Südring,41,48653,coesfeld,02541 89-0,info@ctc-coesfeld.de,christophorus-kliniken.de/,2,Christophorus-Kliniken GmbH,2,2,2,1,2,2,2,343,59.0,,,,,,,,,,,,,,,,,,,,41.0,,,,,,,,,,,,,,,,,54.0,,,,,,,,,,,,,,20.0,,,,45.0,,,,,,,,,,50.0,,,,,,,,,,,,,,,,,,72.0,,,,,,,2.0,,,,,,,,,,,,,,,,,,,,,,,,,,,,,,,,,,,,,,,,,,,,,,,,,,,,,,,,,,,,coesfeld,51.9458943,7.1691108,32,5
5,558,12,LWL-Klinik Marl-Sinsen Marl,LWL-Klinik Marl-Sinsen - Tagesklinik Coesfeld-,Dülmener Straße,21,48653,coesfeld,02365 802-0,lwl-klinik.marl@lwl.org,www.lwl-klinik-marl.de/de/,1,Landschaftsverband Westfalen-Lippe KdöR,2,0,2,2,1,2,2,-,,,,,,,,,,,,,,,,,,,,,,,,,,,,,,,,,,,,,,,,,,,,,,,,,,,,,,,,,,,,,,,,,,,,,,,,,,,,,,,,,,,,,,,,,,,,,,,,,,,,,,,,,,,,,,,,,,,,,,,,,,,,,,,,,,,,,,,,,,,,,,,,,,,,,,,coesfeld,51.9458943,7.1691108,32,5
5,570,52,Josephs-Hospital Warendorf,Josephs-Hospital Warendorf,Am Krankenhaus,2,48231,warendorf,02581 20-0,info@jhwaf.de,www.jhwaf.de,2,Stiftung Josephs-Hospital Warendorf,2,2,2,2,2,2,2,241,76.0,,,,,,,,,,,,,,,,,,,,55.0,,,,,,,,,,,,,,,,,,,,,,,,,,,,,,,,,,,35.0,,,,,,,,,,50.0,,,,,,,,,,,,,13.0,,,,,10.0,,,,,,2.0,,,,,,,,,,,,,,,,,,,,,,,,,,,,,,,,,,,,,,,,,,,,,,,,,,,,,,,,,,,,,warendorf,51.9532449,7.9912335,32,10
5,570,52,LWL-Universitätsklinik Hamm der Ruhr-Uni Bochum,LWL-Tagesklinik Warendorf,Rosenstraße,21,48231,warendorf,02381 893-0,lwl-uk-hamm@lwl.org,www.lwl-uk-hamm.de/de/,1,Landschaftsverband Westfalen-Lippe KdöR,2,0,2,2,1,2,2,-,,,,,,,,,,,,,,,,,,,,,,,,,,,,,,,,,,,,,,,,,,,,,,,,,,,,,,,,,,,,,,,,,,,,,,,,,,,,,,,,,,,,,,,,,,,,,,,,,,,,,,,,,,,,,,,,,,,,,,,,,,,,,,,,,,,,,,,,,,,,,,,,,,,,,,,warendorf,51.9532449,7.9912335,32,10
5,570,52,St. Rochus-Hospital Telgte GmbH,Tagesklinik Warendorf,Von-Ketteler-Straße,39,48231,warendorf,02504 60-0,info@srh-telgte.de,www.srh-telgte.de,2,St. Rochus-Hospital Telgte GmbH,2,0,2,2,2,2,2,-,,,,,,,,,,,,,,,,,,,,,,,,,,,,,,,,,,,,,,,,,,,,,,,,,,,,,,,,,,,,,,,,,,,,,,,,,,,,,,,,,,,,,,,,,,,,,,,,,,,,,,,,,,,,,,,,,,,,,,,,,,,,,,,,,,,,,,,,,,,,,,,,,,,,,,,warendorf,51.9532449,7.9912335,32,10
5,754,8,Klinikum Gütersloh gGmbH,Klinikum Gütersloh gGmbH,Reckenberger Straße,19,33332,gütersloh,05241 83-00,info@klinikum-guetersloh.de,www.klinikum-guetersloh.de,1,Klinikum Gütersloh gGmbH,2,2,2,2,2,2,2,410,50.0,,,,,,,,,,,,,,,,,,,,65.0,,,,40.0,,,,,,,30.0,,,,,,,,,,,,,,,,,,,,,,,,95.0,,,,,,,,,,,,30.0,15.0,,,,,,,,,,35.0,,,,,30.0,,,,,,6.0,,,,,,,,,,,,,,,,,,,,,,,,,,,,,4.0,,,,,,,,,,,,,,,,,,,,,,,,10.0,,,,,,,,gütersloh,51.9063997,8.3782078,32,12
5,754,8,LWL-Klinikum Gütersloh,LWL Klinikum Gütersloh,Buxelstraße,50,33334,gütersloh,05241 502-0,info@lwl-klinik-guetersloh.de,www.lwl-klinikum-guetersloh.de/de/,1,Landschaftsverband Westfalen-Lippe KdöR,2,0,2,2,1,2,2,333,,,,,,,,,,,,,,,,,35.0,,,,,,,,,,,,,,,,,,,,,,,,,,,,,,,,,,,,,,,,,,,,,,,,,,,,,,,,,,,,,,,,,,,,,,,,,,,35.0,,,,,243.0,,,,,,,,,,,,,,,,20.0,,,,,,,,,,,,,,,,,,,,,,,,,,,,,,,,,,,,,,gütersloh,51.9063997,8.3782078,32,12
5,754,8,LWL-Universitätsklinik Hamm der Ruhr-Uni Bochum,LWL-Tagesklinik Gütersloh,Im Füchtei,148,33334,gütersloh,02381 893-0,lwl-uk-hamm@lwl.org,www.lwl-uk-hamm.de/de/,1,Landschaftsverband Westfalen-Lippe KdöR,2,0,2,2,1,2,2,-,,,,,,,,,,,,,,,,,,,,,,,,,,,,,,,,,,,,,,,,,,,,,,,,,,,,,,,,,,,,,,,,,,,,,,,,,,,,,,,,,,,,,,,,,,,,,,,,,,,,,,,,,,,,,,,,,,,,,,,,,,,,,,,,,,,,,,,,,,,,,,,,,,,,,,,gütersloh,51.9063997,8.3782078,32,12
5,754,8,St. Elisabeth-Hospital GmbH,Sankt Elisabeth Hospital Gütersloh,Stadtring Kattenstroth,130,33332,gütersloh,05241 507-0,kontakt@sankt-elisabeth-hoispital.de,www.sankt-elisabeth-hospital.de/startseite.html,2,Katholische Hospitalvereinigung Ostwestfalen gGmbH,2,2,2,2,2,2,2,331,115.0,,,,,,,,,,,,,,,,,,,,,,,,,,,,,,,,,,,,,,,,,,,,,,,,,,,,,,,135.0,,,,,,,,,,,,,,,,,,,,,,,,,,,,33.0,,,,,,,3.0,45.0,,,,,,,,,,,,,,,,,,,,,,,,,,,,,,,,,,,,,,,,,,,,,,,,,,,,,,,,,,,gütersloh,51.9063997,8.3782078,32,12
5,758,12,Katholische Hospitalvereinigung Ostwestfalen gGmbH Bielefeld,Mathilden Hospital,Renntormauer,1-3,32052,herford,0521 589-0,info@kho-bielefeld.de,kho-bielefeld.de/,2,Katholische Hospitalvereinigung Ostwestfalen gGmbH,2,1,2,2,2,2,2,166,96.0,,,,,,,,,,,,,,,,,,,,,,,,,,,,,,,,,,,,,,,,,,,,,,,,,,,,,,,45.0,,,,,,,,,,,,,,,,,,,,,,,,,,,,23.0,,,,,,2.0,,,,,,,,,,,,,,,,,,,,,,,,,,,,,,,,,,,,,,,,,,,,,,,,,,,,,,,,,,,,,herford,52.1152245,8.6711118,33,14
5,758,12,Klinikum Herford AöR,Tagesklinik Herford,Unter den Linden,41,32052,herford,05221 94-0,info@klinikum-herford.de,www.klinikum-herford.de/,1,Klinikum Herford AöR,2,0,2,2,2,2,2,-,,,,,,,,,,,,,,,,,,,,,,,,,,,,,,,,,,,,,,,,,,,,,,,,,,,,,,,,,,,,,,,,,,,,,,,,,,,,,,,,,,,,,,,,,,,,,,,,,,,,,,,,,,,,,,,,,,,,,,,,,,,,,,,,,,,,,,,,,,,,,,,,,,,,,,,herford,52.1152245,8.6711118,33,14
5,758,12,Klinikum Herford AöR,Klinikum Herford AöR,Schwarzenmoorstraße,70,32049,herford,05221 94-0,info@klinikum-herford.de,www.klinikum-herford.de/,1,Klinikum Herford AöR,2,3,2,2,2,2,2,755,138.0,,,,,,,,,,,,,,,,25.0,,,,79.0,,,,,,,,,,,,,,,,,36.0,,,,,,,10.0,,,,,,,,,,,64.0,,,,,,,,,,60.0,,28.0,,,,,,,,,,,50.0,,,,,60.0,,,,,,,,84.0,,,,10.0,100.0,,,,,,,,,,,,,,,,,,,,5.0,,2.0,,,,,,,,,,,,,,,,,,,,,,,,,4.0,,,,,,,herford,52.1152245,8.6711118,33,14
5,762,20,Klinikum Weser-Egge,St. Ansgar Krankenhaus,Brenkhäuser Straße,71,37671,höxter,05272 607-0,info@khwe.de,www.khwe.de,2,Katholische Hospitalvereinigung Weser-Egge gGmbH,2,3,2,1,2,2,2,383,,,,,,,,,,,,,,,,,,,,,82.0,,,,32.0,,,,,,,37.0,,,,,,33.0,,,,,,,,,,,,,,,,,,40.0,,,,,,,,,,31.0,,16.0,,,,,,,,,,,24.0,,,,,30.0,,,,,,1.0,1.0,56.0,,,,,,,,,,,,,,,,,,,,,,,,,,,,,,,,,,,,,,,,,,,,,,,,,,,,,,,,,,,höxter,51.7938902,9.348855,31,17
5,762,20,LWL-Klinik Marsberg Kinder- und Jugendpsychiatrie,TK Höxter,Brenkhäuser Straße,73,37671,höxter,02992 601-4000,wkkjpp-marsberg@wkp-lwl.org,www.lwl-jugendpsychiatrie-marsberg.de,1,Landschaftsverband Westfalen-Lippe KdöR,2,0,2,2,2,2,2,-,,,,,,,,,,,,,,,,,,,,,,,,,,,,,,,,,,,,,,,,,,,,,,,,,,,,,,,,,,,,,,,,,,,,,,,,,,,,,,,,,,,,,,,,,,,,,,,,,,,,,,,,,,,,,,,,,,,,,,,,,,,,,,,,,,,,,,,,,,,,,,,,,,,,,,,höxter,51.7938902,9.348855,31,17
5,774,32,Brüderkrankenhaus St. Josef Paderborn,Brüderkrankenhaus St. Josef Paderborn,Husener Str.,46,33098,paderborn,05251 702-0,info@bk-paderborn.de,www.bk-paderborn.de,2,Barmherzige Brüder Trier gGmbH,2,2,2,2,2,2,2,402,112.0,,,,,,,,,,,,,,,,,,,,,,,,41.0,,,,,,,42.0,,,,,,,,,,,,,,,,,,,,,,,,91.0,,,,,,,,,,,,,,,,,,,,,,,60.0,42.0,,,,,,,,,,1.0,,,,,,,,,,,,,,,,,,,,,,,,,,,4.0,,9.0,,,,,,,,,,,,,,,,,,,,,,,,,,,,,,,,paderborn,51.7177044,8.752653,31,14
5,774,32,LWL-Klinik Marsberg Kinder- und Jugendpsychiatrie,TK Paderborn,Karl-Schoppe-Weg,4a,33100,paderborn,02992 601-4000,wkkjpp-marsberg@wkp-lwl.org,www.lwl-jugendpsychiatrie-marsberg.de,1,Landschaftsverband Westfalen-Lippe KdöR,2,0,2,2,2,2,2,-,,,,,,,,,,,,,,,,,,,,,,,,,,,,,,,,,,,,,,,,,,,,,,,,,,,,,,,,,,,,,,,,,,,,,,,,,,,,,,,,,,,,,,,,,,,,,,,,,,,,,,,,,,,,,,,,,,,,,,,,,,,,,,,,,,,,,,,,,,,,,,,,,,,,,,,paderborn,51.7177044,8.752653,31,14
5,774,32,LWL-Klinik Marsberg Kinder- und Jugendpsychiatrie,KJP Paderborn,Am Ostfriedhof,10,33098,paderborn,02992 601-4000,wkkjpp-marsberg@wkp-lwl.org,www.lwl-jugendpsychiatrie-marsberg.de,1,Landschaftsverband Westfalen-Lippe KdöR,2,0,2,2,1,2,2,30,,,,,,,,,,,,,,,,,,,,,,,,,,,,,,,,,,,,,,,,,,,,,,,,,,,,,,,,,,,,,,,,,,,,,,,,,,,,,,,,,,,,,,,,,,,,,,,,,,,,,,,,,,,,,,30.0,,,,,,,,,,,,,,,,,,,,,,,,,,,,,,,,,,,,,,,,,paderborn,51.7177044,8.752653,31,14
5,774,32,LWL-Klinik Paderborn,LWL Klinik Paderborn,Agathastraße,1,33098,paderborn,05251 295-0,lwl-klinik-paderborn@lwl.org,www.lwl-klinik-paderborn.de/de/,1,Landschaftsverband Westfalen-Lippe KdöR,2,0,2,2,1,2,2,220,,,,,,,,,,,,,,,,,,,,,,,,,,,,,,,,,,,,,,,,,,,,,,,,,,,,,,,,,,,,,,,,,,,,,,,,,,,,,,,,,,,,,,,,,,,,,,,,,220.0,,,,,,,,,,,,,,,,,,,,,,,,,,,,,,,,,,,,,,,,,,,,,,,,,,,,,,paderborn,51.7177044,8.752653,31,14
5,774,32,St. Johannisstift Evangelisches Krankenhaus Paderborn GmbH,St. Johannisstift Paderborn,Reumontstraße,28,33102,paderborn,05251 401-0,info@johannisstift.de,www.johannisstift.de/,2,St. Johannisstift Evangelisches Krankenhaus Paderborn GmbH,2,1,2,2,2,2,2,193,47.0,,,,,,,,,,,,,,,,45.0,,,,,,,,,,,,,,,,,,,,,,,,,,,,,,,,,,,,,,,27.0,,,,,,,,,,,,45.0,,,,,,,,,,,,,,,,28.0,,,,,,1.0,,,,,,,,,,,,,,,,,,,,,,,,,,,,,,,,,,,,,,,,,,,,,,,,,,,,,,,,,,,,,paderborn,51.7177044,8.752653,31,14
5,774,32,St. Vincenz-Krankenhaus GmbH,St. Vincenz,Am Busdorf,2,33098,paderborn,05251 86-0,info@vincenz-datteln.de,www.vincenz.de/,2,St. Vincenz-Krankenhaus GmbH,2,3,1,1,1,1,1,587,142.0,,,,,,,,,,,,,,,,,,,,92.0,,,,,,,,,,,,,,,,,75.0,,,,,,,,,,,,,,,,,,40.0,,,,,,,,,,36.0,,17.0,,,,,,,,,,,,,,,,96.0,,,,,,,,85.0,,,,,,,,,,,,,,,,,,,,,,,,,,,,,,,,,4.0,,,,,,,,,,,,,,,,,,,,,,,,,,paderborn,51.7177044,8.752653,31,14
5,978,36,Christliches Klinikum Unna,"Christliches Klinikum Unna, Standort West",Holbeinstraße,10,59423,unna,02303 100-0,info.unna@hospitalverbund.de,www.christliches-klinikum.de,2,Christliches Klinikum Unna gGmbH,2,1,2,2,2,2,2,320,90.0,,,,,,,,,,,,,,,,35.0,,,,,,,,,,,,,,,,,,,,,,,,,,,,,,,,,,,,,,,8.0,,,,,,,,,,35.0,,30.0,,,,,,,,,,,,51.0,,,,,,,,,,,,71.0,,,,,,,,,,,,,,,,,,,,,,,,,,,,,,,,,,,,,,,,,,,,,,,,,,,,,,,,,,,unna,51.5348835,7.689014,29,8
5,978,36,Christliches Klinikum Unna,"Christliches Klinikum Unna, Standort Mitte - Hauptstandort",Obere Husemannstraße,2,59423,unna,02303 100-0,info.unna@hospitalverbund.de,www.christliches-klinikum.de,2,Christliches Klinikum Unna gGmbH,2,2,2,2,2,2,2,372,216.0,,,,,,,,,,,,,,,,,,,,,,,,,,,,,,,,,,,,,,,,,,,,,,,,,,,,,,,71.0,,,,,,,,,,,,,,,,,,,,,,,1.0,,,,,40.0,,,,,,1.0,,,,,,,,,,,,,,,,,,,,,,,,,,,,,,,,34.0,,,,,,,,,,,,,,,,,,,,,9.0,,,,,,,,unna,51.5348835,7.689014,29,8
5,978,36,Fachklinik für Kinderneurologie und Sozialpädiatrie Königsborn,Fachklinik für Kinderneurologie und Sozialpädiatrie Königsborn,Zimmerplatz,1,59425,unna,02303 9670-0,info@lebenszentrum-koenigsborn.de,www.lebenszentrum-koenigsborn.de,2,Lebenszentrum Königsborn gGmbH,2,0,2,2,2,2,2,40,,,,,,,,,,,,,,,,,,,,,,,,,,,,,,,,,,,,,,,,,,,,,,,40.0,,,,,,,,,,,,,,,,,,,,,,,,,,,,,,,,,,,,,,,,,,,,,,,,,,,,,,,,,,,,,,,,,,,,,,,,,,,,,,,,,,,,,,,,,,,,,,,,,,,,,,,,unna,51.5348835,7.689014,29,8
5,978,36,LWL-Klinik Dortmund,LWL-Klinik Dortmund -Dependance Unna,Holbeinstraße,10,59423,unna,0231 450301,lwl-klinik-dortmund@lwl.org,www.lwl-klinik-dortmund.de/de/,1,Landschaftsverband Westfalen-Lippe KdöR,2,0,2,2,2,2,2,60,,,,,,,,,,,,,,,,,,,,,,,,,,,,,,,,,,,,,,,,,,,,,,,,,,,,,,,,,,,,,,,,,,,,,,,,,,,,,,,,,,,,,,,,,,,,,,,,,60.0,,,,,,,,,,,,,,,,,,,,,,,,,,,,,,,,,,,,,,,,,,,,,,,,,,,,,,unna,51.5348835,7.689014,29,8
6,433,6,Kreisklinik Groß-Gerau,Hauptstandort,Wilhelm-Seipp-Straße,3A,64521,groß-gerau,06152 986-0,info@kreisklinik-gg.de,www.kreisklinik-gg.de,1,Kreisklinik Groß-Gerau GmbH,2,1,2,2,2,2,2,120,74.0,,,,,,,,,,,,,,,,,,,,,,,,,,,,,,,,,,,,,,,,,,,,,,,,,,,,,,,46.0,,,,,,,,,,,,,,,,,,,,,,,,,,,,,,,,,,,,,,,,,,,,,,,,,,,,,,,,,,,,,,,,,,,,,,,,,,,,,,,,,,,,,,,,,,,,,,,groß-gerau,49.914,8.4657,17,13
6,433,6,Vitos Klinikum Riedstadt,Vitos Klinikum Riedstadt Standort Groß-Gerau,Am Burggraben,1A,64521,groß-gerau,06158 183-0,info@vitos-riedstadt.de,www.vitos-riedstadt.de,1,Vitos Südhessen gemeinnützige GmbH,2,0,2,2,2,2,2,-,,,,,,,,,,,,,,,,,,,,,,,,,,,,,,,,,,,,,,,,,,,,,,,,,,,,,,,,,,,,,,,,,,,,,,,,,,,,,,,,,,,,,,,,,,,,,,,,,,,,,,,,,,,,,,,,,,,,,,,,,,,,,,,,,,,,,,,,,,,,,,,,,,,,,,,groß-gerau,49.914,8.4657,17,13
6,531,5,AGAPLESION Evangelisches Krankenhaus Mittelhessen,Evangelisches Krankenhaus Mittelhessen,Paul-Zipp-Straße,171,35398,gießen,0641 9606-0,info.EKM@agaplesion.de,www.ekm-gi.de,2,AGAPLESION EV. KRANKENHAUS MITTELHESSEN gGmbH,2,2,2,2,2,2,2,221,27.0,,39.0,,,,20.0,,,,,,,,,,,,,,,,,,,,,,,,,,,,44.0,,,,,,,,,,,,,,,,,,,,,40.0,,15.0,,10.0,,9.0,,,,,,,,,,,,,,,,,11.0,,,,,,,,,,,,,,,,,,,,,,,,,,,,,,,,,,,,,,,,,,,,,,,,,,,,,,,,,,,,,,,,,,,,,,,,gießen,50.5808795,8.6938161,22,14
6,531,5,St. Josefs Krankenhaus Balserische Stiftung,St. Josefs Krankenhaus Balserische Stiftung gGmbH,Wilhelmstraße,7,35392,gießen,0641 7002-0,info@jokba.de,www.jokba.de,2,St. Josefs Krankenhaus Balserische Stiftung gemeinnützige GmbH,2,1,2,2,2,2,2,254,62.0,,,,,,,,,,,,,,,,65.0,,,,,,,,,,,,,,,,,,,,,,,,,,,,,,,,,,,,,,,55.0,,19.0,,,,3.0,,,,,,,,,,,,,,,,,,,,,,40.0,,,,,,10.0,,,,,,,,,,,,,,,,,,,,,,,,,,,,,,,,,,,,,,,,,,,,,,,,,,,,,,,,,,,,,gießen,50.5808795,8.6938161,22,14
6,531,5,Universitätsklinikum Gießen und Marburg GmbH,Universitätsklinikum Gießen und Marburg GmbH - Standort Gießen,Rudolf-Buchheim-Straße,8,35392,gießen,0641 99-0,info@uniklinikum-giessen.de,www.ukgm.de,3,Universitätsklinikum Gießen und Marburg GmbH,1,3,2,1,2,2,2,1227,68.0,,86.0,,35.0,23.0,,140.0,,,,,15.0,,,,,,,,,,,,,,,,,,,,,,,,,104.0,,15.0,,,,,,,,,,41.0,,,,,,55.0,,,,,,,,,,54.0,54.0,,,,,,,58.0,,,,,42.0,34.0,,,,58.0,,,,,,58.0,26.0,66.0,,,,,88.0,,,,,,,,,,,,,,,,36.0,,,,,,,,,26.0,,,14.0,,,,,,31.0,,,,,,,,,,,,,,,,,,,,gießen,50.5808795,8.6938161,22,14
6,531,5,Vitos Gießen-Marburg gGmbH,Vitos Standort Gießen Martinshof,Liebigstraße,20,35392,gießen,0641 403-0,info@vitos-giessen-marburg.de,www.vitos-giessen-marburg.de,1,Vitos Gießen-Marburg gemeinnützige GmbH,2,0,2,2,2,2,2,-,,,,,,,,,,,,,,,,,,,,,,,,,,,,,,,,,,,,,,,,,,,,,,,,,,,,,,,,,,,,,,,,,,,,,,,,,,,,,,,,,,,,,,,,,,,,,,,,,,,,,,,,,,,,,,,,,,,,,,,,,,,,,,,,,,,,,,,,,,,,,,,,,,,,,,,gießen,50.5808795,8.6938161,22,14
6,531,5,Vitos Gießen-Marburg gGmbH,Vitos Standort Gießen,Licher Straße,106,35394,gießen,0641 403-0,info@vitos-giessen-marburg.de,www.vitos-giessen-marburg.de,1,Vitos Gießen-Marburg gemeinnützige GmbH,2,0,2,2,2,2,2,238,,,,,,,,,,,,,,,,,,,,,,,,,,,,,,,,,,,,,,,,,,,,,,,,,,,,,,,,,,,,,,,,,,,,,,,,,,,,,,,,,,,,,,,,,,,,,,,,,221.0,,,,,,,,,,,,,,,,17.0,,,,,,,,,,,,,,,,,,,,,,,,,,,,,,,,,,,,,,gießen,50.5808795,8.6938161,22,14
6,631,9,Herz-Jesu-Krankenhaus Fulda,Hauptstandort Herz-Jesu-Krankenhaus Fulda gGmbH,Buttlarstraße,74,36039,fulda,0661 15-0,info@herz-jesu-krankenhaus.de,www.herz-jesu-krankenhaus.de,2,Herz-Jesu-Krankenhaus Fulda gGmbH,2,1,2,2,2,2,2,354,94.0,,,,,,,,,,,,,,,,111.0,,,,,,,,,,,,,,,,,,,,,,,,,,,,,,,,,,,,,,,65.0,,,,,,,,,,,,,,,,,,,,,,,,,,,,33.0,,,,,,,,,,,,,,,,,,,,,,,,,,51.0,,,,,,,,,,,,,,,,,,,,,,,,,,,,,,,,,,,,,,,,,fulda,50.5542328,9.6770448,22,19
6,631,9,Klinikum Fulda,Hauptstandort,Pacellialle,4,36043,fulda,0661 84-0,info@klinikum-fulda.de,www.klinikum-fulda.de,1,Klinikum Fulda gAG,2,3,1,1,2,1,1,908,,,73.0,37.0,24.0,,55.0,30.0,19.0,,,,,,,,,,,,,,,,,,,,,,,,,,,,,35.0,,,,,,,,,,,,,,26.0,,,,49.0,,,,,,67.0,,,,,31.0,26.0,,15.0,,,,18.0,,,,,63.0,,,,,50.0,,,,,,41.0,14.0,48.0,,,,12.0,98.0,,,,,,,,,,,,,,,,24.0,,,,,,,,,,,,6.0,,10.0,,,,,,,,,,18.0,,,,,9.0,10.0,,,,,,,,fulda,50.5542328,9.6770448,22,19
6,631,9,Meliva Dalberg Klinik,Dalberg Klinik Fulda,Dalbergstraße,5,36037,fulda,0661 9753 200,dalberg-klinik@meliva.de,www.meliva.de/dalberg-klinik/,3,Meliva GmbH,2,0,2,2,2,2,2,12,,,,,,,,,,,,,,,,,,,,,,,,,,,,,,,,,,,,,,,,,,,,,,,,,,,,,,,,,,,,,,,,,,6.0,,,,,,,,,,,,,,6.0,,,,,,,,,,,,,,,,,,,,,,,,,,,,,,,,,,,,,,,,,,,,,,,,,,,,,,,,,,,,,,,,,,,,,,,fulda,50.5542328,9.6770448,22,19
6,631,9,Neuro Spine Center Dr. Al-Hami,Hauptstandort,Münsterfeldallee,2,36041,fulda,0661 5801-0,info@neuro-spine-center.com,www.neuro-spine-center.com,3,Neuro Spine Center GmbH,2,0,2,2,2,2,2,18,,,,,,,,,,,,,,,,,,,,,,,,,,,,,,,,,,,,,,,,,,,,,,,,,,,,,,,,18.0,,,,,,,,,,,,,,,,,,,,,,,,,,,,,,,,,,,,,,,,,,,,,,,,,,,,,,,,,,,,,,,,,,,,,,,,,,,,,,,,,,,,,,,,,,,,,,,fulda,50.5542328,9.6770448,22,19
7,132,501,DRK Krankenhaus Altenkirchen-Hachenburg,DRK Krankenhaus Altenkirchen,Leuzbacher Weg,21,57610,altenkirchen (westerwald),,,,2,DRK gemeinnützige Krankenhausgesellschaft mbH Rheinland-Pfalz,2,1,2,2,2,2,2,132,54.0,,,,,,,,,,,,,,,,,,,,,,,,,,,,,,,,,,,,,,,,,,,,,,,,,,,,,,,23.0,,,,,,,,,,,,,,,,,,,,,,,6.0,,,,23.0,,,,,,,,,,,,,,,,,,,,,,,,,,,20.0,,,,,,,,,,,,,,,,6.0,,,,,,,,,,,,,,,,,,,,,,,,,altenkirchen (westerwald),50.6880109,7.6477412,23,8
7,133,6,ACURA Kliniken Rheinland-Pfalz,Rheuma-Akutzentrum,Kaiser-Wilhelm-Straße,9,55543,bad kreuznach,0671 93-0,info@kh-acura-kliniken.com,www.sana-rz.de,3,RZ Rheumazentrum Rheinland-Pfalz GmbH,2,0,2,2,2,2,2,62,,,,,,,,,62.0,,,,,,,,,,,,,,,,,,,,,,,,,,,,,,,,,,,,,,,,,,,,,,,,,,,,,,,,,,,,,,,,,,,,,,,,,,,,,,,,,,,,,,,,,,,,,,,,,,,,,,,,,,,,,,,,,,,,,,,,,,,,,,,,,,,,,,,,,,,,,,bad kreuznach,49.8490413,7.8626661,17,9
7,133,6,Diakonie Krankenhaus kreuznacher Diakonie,Hauptstandort Bad Kreuznach,Ringstraße,64,55543,bad kreuznach,0671 605-3730,,www.kreuznacherdiakonie.de,2,Stiftung kreuznacher diakonie,2,1,2,1,2,2,2,327,101.0,,,,,,,,,,,,,,,,,,,,,,,,,,,,,,,,,,,,,45.0,,,,,,,,,,,,,,,,,,,,,,,,,,,,,,,17.0,,,,,,,,,,17.0,26.0,,,,42.0,,,,,,7.0,,,,,,,,,,,,,,,,,,,,,,,,,,,,,,,,,,,1.0,20.0,,,,,,,,,,,,,,,,,,,,25.0,,26.0,,,bad kreuznach,49.8490413,7.8626661,17,9
7,133,6,DRK Tagesklinik Bad Kreuznach,DRK Tagesklinik Bad Kreuznach,Salinenstraße,135,55543,bad kreuznach,0671 844110,verwaltung@drk-tk-badkreuznach.de,www.drk-tk-badkreuznach.de,2,DRK gemeinnützige Trägergesellschaft Süd-West mbH,2,0,2,2,2,2,2,-,,,,,,,,,,,,,,,,,,,,,,,,,,,,,,,,,,,,,,,,,,,,,,,,,,,,,,,,,,,,,,,,,,,,,,,,,,,,,,,,,,,,,,,,,,,,,,,,,,,,,,,,,,,,,,,,,,,,,,,,,,,,,,,,,,,,,,,,,,,,,,,,,,,,,,,bad kreuznach,49.8490413,7.8626661,17,9
7,133,6,Geriatrische Fachklinik Rheinhessen-Nahe,Geriatrische Fachklinik Rheinhessen-Nahe,Berliner Straße,63-65,55583,bad kreuznach,,,,1,Landeskrankenhaus (AöR),2,0,2,2,2,2,2,52,,52.0,,,,,,,,,,,,,,,,,,,,,,,,,,,,,,,,,,,,,,,,,,,,,,,,,,,,,,,,,,,,,,,,,,,,,,,,,,,,,,,,,,,,,,,,,,,,,,,,,,,,,,,,,,,,,,,,,,,,,,,,,,,,,,,,,,,,,,,,,,,,,,,,,,,,,bad kreuznach,49.8490413,7.8626661,17,9
7,133,6,Krankenhaus St. Marienwörth,Krankenhaus St. Marienwörth,Mühlenstraße,39,55543,bad kreuznach,0671 3720,info@marienwoerth.de,www.marienwoerth.de,2,Franziskanerbrüder vom,2,1,2,2,2,2,2,318,119.0,,,,,,,,,,,,,,,,,,,,,,,,,,,,,,,,,,,,,,,,,,,,,,,,,,,,,,,76.0,,,,,,,,,,,,,,,,,,,,,,,,3.0,,,,30.0,,,,,,10.0,1.0,,,,,,,,,,,,,,,,,,,,,,32.0,,,,,,4.0,,,,,,,18.0,,,,,,,,,,,,,,,,,25.0,,,,,,,,bad kreuznach,49.8490413,7.8626661,17,9
7,138,45,DRK-Krankenhaus Neuwied,DRK Krankenhaus Neuwied,Marktstraße,104,56564,neuwied,02631 980,info@drk-kh-neuwied.de,www.drk-kh-neuwied.de,2,DRK gemeinnützige Krankenhausgesellschaft mbH Rheinland-Pfalz,3,1,2,2,2,2,2,144,68.0,,,,,,,,,,,,,,,,,,,,,,,,,,,,,,,,,,,,,,,,,,,,,,,,,,,,,,,24.0,,,,,,,,,,,31.0,,,,,,,,,,,,,4.0,,,,,,,,,,,2.0,,,,,,,,,,,,,,,,,,,,,,,,,,,,,,,,,,,15.0,,,,,,,,,,,,,,,,,,,,,,,,,neuwied,50.4302393,7.466302,21,7
7,138,45,Johanniter-Zentrum für Kinder- und Jugendpsychiatrie,Johanniter-Zentrum für Kinder- und Jugendpsychiatrie,Am Carmen-Sylva-Garten,6,56564,neuwied,02631 39440,info@kjp-neuwied.de,www.kinder-und-jugendpsychiatrie-neuwied.de,2,Johanniter GmbH,2,0,2,2,2,2,2,24,,,,,,,,,,,,,,,,,,,,,,,,,,,,,,,,,,,,,,,,,,,,,,,,,,,,,,,,,,,,,,,,,,,,,,,,,,,,,,,,,,,,,,,,,,,,,,,,,,,,,,,,,,,,,,24.0,,,,,,,,,,,,,,,,,,,,,,,,,,,,,,,,,,,,,,,,,neuwied,50.4302393,7.466302,21,7
7,138,45,Marienhaus Klinikum Bendorf - Neuwied - Waldbreitbach,Marienhaus Klinikum St. Elisabeth,Friedrich-Ebert-Straße,59,56564,neuwied,02631 82-0,info@marienhaus-klinikum.de,www.marienhaus-klinikum.de,2,Marienhaus Klinikum GmbH,2,2,2,1,2,2,2,385,28.0,,46.0,,,,30.0,,,,,,,,,,,,,,,,,,,,,,,,,,,,,,,33.0,,,,,,,,,,,,,,33.0,,,,21.0,,,33.0,,,,,,,45.0,,,,,,,,,,,,,26.0,19.0,,,,49.0,,,,,,,,,,,,,,,,,,,,,,,,,,,,,,,,,,,,,,,,,1.0,,,,,,,,,,,,,,,,,,6.0,,,15.0,,,,,neuwied,50.4302393,7.466302,21,7
7,138,45,Marienhaus Klinikum Bendorf - Neuwied - Waldbreitbach,Marienhaus Klinikum St. Antonius - Tagesklinik,Willi-Brückner-Straße,8,56564,neuwied,02631 82-0,info@marienhaus-klinikum.de,www.marienhaus-klinikum.de,2,Marienhaus Klinikum GmbH,2,0,2,2,2,2,2,-,,,,,,,,,,,,,,,,,,,,,,,,,,,,,,,,,,,,,,,,,,,,,,,,,,,,,,,,,,,,,,,,,,,,,,,,,,,,,,,,,,,,,,,,,,,,,,,,,,,,,,,,,,,,,,,,,,,,,,,,,,,,,,,,,,,,,,,,,,,,,,,,,,,,,,,neuwied,50.4302393,7.466302,21,7
7,332,2,Evangelisches Krankenhaus Bad Dürkheim,Evangelisches Krankenhaus Bad Dürkheim,Dr.-Kaufmann-Straße,2,67098,bad dürkheim,06322 6070,webmaster@lvim-pfalz.de,www.lvim-pfalz.de,2,Ev. Krankenhaus Bad Dürkheim gGmbH,2,1,2,2,2,2,2,215,67.0,,,,,,,,,,,,,,,,25.0,,,,,,,,,,,,,,,,,,,,,,,,,,,,,,,,,,,,,,,20.0,,,,,,,,,,44.0,,,,,,,,,,,,,,,,,,5.0,,,,,,,,,,,,,,,,,,,,,,,,,,,,,36.0,,,,,,,,,,,,,10.0,,,,,,,,,,,,,,,,,8.0,,,,,,,,bad dürkheim,49.4632944,8.1705063,14,11
7,332,2,MEDIAN Klinik Sonnenwende Bad Dürkheim,MEDIAN Klinik Sonnenwende Bad Dürkheim,Sonnenwendstraße,86,67098,bad dürkheim,06322 7940,klinik-sonnenwende@rhm-kliniken.de,www.rhm-kliniken.de,3,MEDIAN Klinik Sonnenwende GmbH & Co. KG,2,0,2,2,1,2,2,111,,,,,,,,,,,,,,,,,,,,,,,,,,,,,,,,,,,,,,,,,,,,,,,,,,,,,,,,,,,,,,,,,,,,,,,,,,,,,,,,,,,,,,,,,,,,,,,,,111.0,,,,,,,,,,,,,,,,,,,,,,,,,,,,,,,,,,,,,,,,,,,,,,,,,,,,,,bad dürkheim,49.4632944,8.1705063,14,11
7,334,7,Asklepios Südpfalzkliniken,Asklepios Südpfalzklinik Germersheim,An Fronte Karl,2,76726,germersheim,072 75-71-0,kandel@asklepios.com,www.asklepios.com,3,Asklepios Südpfalzkliniken GmbH,2,1,2,2,2,2,2,136,30.0,,,,,,30.0,,,,,,,,,,,,,,,,,,,,,,,,,,,,,,,,,,,,,,,,,,,,,,,,,,,,,,,23.0,,10.0,,,,,,,,,,,,,,,,,,,,,,,,,,1.0,,30.0,,,,,,,,,,,,,,,,,,,,,,,,,,,,,,,,,,4.0,,,,,,,,,,8.0,,,,,,,,,,,,,,,germersheim,49.2222749,8.36659,12,12
7,336,55,Pfalzklinikum für Psychiatrie,Standort Kusel Tagesklinik,Weibergraben,1,66869,kusel,06349 9000,info@pfalzklinikum.de,www.pfalzklinikum.de,1,Pfalzklinikum,2,0,2,2,2,2,2,-,,,,,,,,,,,,,,,,,,,,,,,,,,,,,,,,,,,,,,,,,,,,,,,,,,,,,,,,,,,,,,,,,,,,,,,,,,,,,,,,,,,,,,,,,,,,,,,,,,,,,,,,,,,,,,,,,,,,,,,,,,,,,,,,,,,,,,,,,,,,,,,,,,,,,,,kusel,49.5399844,7.4008479,15,7
7,336,55,Westpfalz-Klinikum,Westpfalz-Klinikum StO Kusel,Im Flur,1,66869,kusel,0631 2030,info@westpfalz-klinikum.de,www.westpfalz-klinikum.de,1,Westpfalz-Klinikum GmbH,2,1,2,2,2,2,2,240,56.0,,,,,,,,,,,,,,,,,,,,,,,,,,,,,,,,,,,,,,,,,,,,,,,,,,,,,,,37.0,,,,,,,,,,,,,,,,,,,,,,,,70.0,,,,,,,,,,,,,,,,,,,,,,,,,,,,,,,,,,,,,,,,,,,,,,16.0,,,,,,,,,,,,,,51.0,10.0,,,,,,,,,,kusel,49.5399844,7.4008479,15,7
8,115,3,Klinikum Sindelfingen-Böblingen,Kliniken Böblingen,Bunsenstraße,120,71032,böblingen,07031 98-0,info@klinikverbund-suedwest.de,www.klinikverbund-suedwest.de,1,Kreiskliniken Böblingen gGmbH,2,1,2,2,2,2,2,335,,,,,,,75.0,,,,,,,,,,,,,,,,,,,,,,,,,,,,,,,72.0,,,,,,,,,,,,,,14.0,,,,66.0,,,,,,,,,,,,,,,,,,,,,,,,,,,,100.0,,,,,,8.0,,,,,,,,,,,,,,,,,,,,,,,,,,,,,,,,,,,,,,,,,,,,,,,,,,,,,,,,,,,,,böblingen,48.684969,9.0113444,8,16
8,115,3,Zentrum für Psychiatrie Calw,Psychiatrisches Behandlungszentrum Böblingen (PBZ/TKKJBB/TKSBB/TKBB/KiJu BB),Bunsenstraße,120,71032,böblingen,07051 586-0,info@kn-calw.de,www.kn-calw.de,1,Zentrum für Psychiatrie Calw - Klinikum Nordschwarzwald,2,0,2,2,2,2,2,79,,,,,,,,,,,,,,,,,,,,,,,,,,,,,,,,,,,,,,,,,,,,,,,,,,,,,,,,,,,,,,,,,,,,,,,,,,,,,,,,,,,,,,,,,,,,,,,,,54.0,,,,,,,,,,,,,25.0,,,,,,,,,,,,,,,,,,,,,,,,,,,,,,,,,,,,,,,,,böblingen,48.684969,9.0113444,8,16
8,116,19,Schelztor-Klinik,Schelztor-Klinik,Schelztorstr.,19,73728,esslingen,0711 396909-0,info@schelztor-klinik.de,www.schelztor-klinik.de,3,Schelztor-Klinik Esslingen GmbH,4,0,2,2,2,2,2,16,,,,,,,,,,,,,,,,,,,,,,,,,,,,,,,,,,,,,,,,,,,,,,,,,,,,,,,,,,,2.0,1.0,,,,,,,,,,,,,,,,,,,,8.0,,,,,,,,,,,,,,,,,,,,,,,,,,,,,,,,,,,,,,,,,,,,,,,,,,,,,,,,,,,,,,,,,,5.0,,,,,esslingen,48.7427584,9.3071685,9,17
8,117,26,ALB FILS KLINIKEN,Klinik am Eichert,Eichertstraße,3,73035,göppingen,07161 64-0,info@af-k.de,www.alb-fils-kliniken.de,1,Landkreis Göppingen,2,2,2,1,2,2,2,644,,,90.0,39.0,49.0,,56.0,36.0,,,,,,,,,,,,,,,,,,,,,,,,,,,,,,44.0,,,,,,,,,,,,,,,,,,46.0,,115.0,,,6.0,,,,,,,37.0,,,,,,,,,,,16.0,,,,,56.0,,,,,,,,,,,,,,,,,,,,,,,,,,,,,,,,,,,8.0,,,,,,8.0,38.0,,,,,,,,,,,,,,,,,,,,,,,,,göppingen,48.7031377,9.6541116,8,19
8,117,26,Klinikum Christophsbad,Hauptstandort,Faurndauer Straße,6-28,73035,göppingen,07161 601-0,info@christophsbad.de,www.christophsbad.de,3,Christophsbad GmbH & Co. Fachkrankenhaus KG,2,0,2,2,2,1,2,462,,,,,,,,,,,,,,,,,,,,,,,,,,,,,,,,,,,,,,,,,,,,,,,,,,,,,,,,,,,,,,,,,,,,,,,,,,,,,,,,,,,,,,,,,,,,90.0,,,,,320.0,,,,,,,,,,,,,25.0,,,27.0,,,,,,,,,,,,,,,,,,,,,,,,,,,,,,,,,,,,,,göppingen,48.7031377,9.6541116,8,19
8,118,48,Klinikum am Weissenhof,Tagesklinik Ludwigsburg,Harteneckstraße,32,71640,ludwigsburg,07134 75-0,info@klinikum-weissenhof.de,www.klinikum-weissenhof.de,1,Zentrum für Psychiatrie,2,0,2,2,2,2,2,-,,,,,,,,,,,,,,,,,,,,,,,,,,,,,,,,,,,,,,,,,,,,,,,,,,,,,,,,,,,,,,,,,,,,,,,,,,,,,,,,,,,,,,,,,,,,,,,,,,,,,,,,,,,,,,,,,,,,,,,,,,,,,,,,,,,,,,,,,,,,,,,,,,,,,,,ludwigsburg,48.8953937,9.1895147,10,17
8,118,48,Klinikum Ludwigsburg,Klinikum Ludwigsburg,Posilipostraße,4,71640,ludwigsburg,07141 99-90,info.lb@kliniken-lb.de,www.klinikum-ludwigsburg.de,1,RKH Kliniken Ludwigsburg-Bietigheim gGmbH,2,3,2,2,2,2,2,766,13.0,,,,,,,23.0,,,,,,,,,,,,,99.0,,,,,,,,,,,81.0,,,,,,27.0,,,,,,,,,,,,,,36.0,,,,50.0,,,,,,,,,,61.0,33.0,28.0,,,,,,,,,,,33.0,,,,,63.0,,,,,,3.0,1.0,48.0,,,,,127.0,,,,,,,,,,,,,,,,,,,,,,10.0,,,,,,3.0,27.0,,,,,,,,,,,,,,,,,,,,,,,,,ludwigsburg,48.8953937,9.1895147,10,17
8,118,48,NC Klinik am Forum,NC Klinik am Forum,Stuttgarter Str.,30,71638,ludwigsburg,07141 9379-0,info@klinikamforum.de,www.klinikamforum.de,3,NC Klinik am Forum GmbH & Co KG,4,0,2,2,2,2,2,13,,,,,,,,,,,,,,,,,,,,,,,,,,,,,,,,,,,,,,,,,,,,,,,,,,,,,,,,,,,,,,,,,,,13.0,,,,,,,,,,,,,,,,,,,,,,,,,,,,,,,,,,,,,,,,,,,,,,,,,,,,,,,,,,,,,,,,,,,,,,,,,,,,,,,,,,,,ludwigsburg,48.8953937,9.1895147,10,17
8,118,48,Solitude-Privatklinik,Solitude-Privatklinik,Solitudestr.,24,71638,ludwigsburg,07141 97676-0,info@mkg-solitude.de,www.mkg-solitude.de,3,Chirurgische Privatklinik Solitude Gmbh,4,0,2,2,2,2,2,3,,,,,,,,,,,,,,,,,,,,,,,,,,,,,,,,,,,,,,,,,,,,,,,,,,,,,,,,,,,,,,,,,,,,,1.0,,,,,,,,,,,,,,,,,,,,,,,,,,,,,,,,,,,,,,,,,,,,,,,,,,,,,1.0,,,1.0,,,,,,,,,,,,,,,,,,,,,,,,,,ludwigsburg,48.8953937,9.1895147,10,17
8,127,76,Diak Klinikum Schwäbisch Hall,Diak Klinikum Schwäbisch Hall,Diakoniestraße,10,74523,schwäbisch hall,0791 753-1,info@dasdiak-klinikum.de,www.dasdiak-klinikum.de,2,Diakonie-Klinikum Schwäbisch Hall gGmbH,2,3,2,2,2,2,2,540,,,,,,,,,,,,,,,,,,,,,62.0,,,,31.0,,,,,,,57.0,,,,,,44.0,,,,,,,,,12.0,,,,,,,,,45.0,,,,,,,,,,45.0,18.0,42.0,13.0,,,,,,,,,,25.0,18.0,,,,43.0,,,,,,8.0,,49.0,,,,,,,,,,,,,,,,,,,,,22.0,,,,3.0,,,,,,,,3.0,,,,,,,,,,,,,,,,,,,,,,,,,,schwäbisch hall,49.1123963,9.7369047,11,20
8,127,76,Klinikum am Weissenhof,Tagesklinik Schwäbisch Hall,Ringstraße,1,74523,schwäbisch hall,07134 75-0,info@klinikum-weissenhof.de,www.klinikum-weissenhof.de,1,Zentrum für Psychiatrie,2,0,2,2,2,2,2,-,,,,,,,,,,,,,,,,,,,,,,,,,,,,,,,,,,,,,,,,,,,,,,,,,,,,,,,,,,,,,,,,,,,,,,,,,,,,,,,,,,,,,,,,,,,,,,,,,,,,,,,,,,,,,,,,,,,,,,,,,,,,,,,,,,,,,,,,,,,,,,,,,,,,,,,schwäbisch hall,49.1123963,9.7369047,11,20
8,127,76,Zentrum für Psychische Gesundheit Schwäbisch Hall,Zentrum für Psychische Gesundheit Schwäbisch Hall,Ringstraße,1,74523,schwäbisch hall,0791 753-9100,info@zfpg-sha.de.de,www.zfpg-sha.de,1,Psychiatrie Schwäbisch Hall gGmbH,3,0,2,2,2,2,2,24,,,,,,,,,,,,,,,,,,,,,,,,,,,,,,,,,,,,,,,,,,,,,,,,,,,,,,,,,,,,,,,,,,,,,,,,,,,,,,,,,,,,,,,,,,,,,,,,,24.0,,,,,,,,,,,,,,,,,,,,,,,,,,,,,,,,,,,,,,,,,,,,,,,,,,,,,,schwäbisch hall,49.1123963,9.7369047,11,20
8,216,43,Klinikum Mittelbaden Rastatt-Forbach,Klinikum Mittelbaden Rastatt-Forbach Standort Rastatt,Engelstraße,39,76437,rastatt,07222 389-0,info.rastatt@klinikum-mittelbaden.de,www.klinikum-mittelbaden.de,1,Klinikum Mittelbaden gGmbH,2,2,2,2,2,2,2,236,81.0,,,,,,,,,,,,,,,,,,,,,,,,,,,,,,,,,,,,,,,,,,,,,,,,,,,,,,,92.0,,,,,,,,,,,,,,,,,,,,,,,,,,,,,,,,,,,,51.0,,,,,,,,,,,,,,,,,,,,,,,,,,,,,,,,,,12.0,,,,,,,,,,,,,,,,,,,,,,,,,rastatt,48.8574209,8.2088088,10,11
8,216,43,MediClin Klinik an der Lindenhöhe,MediClin Klinik an der Lindenhöhe Rastatt,Engelstraße,37,76437,rastatt,0781 9192-0,info.lindenhoehe@MediClin.de,www.klinik-lindenhoehe.de,3,MediClin GmbH & Co. KG,2,0,2,2,2,2,2,-,,,,,,,,,,,,,,,,,,,,,,,,,,,,,,,,,,,,,,,,,,,,,,,,,,,,,,,,,,,,,,,,,,,,,,,,,,,,,,,,,,,,,,,,,,,,,,,,,,,,,,,,,,,,,,,,,,,,,,,,,,,,,,,,,,,,,,,,,,,,,,,,,,,,,,,rastatt,48.8574209,8.2088088,10,11
8,235,85,Klinik Dr. Römer - Akutklinik für Psychosomatik und Psychotherapie,Klinik Dr. Römer,Altburger Weg,2,75365,calw,07051 588-0,info@roemerklinik.de,www.klinik-dr-roemer.de,3,Dr. Römer Kliniken GmbH,3,0,2,2,2,2,2,48,,,,,,,,,,,,,,,,,,,,,,,,,,,,,,,,,,,,,,,,,,,,,,,,,,,,,,,,,,,,,,,,,,,,,,,,,,,,,,,,,,,,,,,,,,,,,,,,,,,,,,,,,,,,,,,,,48.0,,,,,,,,,,,,,,,,,,,,,,,,,,,,,,,,,,,,,,calw,48.7142691,8.7397624,8,14
8,235,85,Kreisklinikum Calw-Nagold,Kliniken Calw,Eduard-Conz-Straße,6,75365,calw,07051 14-0,info@klinikverbund-suedwest.de,www.klinikverbund-suedwest.de,1,Kreiskliniken Calw gGmbH,2,1,2,2,2,2,2,199,100.0,,,,,,,,,,,,,,,,,,,,,,,,,,,,,,,,,,,,,,,,,,,,,,,,,,,,,,,47.0,,,,,,,,,,,,,,,,,,,,,,,,,,,,23.0,,,,,,,,29.0,,,,,,,,,,,,,,,,,,,,,,,,,,,,,,,,,,,,,,,,,,,,,,,,,,,,,,,,,,,calw,48.7142691,8.7397624,8,14
8,235,85,Zentrum für Psychiatrie Calw,Zentrum für Psychiatrie Calw,Lützenhardter Hof,1,75365,calw,07051 586-0,info@kn-calw.de,www.kn-calw.de,1,Zentrum für Psychiatrie Calw - Klinikum Nordschwarzwald,2,0,2,2,2,2,2,331,,,,,,,,,,,,,,,,,,,,,,,,,,,,,,,,,,,,,,,,,,,,,,,,,,,,,,,,,,,,,,,,,,,,,,,,,,,,,,,,,,,,,,,,,,,,,,,,,309.0,,,,,,,,,,,,,,,,22.0,,,,,,,,,,,,,,,,,,,,,,,,,,,,,,,,,,,,,,calw,48.7142691,8.7397624,8,14
8,237,28,Krankenhaus Freudenstadt,Krankenhaus Freudenstadt,Karl-v.-Hahn-Straße,120,72233,freudenstadt,07441 54-0,info@klf-net.de,www.klf-web.de,1,Krankenhäuser Landkreis Freudenstadt gGmbH,2,2,2,1,2,2,2,343,,,33.0,,,,70.0,,,,,,,,,,,,,,,,,,,,,,,,,,,,,,,20.0,,,,,,,,,,,,,,8.0,,,,,,64.0,,,,,,23.0,,,,,,,,,,,,,,,,,,,,37.0,,,,,,6.0,,,,,,,53.0,,,,,,,,,,,,,,,,18.0,,,,,,,,,,,,1.0,10.0,,,,,,,,,,,,,,,,,,,,,,,,,freudenstadt,48.4637727,8.4111727,7,12
8,316,11,Kreiskrankenhaus Emmendingen,Kreiskrankenhaus Emmendingen,Gartenstraße,44,79312,emmendingen,07641 454-0,verwaltung@krankenhaus-emmendingen.de,www.krankenhaus-emmendingen.de,1,Landratsamt Emmendingen,2,1,2,2,2,1,2,235,100.0,,,,,,,,,,,,,,,,,,,,,,,,,,,,,,,,,,,,,,,,,,,,,,,,,,,,,,,38.0,,,,,,,,,,44.0,,,,,,,,,,,,,5.0,,,,,34.0,,,,,,2.0,,,,,,,,,,,,,,,,,,,,,,,,,,,,,,,,,,,,10.0,,,,,,,,,,,,,,2.0,,,,,,,,,,,emmendingen,48.1224978,7.8653814,4,9
8,316,11,medem Praxisklinik,medem Praxisklinik,Platanenweg,7,79312,emmendingen,07641 6688,info@ortho-station.com,www.medem.de,3,medem Klinikgesellschaft GbR,4,0,2,2,2,2,2,3,,,,,,,,,,,,,,,,,,,,,,,,,,,,,,,,,,,,,,,,,,,,,,,,,,,,,,,,,,,,,,,,,,,,,,,,,,,,,,,,3.0,,,,,,,,,,,,,,,,,,,,,,,,,,,,,,,,,,,,,,,,,,,,,,,,,,,,,,,,,,,,,,,,,,,,,,,emmendingen,48.1224978,7.8653814,4,9
8,316,11,Zentrum für Psychiatrie Emmendingen,ZfP Emmendingen (Hauptstandort),Neubronnstraße,25,79312,emmendingen,07641 461-0,info@zfp-emmendingen.de,www.zfp-emmendingen.de,1,Zentrum für Psychiatrie Emmendingen,2,0,2,2,2,2,2,533,,,,,,,,,,,,,,,,,,,,,,,,,,,,,,,,,,,,,,,,,,,,,,,,,,,,,,,,,,,,,,,,,,,,,,,,,,,,,,,,,,,,,,,,,,,,,,,,,392.0,,,,15.0,108.0,,,,,,,,,,,18.0,,,,,,,,,,,,,,,,,,,,,,,,,,,,,,,,,,,,,,emmendingen,48.1224978,7.8653814,4,9
8,325,49,Helios Klinik Rottweil,Helios Klinik Rottweil,Krankenhausstraße,30,78628,rottweil,0741 476-0,info.rottweil@helios-gesundheit.de,www.helios-gesundheit.de,3,HELIOS Klinik Rottweil GmbH,2,1,2,2,2,2,2,209,89.0,15.0,,,,,,,,,,,,,,,,,,,,,,,,,,,,,,,,,,,,,,,,,,,,,,,,,,,,,,76.0,,,,,,,,,,,,,,,,,,,,,,,,,,,,28.0,,,,,,1.0,,,,,,,,,,,,,,,,,,,,,,,,,,,,,,,,,,,,,,,,,,,,,,,,,,,,,,,,,,,,,rottweil,48.1678244,8.626979,4,13
8,325,49,Vinzenz von Paul Hospital - Klinik Rottenmünster,Vinzenz von Paul Hospital - Klinik Rottenmünster,Schwenninger Straße,55,78628,rottweil,0741 241-0,info@vvph.de,www.vvph.de,2,Vinzenz von Paul Hospital gGmbH,2,0,2,2,2,1,2,464,,,,,,,,,,,,,,,,,,,,,,,,,,,,,,,,,,,,,,,,,,,,,,,,,,,,,,,,,,,,,,,,,,,,,,,,,,,,,,,,,,,,,,,,,,,,40.0,,,,,238.0,,,,62.0,124.0,,,,,,,,,,,,,,,,,,,,,,,,,,,,,,,,,,,,,,,,,,,,,,,,,rottweil,48.1678244,8.626979,4,13
8,327,50,Klinikum Landkreis Tuttlingen,Standort Tuttlingen,Zeppelinstraße,21,78532,tuttlingen,07461 97-0,info@klinikum-tut.de,www.klinikum-tut.de,1,Klinikum Landkreis Tuttlingen gGmbH,2,1,2,2,2,2,2,303,,34.0,57.0,,,,71.0,,,,,,,,,,,,,,,,,,,,,,,,,,,,,,,,,,,,,,,,,,,,,,,,,45.0,,51.0,,,,,,,3.0,,,,,,,,,,,,,,,,,,,30.0,,,,,,,2.0,,,,,,,,,,,,,,,,,,,,,,,,,,,,,,,,,,,10.0,,,,,,,,,,,,,,,,,,,,,,,,,tuttlingen,47.9844315,8.8186606,3,14
8,327,50,Zentrum für Psychiatrie Reichenau,Ambulanz Tuttlingen,Freiburgstraße,44,78532,tuttlingen,07531 977-0,info@zfp-reichenau.de,www.zfp-reichenau.de,1,Zentrum für Psychiatrie Reichenau,2,0,2,2,2,2,2,-,,,,,,,,,,,,,,,,,,,,,,,,,,,,,,,,,,,,,,,,,,,,,,,,,,,,,,,,,,,,,,,,,,,,,,,,,,,,,,,,,,,,,,,,,,,,,,,,,,,,,,,,,,,,,,,,,,,,,,,,,,,,,,,,,,,,,,,,,,,,,,,,,,,,,,,tuttlingen,47.9844315,8.8186606,3,14
8,335,43,Herz-Zentrum Bodensee,Herz-Zentrum Bodensee,Luisenstraße,9a,78464,konstanz,07531 897-0,info@herz-zentrum.com,www.herz-zentrum.com,3,Herz-Zentrum Bodensee GmbH,4,1,2,2,2,2,1,52,,,,,,,,,,,,,,,,,,,,,34.0,,,,,,,,,,,,,,,,,,,,,,,,,,,,,,,,,,,,,,,,,,,,,,,,,,,,,18.0,,,,,,,,,,,,,,,,,,,,,,,,,,,,,,,,,,,,,,,,,,,,,,,,,,,,,,,,,,,,,,,,,,,,,,,,,,,,,konstanz,47.659216,9.1750718,1,16
8,335,43,Klinikum Konstanz,Klinikum Konstanz,Mainaustraße,35,78464,konstanz,07531 801-0,kontakt@klinikum-konstanz.de,www.klinikum-konstanz.de,1,Klinikum Konstanz GmbH,2,2,1,1,2,2,2,380,127.0,,,,,,,,,,,,,,,,,,,,,,,,,,,,,,,,,,,,,32.0,,,,,,,,,,,,,,6.0,,,,49.0,,,,,,59.0,,,,39.0,,,,6.0,,,,,,,,,1.0,,,,,30.0,,,,,,2.0,1.0,,,,,,,,,,,,,,,,,,,,,,,,,,3.0,,10.0,,,,,,11.0,,,,,,,,,,,,,,,,,,,4.0,,,,,,,konstanz,47.659216,9.1750718,1,16
8,335,43,Zentrum für Psychiatrie Reichenau,Satellit (TAZ) Konstanz,Luisenstraße,7,78464,konstanz,07531 977-0,info@zfp-reichenau.de,www.zfp-reichenau.de,1,Zentrum für Psychiatrie Reichenau,2,0,2,2,2,2,2,-,,,,,,,,,,,,,,,,,,,,,,,,,,,,,,,,,,,,,,,,,,,,,,,,,,,,,,,,,,,,,,,,,,,,,,,,,,,,,,,,,,,,,,,,,,,,,,,,,,,,,,,,,,,,,,,,,,,,,,,,,,,,,,,,,,,,,,,,,,,,,,,,,,,,,,,konstanz,47.659216,9.1750718,1,16
8,336,50,Kliniken des Landkreises Lörrach,Kreiskrankenhaus Lörrach,Spitalstraße,25,79539,lörrach,07621 416-0,info@klinloe.de,www.klinloe.de,1,Kliniken des Landkreises Lörrach GmbH,2,2,2,2,2,2,2,324,153.0,,,,,,,,,,,,,,,,,,,,,,,,,,,,,,,,,,,,,,,,,,,,,,,,,,,,,,,62.0,,59.0,,,,,,,,,,,,,,,,,,,,,,,,,,,,,,,,,,31.0,,,,,,,,,,,,,,,,,,,,,18.0,,,,,,,,,,,,1.0,,,,,,,,,,,,,,,,,,,,,,,,,,lörrach,47.6120896,7.6607218,0,8
8,336,50,Oberberg Tagesklinik Lörrach,Oberberg Tagesklinik Lörrach,Georges-Köhler-Straße,2,79539,lörrach,076211548428-0,info@oberbergkliniken.de,www.oberbergkliniken.de/,3,Oberberg Tageskliniken GmbH,4,0,2,2,2,2,2,-,,,,,,,,,,,,,,,,,,,,,,,,,,,,,,,,,,,,,,,,,,,,,,,,,,,,,,,,,,,,,,,,,,,,,,,,,,,,,,,,,,,,,,,,,,,,,,,,,,,,,,,,,,,,,,,,,,,,,,,,,,,,,,,,,,,,,,,,,,,,,,,,,,,,,,,lörrach,47.6120896,7.6607218,0,8
8,336,50,St. Elisabethen-Krankenhaus Lörrach,Hauptstandort ELI,Feldbergstraße,15,79539,lörrach,07621 171-0,info@elikh.de,www.elikh.de,2,St. Elisabethen-Krankenhaus gGmbH,2,3,2,1,2,2,2,195,,,,,,,,,,,,,,,,,,,,,,,,,,,,,,,,,,,,,,36.0,,,,,,,20.0,,,,,,,,6.0,,,,,,,,,,,,,,,,,,,,,,,,,,20.0,,,,,94.0,,,,,,19.0,,,,,,,,,,,,,,,,,,,,,,,,,,,,,,,,,,,,,,,,,,,,,,,,,,,,,,,,,,,,,lörrach,47.6120896,7.6607218,0,8
8,336,50,St. Elisabethen-Krankenhaus Lörrach,Standort KJP,Markus-Pflüger-Straße,12,79539,lörrach,07621 171-0,info@elikh.de,www.elikh.de,2,St. Elisabethen-Krankenhaus gGmbH,2,0,2,2,2,2,2,23,,,,,,,,,,,,,,,,,,,,,,,,,,,,,,,,,,,,,,,,,,,,,,,,,,,,,,,,,,,,,,,,,,,,,,,,,,,,,,,,,,,,,,,,,,,,,,,,,,,,,,,,,,,,,,23.0,,,,,,,,,,,,,,,,,,,,,,,,,,,,,,,,,,,,,,,,,lörrach,47.6120896,7.6607218,0,8
8,336,50,Zentrum für Psychiatrie Emmendingen Tagesklinik Lörrach,Psychiatrische Tagesklinik Lörrach,Riesstraße,14,79539,lörrach,07621 422596-0,ptk-loerrach@zfp-emmendingen.de,www.zfp-emmendingen.de,1,Zentrum für Psychiatrie Emmendingen,2,0,2,2,2,2,2,-,,,,,,,,,,,,,,,,,,,,,,,,,,,,,,,,,,,,,,,,,,,,,,,,,,,,,,,,,,,,,,,,,,,,,,,,,,,,,,,,,,,,,,,,,,,,,,,,,,,,,,,,,,,,,,,,,,,,,,,,,,,,,,,,,,,,,,,,,,,,,,,,,,,,,,,lörrach,47.6120896,7.6607218,0,8
8,415,61,Klinik im Kronprinzenbau,Klinik im Kronprinzenbau,Listplatz,1,72764,reutlingen,07121 3125-0,team@kronprinzenbau-klinik.de,www.kronprinzenbau-klinik.de,3,"Klinik und Praxis Dr. Albrecht,Gühring,Baacke GbR",3,0,2,2,2,2,2,11,,,,,,,,,,,,,,,,,,,,,,,,,,,,,,,,,,,,,,,,,,,,,,,,,,,,,,,,11.0,,,,,,,,,,,,,,,,,,,,,,,,,,,,,,,,,,,,,,,,,,,,,,,,,,,,,,,,,,,,,,,,,,,,,,,,,,,,,,,,,,,,,,,,,,,,,,,reutlingen,48.4919508,9.2114144,7,17
8,415,61,Klinikum am Steinenberg/Ermstalklinik,Klinikum am Steinenberg Reutlingen,Steinenbergstraße,31,72764,reutlingen,07121 200-0,info@klin-rt.de,www.kreiskliniken-reutlingen.de,1,Kreiskliniken Reutlingen GmbH,2,3,2,1,2,2,2,515,99.0,,,,,,,9.0,,,,,,,,,,,,,62.0,,,,,,,,,,,,,,,,,44.0,,,,,,,,,,,,,,,,,,39.0,,,,,,,,,,48.0,20.0,28.0,,,,,,,,,,,33.0,,,,,56.0,,,,,,4.0,,33.0,,,20.0,,,,,,,,,,,,,,,,,,,,,,,,,,,,,,,20.0,,,,,,,,,,,,,,,,,,,,,,,,,reutlingen,48.4919508,9.2114144,7,17
8,415,61,PP.rt Klinik für Psychiatrie und Psychosomatik,Standort Haus Dietrich Bonhoeffer,Wörthstraße,52 1,72764,reutlingen,07121 9200-0,info@pprt.de,www.pprt.de,2,Gemeinnützige Gesellschaft für Psychiatrie Reutlingen mbH,2,0,2,2,1,2,2,155,,,,,,,,,,,,,,,,,,,,,,,,,,,,,,,,,,,,,,,,,,,,,,,,,,,,,,,,,,,,,,,,,,,,,,,,,,,,,,,,,,,,,,,,,,,,,,,,,137.0,,,,,,,,,,,,,,,,18.0,,,,,,,,,,,,,,,,,,,,,,,,,,,,,,,,,,,,,,reutlingen,48.4919508,9.2114144,7,17
8,415,61,Universitätsklinikum Tübingen,Tagesklinik KJP Reutlingen,Lindachstraße,43,72764,reutlingen,07071 29-0,info@uni-tuebingen.de,www.uni-tuebingen.de,1,Universitätsklinikum Tübingen,1,0,2,2,2,2,2,-,,,,,,,,,,,,,,,,,,,,,,,,,,,,,,,,,,,,,,,,,,,,,,,,,,,,,,,,,,,,,,,,,,,,,,,,,,,,,,,,,,,,,,,,,,,,,,,,,,,,,,,,,,,,,,,,,,,,,,,,,,,,,,,,,,,,,,,,,,,,,,,,,,,,,,,reutlingen,48.4919508,9.2114144,7,17
8,416,41,BG Klinik Tübingen,BG Klinik Tübingen,Schnarrenbergstraße,95,72076,tübingen,07071 606-0,info@bgu-tuebingen.de,www.bgu-tuebingen.de,2,BG Kliniken Ludwigshafen und Tübingen gGmbH,2,2,1,2,2,2,2,340,,,,,,,,,,,,,,,,,,,,,,,,,,,,,,,,,,,,,,,,,,,,,,,,,,,,,,,,,,,,,,,,,,221.0,,,48.0,,,,,,,,,,,39.0,,,,,,,,,,,,,,,,,,,,,,,,,,,,,,,,,,,,,,,,,,,,,15.0,17.0,,,,,,,,,,,,,,,,,,,,,,,,,tübingen,48.5203263,9.053596,7,16
8,416,41,Loretto Klinik,Loretto Klinik,Katharinenstr.,10,72072,tübingen,07071 369155,info@lorettoklinik.de,www.lorettoklinik.de,3,Loretto Klinik GmbH,4,0,2,2,2,2,2,7,,,,,,,,,,,,,,,,,,,,,,,,,,,,,,,,,,,,,,,,,,,,,,,,,,,,,,,,7.0,,,,,,,,,,,,,,,,,,,,,,,,,,,,,,,,,,,,,,,,,,,,,,,,,,,,,,,,,,,,,,,,,,,,,,,,,,,,,,,,,,,,,,,,,,,,,,,tübingen,48.5203263,9.053596,7,16
8,416,41,Tropenklinik Paul-Lechler-Krankenhaus,Tropenklinik Paul-Lechler-Krankenhaus,Paul-Lechler-Straße,26,72076,tübingen,07071 206-0,info@tropenklinik.de,www.tropenklinik.de,2,Tropenklinik Paul Lechler Krankenhaus gGmbH,2,0,2,2,1,2,2,90,90.0,,,,,,,,,,,,,,,,,,,,,,,,,,,,,,,,,,,,,,,,,,,,,,,,,,,,,,,,,,,,,,,,,,,,,,,,,,,,,,,,,,,,,,,,,,,,,,,,,,,,,,,,,,,,,,,,,,,,,,,,,,,,,,,,,,,,,,,,,,,,,,,,,,,,,,tübingen,48.5203263,9.053596,7,16
8,416,41,Universitätsklinikum Tübingen,Hauptstandort,Hoppe-Seyler-Straße,3,72076,tübingen,07071 29-0,info@uni-tuebingen.de,www.uni-tuebingen.de,1,Universitätsklinikum Tübingen,1,3,2,2,2,2,2,1468,300.0,,,,,,,,,,,,,,,,,,,,,,,,,,,,,,,,,,,,,72.0,,,,,,,,,,,,14.0,,50.0,34.0,,,84.0,,,,,,,,,,,46.0,,,47.0,,,,,,,,,40.0,36.0,,,,114.0,,,,,,62.0,73.0,83.0,,,,,182.0,,,,,,,,,,,,,42.0,,,,,,,10.0,,30.0,,,89.0,,,,40.0,,,,,,,,,,,,,,20.0,,,,,,,,,,,tübingen,48.5203263,9.053596,7,16
8,426,21,nova clinic,nova clinic,Eichendorffweg,5,88400,biberach,07351 4449-0,verwaltung@nova-clinic.de,www.nova-clinic.de,3,nova clinic GmbH & Co.KG,4,0,2,2,2,2,2,10,,,,,,,,,,,,,,,,,,,,,,,,,,,,,,,,,,,,,,,,,,,,,,,,,,,,,,,,,,,,,,,,,,,,,,,,,,,,,,,,10.0,,,,,,,,,,,,,,,,,,,,,,,,,,,,,,,,,,,,,,,,,,,,,,,,,,,,,,,,,,,,,,,,,,,,,,,biberach,48.0984413,9.7899938,4,20
8,436,64,Oberschwabenklinik St. Elisabethen-Klinikum Ravensburg,Oberschwabenklinik St. Elisabethen-Klinikum Ravensburg,Elisabethenstraße,15,88212,ravensburg,0751 87-0,info@oberschwabenklinik.de,www.oberschwabenklinik.de,1,Oberschwabenklinik gGmbH,2,3,2,2,2,2,2,542,80.0,,,,,,,,,,,,,,,,,,,,44.0,,,,,,,,,,,,,,,,,49.0,,,,,,,,,,,,,,16.0,,,,37.0,,,,,,,,,,,42.0,28.0,2.0,,,,,,,,,,21.0,72.0,,,,39.0,,,,,,21.0,,43.0,,,,,,,,,,,,,,,,,,,,,,,,,,,18.0,,,,,,2.0,,12.0,,,,16.0,,,,,,,,,,,,,,,,,,,,ravensburg,47.7811014,9.612468,2,19
8,436,64,ZfP Südwürttemberg Weissenau,Krankenhaus Weissenau,Weingartshofer Straße,2,88214,ravensburg,0751 7601-0,info@zfp-zentrum.de,www.zfp-web.de,1,ZfP Südwürttemberg,2,0,2,2,1,2,2,309,,,,,,,,,,,,,,,,,,,,,,,,,,,,,,,,,,,,,,,,,,,,,,,,,,,,,,,,,,,,,,,,,,,,,,,,,,,,,,,,,,,,,,,,,,,,53.0,,,,,192.0,,,,,,,,,,,,,64.0,,,,,,,,,,,,,,,,,,,,,,,,,,,,,,,,,,,,,,,,,ravensburg,47.7811014,9.612468,2,19
8,436,64,ZfP Südwürttemberg Weissenau,Satellit Ravensburg,Nikolausstraße,14,88212,ravensburg,0751 7601-0,info@zfp-zentrum.de,www.zfp-web.de,1,ZfP Südwürttemberg,2,0,2,2,1,2,2,42,,,,,,,,,,,,,,,,,,,,,,,,,,,,,,,,,,,,,,,,,,,,,,,,,,,,,,,,,,,,,,,,,,,,,,,,,,,,,,,,,,,,,,,,,,,,,,,,,24.0,,,,,,,,,,,,,,,,18.0,,,,,,,,,,,,,,,,,,,,,,,,,,,,,,,,,,,,,,ravensburg,47.7811014,9.612468,2,19
8,436,64,ZfP Südwürttemberg Weissenau,Ambulanz Ravensburg,Gartenstraße,3,88212,ravensburg,0751 7601-0,info@zfp-zentrum.de,www.zfp-web.de,1,ZfP Südwürttemberg,2,0,2,2,2,2,2,-,,,,,,,,,,,,,,,,,,,,,,,,,,,,,,,,,,,,,,,,,,,,,,,,,,,,,,,,,,,,,,,,,,,,,,,,,,,,,,,,,,,,,,,,,,,,,,,,,,,,,,,,,,,,,,,,,,,,,,,,,,,,,,,,,,,,,,,,,,,,,,,,,,,,,,,ravensburg,47.7811014,9.612468,2,19
8,437,104,SRH Kliniken Landkreis Sigmaringen,SRH Krankenhaus Sigmaringen,Hohenzollernstr.,40,72488,sigmaringen,07571 100-0,info@klksig.de,www.kliniken-sigmaringen.de,1,SRH Kliniken Landkreis Sigmaringen GmbH,2,2,1,2,1,1,1,368,91.0,,,,,,,,,,,,,,,,,,,,,,,,,,,,,,,,,,,,,,,,,,,,,,,,,,,,,,,70.0,,,,,,,,,,,,,,,,,,,,,,,32.0,,,,,37.0,,,,,,2.0,,38.0,,,,,76.0,,,,,,,,,,,,,,,,8.0,,,,,,,,,,,,,14.0,,,,,,,,,,,,,,,,,,,,,,,,,sigmaringen,48.0855844,9.2178879,4,17
9,161,0,AMEOS Klinikum St. Elisabeth Neuburg,Kliniken St. Elisabeth Außenstelle Klinikum Ingolstadt,Krumenauerstr.,25,85049,ingolstadt,08431 54-0,,,2,KJF Klinik St. Elisabeth gGmbH,2,0,2,1,2,2,2,27,,,,,,,,,,,,,,,,,,,,,,,,,,,,,,,,,,,,,,11.0,,,,,,,,,,,,,,16.0,,,,,,,,,,,,,,,,,,,,,,,,,,,,,,,,,,,,,,,,,,,,,,,,,,,,,,,,,,,,,,,,,,,,,,,,,,,,,,,,,,,,,,,,,,,,,,,,,,,ingolstadt,48.7630165,11.4250395,9,29
9,161,0,Danuvius Klinik GmbH,Danuvius Klinik Ingolstadt,Preysingstr.,3-5,85049,ingolstadt,0841 9339-0,info@danuviusklinik.de,www.danuviusklinik.de,3,Danuvius Klinik GmbH,2,0,2,2,2,2,2,-,,,,,,,,,,,,,,,,,,,,,,,,,,,,,,,,,,,,,,,,,,,,,,,,,,,,,,,,,,,,,,,,,,,,,,,,,,,,,,,,,,,,,,,,,,,,,,,,,,,,,,,,,,,,,,,,,,,,,,,,,,,,,,,,,,,,,,,,,,,,,,,,,,,,,,,ingolstadt,48.7630165,11.4250395,9,29
9,161,0,kbo-Heckscher-Klinikum gemeinnützige GmbH München,kbo-Heckscher-Klinikum Abteilung Ingolstadt,Münchener Str.,135,85051,ingolstadt,089 9999-0,info.hek-mdh@kbo.de,www.kbo-heckscher-klinikum.de,1,kbo-Heckscher-Klinikum gemeinnützige GmbH,2,0,2,2,2,2,2,-,,,,,,,,,,,,,,,,,,,,,,,,,,,,,,,,,,,,,,,,,,,,,,,,,,,,,,,,,,,,,,,,,,,,,,,,,,,,,,,,,,,,,,,,,,,,,,,,,,,,,,,,,,,,,,,,,,,,,,,,,,,,,,,,,,,,,,,,,,,,,,,,,,,,,,,ingolstadt,48.7630165,11.4250395,9,29
9,161,0,Klinik Dr. Maul GmbH,Klinik Dr. Maul GmbH,Östliche Ringstr.,4,85049,ingolstadt,0841 9358-0,krankenhaus@klinik-dr-maul.de,www.klinik-dr-maul.de,3,Klinik Dr. Maul GmbH,2,0,2,2,1,2,2,45,,,,,,,,,,,,,,,,,,,,,,,,,,,,,,,,,,,,,,,,,,,,,,,,,,,,,,,,37.0,,,,,,,,,,,,,,,,,,,,,,,,,,,,8.0,,,,,,,,,,,,,,,,,,,,,,,,,,,,,,,,,,,,,,,,,,,,,,,,,,,,,,,,,,,,,,,,,,,ingolstadt,48.7630165,11.4250395,9,29
9,161,0,Klinikum Ingolstadt GmbH,Klinikum Ingolstadt,Krumenauerstr.,25,85049,ingolstadt,0841 880-0,info@klinikum-ingolstadt.de,www.klinikum-ingolstadt.de,1,Klinikum Ingolstadt GmbH,2,2,2,2,2,2,2,1103,19.0,,,,,,,,,,,,,,,,34.0,,,,91.0,19.0,,,,,,,,,,105.0,,,42.0,,,,,,,,,,,,,,,,,,14.0,,,43.0,,,,,,,,,,113.0,35.0,25.0,,,,,,,,,,,54.0,,,,,72.0,,,,,,2.0,1.0,71.0,,,,,280.0,,,,,,,,,,,,,,,,25.0,,,,,,,,,,,,1.0,24.0,,,,,,,,,,,,,,21.0,,,10.0,2.0,,,,,,,ingolstadt,48.7630165,11.4250395,9,29
9,161,0,Klinikum Ingolstadt GmbH,Klinikum Ingolstadt Tagesklinisches Zentrum Münchener Str.,Münchener Str.,135,85051,ingolstadt,0841 880-0,info@klinikum-ingolstadt.de,www.klinikum-ingolstadt.de,1,Klinikum Ingolstadt GmbH,2,0,2,2,2,2,2,-,,,,,,,,,,,,,,,,,,,,,,,,,,,,,,,,,,,,,,,,,,,,,,,,,,,,,,,,,,,,,,,,,,,,,,,,,,,,,,,,,,,,,,,,,,,,,,,,,,,,,,,,,,,,,,,,,,,,,,,,,,,,,,,,,,,,,,,,,,,,,,,,,,,,,,,ingolstadt,48.7630165,11.4250395,9,29
9,161,0,Privatklinik Ingolstadt,Privatklinik Ingolstadt,Am Westpark,1,85057,ingolstadt,,,,3,Dr. med. Michaela Hassmann Hans Jörg Wiening Dr. med. Peter Kai Schrittenloher,4,0,2,2,2,2,2,7,,,,,,,,,,,,,,,,,,,,,,,,,,,,,,,,,,,,,,,,,,,,,,,,,,,,,,,,,,,,,,,,,,,,,2.0,,,,,,,,,,,5.0,,,,,,,,,,,,,,,,,,,,,,,,,,,,,,,,,,,,,,,,,,,,,,,,,,,,,,,,,,,,,,,,,,,,,,,ingolstadt,48.7630165,11.4250395,9,29
9,171,111,InnKlinikum gKU Altötting und Mühldorf,InnKlinikum Altötting und Mühldorf - Klinik Altötting,Vinzenz-von-Paul-Str.,10,84503,altötting,08671 509-0,info@krk-aoe.de,www.diekreiskliniken.de,1,InnKlinikum gKU Altötting und Mühldorf AöR,2,2,2,1,2,2,2,407,92.0,,,,,,,,,,,,,,,,20.0,,,,,,,,,,,,,,,,,,,,,36.0,,,,,,,,,,,,,,9.0,,,,53.0,,,,,,,,,,60.0,,25.0,,,,,,,,,,,30.0,,,,,54.0,,,,,,,,20.0,,,,,,,,,,,,,,,,,,,,,,,,,,,,,,,,,,,,,,,,,,,,,,,,,,,8.0,,,,,,,,altötting,48.2268085,12.6757914,5,36
9,171,111,kbo-Inn-Salzach-Klinikum gGmbH,kbo-Inn-Salzach-Klinikum gGmbH Klinikum Altötting,Vinzenz-von-Paul-Str.,8,84503,altötting,08071 71-0,info@iskl.de,www.iskl.de,1,kbo-Inn-Salzach-Klinikum gemeinnützige GmbH,2,0,2,2,2,2,2,-,,,,,,,,,,,,,,,,,,,,,,,,,,,,,,,,,,,,,,,,,,,,,,,,,,,,,,,,,,,,,,,,,,,,,,,,,,,,,,,,,,,,,,,,,,,,,,,,,,,,,,,,,,,,,,,,,,,,,,,,,,,,,,,,,,,,,,,,,,,,,,,,,,,,,,,altötting,48.2268085,12.6757914,5,36
9,171,111,Zentrum für Kinder und Jugendliche Inn-Salzach e.V.,Zentrum für Kinder und Jugendliche Inn-Salzach eV,Vinzenz-von-Paul-Str.,14,84503,altötting,08671 509900,mail@kinderzentrum.de,www.kinderzentrum.de,2,Zentrum für Kinder und Jugendliche Inn-Salzach e.V.,2,0,2,2,2,2,2,-,,,,,,,,,,,,,,,,,,,,,,,,,,,,,,,,,,,,,,,,,,,,,,,,,,,,,,,,,,,,,,,,,,,,,,,,,,,,,,,,,,,,,,,,,,,,,,,,,,,,,,,,,,,,,,,,,,,,,,,,,,,,,,,,,,,,,,,,,,,,,,,,,,,,,,,altötting,48.2268085,12.6757914,5,36
9,174,115,Helios Amper-Klinikum Dachau,Helios Amper-Klinikum Dachau,Krankenhausstr.,15,85221,dachau,08131 76-0,info.dachau@helios-kliniken.de,www.helios-kliniken.de,3,Amper Kliniken AG,2,2,2,2,2,2,2,435,,,,,,,,,,,,,,,,,,,,,81.0,,,,,,,,,,,54.0,,,,,,,,,,,,,,,,,,,,,,,,,,,,,,,,49.0,,42.0,20.0,49.0,,,,,,,,,,,16.0,,,,,42.0,,,,,,32.0,,37.0,,,,,,,,,,,,,,,,,,,,,,,,,,,,,,,,,,,,,,,,,,,,,,,,,,,,13.0,,,,,,,dachau,48.2592477,11.4354419,5,29
9,174,115,HELIOS Privatklinik Dachau,HELIOS Privatklinik Dachau,Krankenhausstr.,15,85221,dachau,,,,3,HELIOS Privatkliniken GmbH,4,0,2,2,2,2,2,18,,,,,,,,,,,,,,,,,,,,,2.0,,,,,,,,,,,2.0,,,,,,,,,,,,,,,,,,,,,,,,,,,,,,,,4.0,,1.0,2.0,1.0,,,,,,,,,,,2.0,,,,,1.0,,,,,,2.0,,1.0,,,,,,,,,,,,,,,,,,,,,,,,,,,,,,,,,,,,,,,,,,,,,,,,,,,,,,,,,,,dachau,48.2592477,11.4354419,5,29
9,174,115,"kbo-Isar-Amper-Klinikum gGmbH, Klinikum München Ost",kbo-Isar-Amper-Klinikum Tagesklinik Dachau,Hochstr.,27,85221,dachau,089 4562-0,kontakt@iak-kmo.de,www.iak-kmo.de,1,kbo-Isar-Amper-Klinikum gemeinnützige GmbH,2,0,2,2,2,2,2,-,,,,,,,,,,,,,,,,,,,,,,,,,,,,,,,,,,,,,,,,,,,,,,,,,,,,,,,,,,,,,,,,,,,,,,,,,,,,,,,,,,,,,,,,,,,,,,,,,,,,,,,,,,,,,,,,,,,,,,,,,,,,,,,,,,,,,,,,,,,,,,,,,,,,,,,dachau,48.2592477,11.4354419,5,29
9,175,115,kbo-Inn-Salzach-Klinikum gGmbH,kbo-Inn-Salzach-Klinikum gGmbH Klinikum Ebersberg,von-Scala-Str.,1,85560,ebersberg,08071 71-0,info@iskl.de,www.iskl.de,1,kbo-Inn-Salzach-Klinikum gemeinnützige GmbH,2,0,2,2,2,2,2,-,,,,,,,,,,,,,,,,,,,,,,,,,,,,,,,,,,,,,,,,,,,,,,,,,,,,,,,,,,,,,,,,,,,,,,,,,,,,,,,,,,,,,,,,,,,,,,,,,,,,,,,,,,,,,,,,,,,,,,,,,,,,,,,,,,,,,,,,,,,,,,,,,,,,,,,ebersberg,48.0782763,11.9694372,4,32
9,175,115,Kreisklinik Ebersberg gGmbH,Kreisklinik Ebersberg gGmbH,Pfarrer-Guggetzer-Str.,3,85560,ebersberg,08092 82-0,klinikleitung@klinik-ebe.de,www.klinik-ebe.de,1,Kreisklinik Ebersberg gemeinnützige GmbH,2,1,2,2,2,2,2,328,167.0,,,,,,,,,,,,,,,,,,,,,,,,,,,,,,,,,,,,,,,,,,,,,,,,,,,,,,,44.0,,,,,,,,,,66.0,,,5.0,,,,,,,,,,20.0,,,,,12.0,,,,,12.0,1.0,,,,,,,,,,,,,,,,,,,,,,,,,,,,,,,,,,,,,,,,,,,,,,,,,,1.0,,,,,,,,,,,ebersberg,48.0782763,11.9694372,4,32
9,176,123,Kliniken im Naturpark Altmühltal,Kliniken im Naturpark Altmühltal Klinik Eichstätt,Ostenstr.,31,85072,eichstätt,08421 601-5500,info@kliniken-naturpark-altmuehltal.de,www.kliniken-naturpark-altmuehltal/.com,1,"Kliniken im Naturpark Altmühltal, KU des Landkreises Eichstätt, AöR",2,1,2,2,2,2,2,152,,20.0,33.0,,,,27.0,,,,,,,,,,,,,,,,,,,,,,,,,,,,,,,,,,,,,,,,,,,,,,,,,,,27.0,,,,8.0,,19.0,,,,,,,,,,,,,,,5.0,,,,,10.0,,,,,,2.0,1.0,,,,,,,,,,,,,,,,,,,,,,,,,,,,,,,,,,,,,,,,,,,,,,,,,,,,,,,,,,,,eichstätt,48.8933417,11.1838965,10,28
9,177,117,Klinikum Landkreis Erding,Klinikum Landkreis Erding Klinikum Erding,Bajuwarenstr.,5,85435,erding,08122 59-0,info@kkh-erding.de,www.kkh-erding.de,1,Landkreis Erding,2,1,2,2,2,2,2,288,90.0,,,,,,,,,,,,,,,,,,,,,,,,,,,,,,,,,,,,,,,,,,,,,,,,,,,,,,,111.0,,,,,,,,,,,,,,,,,,,,,,,8.0,,,,,48.0,,,,,,1.0,1.0,,,,,,,,,,,,,,,,,,,,,,,,,,,,,,,,,,,29.0,,,,,,,,,,,,,,,,,,,,,,,,,erding,48.3064441,11.9076579,5,32
9,178,124,kbo-Isar-Amper-Klinikum gGmbH,kbo-Isar-Amper-Klinikum gGmbH Tagesklinik Freising,Gute Änger,13,85356,freising,,,,1,kbo-Isar-Amper-Klinikum gemeinnützige GmbH,2,0,2,2,2,2,2,-,,,,,,,,,,,,,,,,,,,,,,,,,,,,,,,,,,,,,,,,,,,,,,,,,,,,,,,,,,,,,,,,,,,,,,,,,,,,,,,,,,,,,,,,,,,,,,,,,,,,,,,,,,,,,,,,,,,,,,,,,,,,,,,,,,,,,,,,,,,,,,,,,,,,,,,freising,48.4008273,11.7439565,6,31
9,178,124,Klinikum Freising GmbH,Klinikum Freising GmbH,Alois-Steinecker-Str.,18,85354,freising,08161 24-3000,info@klinikum-freising.de,www.klinikum-freising.de,1,Landkreis Freising,2,2,2,2,2,2,2,353,,,,,,,,,,,,,,,,,,,,,92.0,,,,20.0,,,,,,,60.0,,,,,,,,,,,,,,,,,,,,,,,,41.0,,,,,,15.0,,,,44.0,,,,,,,,,,,,,5.0,,,,,25.0,,,,,,2.0,1.0,,,,,,,,,,,,,,,,,,,,,,22.0,,,,,,,,,,,,,16.0,,,,,,,,,,,,,,,,,10.0,,,,,,,,freising,48.4008273,11.7439565,6,31
9,179,121,"kbo-Isar-Amper-Klinikum gGmbH, Klinikum München Ost",kbo-Isar-Amper-Klinikum Fürstenfeldbruck,Stadelbergerstr.,16-22,82256,fürstenfeldbruck,089 4562-0,kontakt@iak-kmo.de,www.iak-kmo.de,1,kbo-Isar-Amper-Klinikum gemeinnützige GmbH,2,0,2,2,2,2,2,86,,,,,,,,,,,,,,,,,,,,,,,,,,,,,,,,,,,,,,,,,,,,,,,,,,,,,,,,,,,,,,,,,,,,,,,,,,,,,,,,,,,,,,,,,,,,,,,,,86.0,,,,,,,,,,,,,,,,,,,,,,,,,,,,,,,,,,,,,,,,,,,,,,,,,,,,,,fürstenfeldbruck,48.1794705,11.2547202,5,28
9,179,121,Klinikum Fürstenfeldbruck,Klinikum Fürstenfeldbruck,Dachauer Str.,33,82256,fürstenfeldbruck,08141 99-0,info@klinikum-ffb.de,www.klinikum-ffb.de,1,Kommunalunternehmen Kreisklinik Fürstenfeldbruck / Seniorenheim Jesenwang AöR,2,1,2,2,2,2,2,272,,,,,,,,,,,,,,,,,,,,,45.0,,,,,,,,,,,56.0,,,,,,,,,,,,,,,,,,,,,,,,22.0,,,,,,,,,,55.0,,18.0,,,,,,,,,,,20.0,,,,,16.0,,,,,,4.0,,,,,,15.0,,,,,,,,,,,,,,,,,,,,,,,,,,,,,,7.0,,,,,,,,,,,,,,,,,8.0,6.0,,,,,,,fürstenfeldbruck,48.1794705,11.2547202,5,28
9,180,117,Augenklinik Garmisch-Partenkirchen,"Augenklinik Garmisch-Partenkirchen AK-GAP, Privatklinik GmbH",Klammstr.,7,82467,garmisch-partenkirchen,08821 708090,verwaltung@augenzentrum-bayern.de,www.augenzentrum-bayern.de,3,"Augenklinik Garmisch-Partenkirchen AK-GAP, Privatklinik GmbH",4,0,2,2,2,2,2,2,,,,,,,,,,,,,,,,,,,,,,,,,,,,,,,,,,,,,,,,,,,,,,,,,,,,,,,,,,,,,,,,,,,,,,,,,,,,,,,,,,,,,,,,,,,2.0,,,,,,,,,,,,,,,,,,,,,,,,,,,,,,,,,,,,,,,,,,,,,,,,,,,,,,,,,,,,garmisch-partenkirchen,47.4923741,11.0962815,0,27
9,180,117,kbo-Lech-Mangfall-Klinik Garmisch-Partenkirchen,kbo-Lech-Mangfall-Klinik Garmisch-Partenkirchen,Auenstr.,6,82467,garmisch-partenkirchen,08821 77-6101,info@psychiatrie-gap.de,www.kbo-gap.de,1,kbo-Lech-Mangfall-Kliniken gGmbH,2,0,2,2,2,2,2,100,,,,,,,,,,,,,,,,,,,,,,,,,,,,,,,,,,,,,,,,,,,,,,,,,,,,,,,,,,,,,,,,,,,,,,,,,,,,,,,,,,,,,,,,,,,,,,,,,80.0,,,,,,,,,,,,,,,,20.0,,,,,,,,,,,,,,,,,,,,,,,,,,,,,,,,,,,,,,garmisch-partenkirchen,47.4923741,11.0962815,0,27
9,180,117,Kinderklinik Garmisch-Partenkirchen gGmbH,Kinderklinik Garmisch-Partenkirchen gGmbH,Gehfeldstr.,24,82467,garmisch-partenkirchen,08821 701-0,info@rheuma-kinderklinik.de,www.rheuma-kinderklinik.de,2,Kinderklinik Garmisch-Partenkirchen gGmbH,2,0,2,2,2,2,2,110,,,,,,,,,,,,,,,,,,,,,,,,,,,,,,,,,,,,,,76.0,,,,,,,,,,,,,,,,,,,,,,,,,,,,,,,,,,,,,,,,,,,,,,,,,,,,,,,,,,,,,,,,,,,,,,,,,,,,,,,,,,,,,,,,,,,,,,,,,,,,,,,,,,34.0,,,,,,,garmisch-partenkirchen,47.4923741,11.0962815,0,27
9,180,117,Klinikum Garmisch-Partenkirchen,Klinikum Garmisch-Partenkirchen,Auenstr.,6,82467,garmisch-partenkirchen,08821 77-0,info@klinikum-gap.de,www.klinikum-gap.de,1,Klinikum Garmisch-Partenkirchen GmbH,2,2,2,1,2,2,2,338,25.0,,,,,,,,,,,,,,,,28.0,,,,23.0,,,,11.0,,,,,,,21.0,,,,,,41.0,,,,,,,,,,,,,,,,,,20.0,,,,,,53.0,,,,32.0,,17.0,,,,,,,,,,,21.0,,,,,34.0,,,,,,2.0,1.0,,,,,,,,,,,,,,,,,,,,,,,,,,,,,,,,,,,,,,,,,,,,,,,,,9.0,,,,,,,,,,,garmisch-partenkirchen,47.4923741,11.0962815,0,27
9,181,130,kbo-Heckscher-Klinikum gemeinnützige GmbH München,kbo-Heckscher-Klinikum Abteilung Landsberg am Lech,Bgm.-Dr.-Hartmann-Str.,52,86899,landsberg am lech,089 9999-0,info.hek-mdh@kbo.de,www.kbo-heckscher-klinikum.de,1,kbo-Heckscher-Klinikum gemeinnützige GmbH,2,0,2,2,2,2,2,-,,,,,,,,,,,,,,,,,,,,,,,,,,,,,,,,,,,,,,,,,,,,,,,,,,,,,,,,,,,,,,,,,,,,,,,,,,,,,,,,,,,,,,,,,,,,,,,,,,,,,,,,,,,,,,,,,,,,,,,,,,,,,,,,,,,,,,,,,,,,,,,,,,,,,,,landsberg am lech,48.0497474,10.8768728,4,26
9,181,130,kbo-Lech-Mangfall-Klinik Landsberg am Lech,kbo-Lech-Mangfall-Klinik Landsberg am Lech,Bgm.-Dr.-Hartmann-Str.,50-52,86899,landsberg am lech,08191 333-0,klinik@psychiatrie-landsberg.de,www.kbo-landsberg.de,1,kbo-Lech-Mangfall-Kliniken gGmbH,2,0,2,2,2,2,2,74,,,,,,,,,,,,,,,,,,,,,,,,,,,,,,,,,,,,,,,,,,,,,,,,,,,,,,,,,,,,,,,,,,,,,,,,,,,,,,,,,,,,,,,,,,,,,,,,,60.0,,,,,,,,,,,,,,,,14.0,,,,,,,,,,,,,,,,,,,,,,,,,,,,,,,,,,,,,,landsberg am lech,48.0497474,10.8768728,4,26
9,181,130,Klinikum Landsberg am Lech,Klinikum Landsberg am Lech,Bgm.-Dr.-Hartmann-Str.,50,86899,landsberg am lech,08191 333-0,info@klinikum-landsberg.de,www.klinikum-landsberg.de,1,Klinikum Landsberg am Lech AöR des Landkreises Landsberg am Lech,2,1,2,1,2,2,2,218,100.0,,,,,,,,,,,,,,,,,,,,,,,,,,,,,,,,,,,,,12.0,,,,,,,,,,,,,,,,,,75.0,,,,,,,,,,,,,,,,,,,,,,,,,,,,29.0,,,,,,2.0,,,,,,,,,,,,,,,,,,,,,,,,,,,,,,,,,,,,,,,,,,,,,,,,,,,,,,,,,,,,,landsberg am lech,48.0497474,10.8768728,4,26
9,188,139,Augenklinik Starnberg AKS,Augenklinik Starnberg AKS,Josef-Jägerhuber-Str.,7,82319,starnberg,08151 653333,info@augenzentrum-bayern.de,www.augenzentrum-bayern.de,3,Augenklinik Starnberg AKS Privatklinik GmbH,4,0,2,2,2,2,2,4,,,,,,,,,,,,,,,,,,,,,,,,,,,,,,,,,,,,,,,,,,,,,,,,,,,,,,,,,,,,,,,,,,,,,,,,,,,,,,,,,,,,,,,,,,,4.0,,,,,,,,,,,,,,,,,,,,,,,,,,,,,,,,,,,,,,,,,,,,,,,,,,,,,,,,,,,,starnberg,47.9986851,11.3410791,3,28
9,188,139,Klinikum Starnberg,Klinikum Starnberg,Oßwaldstr.,1,82319,starnberg,08151 18-0,info@klinikum-starnberg.de,www.klinikum-starnberg.de,1,Kreiskrankenhaus Starnberg GmbH,2,2,2,1,2,1,1,296,108.0,,,,,,,,,,,,,,,,,,,,,,,,,,,,,,,,,,,,,23.0,,,,,,,,,,,,,,6.0,,,,53.0,,,,,,12.0,,,,,,,,,,,,,,,,,16.0,,,,,59.0,,,,,,6.0,,1.0,,,,,,,,,,,,,,,,,,,,,,,,,,,,,,,,,,6.0,,,,,,,,,,,,,,,,,6.0,,,,,,,,starnberg,47.9986851,11.3410791,3,28
9,189,155,Klinikum Traunstein und Kreisklinik Ruhpolding,Klinikum Traunstein und Kreisklinik Ruhpolding - Klinikum Traunstein,Cuno-Niggl-Str.,3,83278,traunstein,0861 705-0,info.ts@kliniken-sob.de,www.kliniken-suedostbayern.de,1,Kliniken Südostbayern AG,2,3,2,2,2,2,2,548,9.0,,,,,,,,,,,,,,,,,,,,83.0,26.0,,,31.0,,,,,,,26.0,,,,,,37.0,,,,,,,,,,,,,,10.0,,,,25.0,9.0,,,24.0,,,,,,80.0,18.0,44.0,,,,,,,,,,,30.0,,,,,44.0,,,,,,10.0,,29.0,,,,,,,,,,,,,,,,,,,,,,,,,,,4.0,,,,,,,,,,,,,,,,,,,,,,,,9.0,,,,,,,,traunstein,47.8695272,12.6484621,2,36
9,263,0,Klinikum St. Elisabeth Straubing GmbH,Klinikum St. Elisabeth Straubing GmbH,St.-Elisabeth-Str.,23,94315,straubing,09421 710-0,info@klinikum-straubing.de,www.klinikum-straubing.de,2,Barmherzige Brüder Klinikum St. Elisabeth Straubing GmbH,2,3,2,2,2,2,2,450,101.0,,,,,,,,,,,,,,,,,,,,102.0,,,,,,,,,,,,,,,,,,,,,,,,,,,,,,,,,,,54.0,,,,,,,,,,77.0,,,,,,,,,,,,,27.0,,,,,26.0,,,,,,27.0,1.0,24.0,,,,,,,,,,,,,,,,,,,,,,,,,,,,,,,,,1.0,,,,,,,,,,,,,,,,,,10.0,,,,,,,,straubing,48.8839157,12.5955773,10,35
9,271,119,Aeskul Klinik im Stadtpark GmbH,Aeskul Klinik im Stadtpark GmbH,Am Stadtpark,22,94469,deggendorf,0991 2503434-0,info@aeskul-klinik.de,www.aeskul-klinik.de,3,Aeskul Klinik im Stadtpark GmbH,4,0,2,2,2,2,2,3,,,,,,,,,,,,,,,,,,,,,,,,,,,,,,,,,,,,,,,,,,,,,,,,,,,,,,,,,,,,,,3.0,,,,,,,,,,,,,,,,,,,,,,,,,,,,,,,,,,,,,,,,,,,,,,,,,,,,,,,,,,,,,,,,,,,,,,,,,,,,,,,,,,,,,,,,,deggendorf,48.7814115,13.0006423,9,38
9,271,119,Bezirksklinikum Mainkofen,Bezirksklinikum Mainkofen Neurologische Frührehabilitation,Mainkofen A,3,94469,deggendorf,09931 87-0,info@mainkofen.de,www.mainkofen.de,1,Bezirk Niederbayern,2,1,2,2,2,1,2,578,,,,,,,,,,,,,,,,,,,,,,,,,,,,,,,,,,,,,,,,,,,,,,,,,,,,,,,,,,,,,,,,,,,,,,,,,,,,,,,,,,,,,,,,,,,,56.0,,,,,466.0,,,,,,,,,,,,,,,,20.0,,,,,,,,,,,,,,,,,,,,,,,,,,,36.0,,,,,,,,,,,deggendorf,48.7814115,13.0006423,9,38
9,271,119,Bezirkskrankenhaus Landshut,Bezirkskrankenhaus Landshut Tagesklinik im DONAUISAR Klinikum Deggendorf,Perlasberger Str.,41,94469,deggendorf,0871 6008-0,info@bkh-landshut.de,www.bkh-landshut.de,1,Bezirk Niederbayern,2,0,2,2,2,2,2,-,,,,,,,,,,,,,,,,,,,,,,,,,,,,,,,,,,,,,,,,,,,,,,,,,,,,,,,,,,,,,,,,,,,,,,,,,,,,,,,,,,,,,,,,,,,,,,,,,,,,,,,,,,,,,,,,,,,,,,,,,,,,,,,,,,,,,,,,,,,,,,,,,,,,,,,deggendorf,48.7814115,13.0006423,9,38
9,271,119,DONAUISAR Klinikum Deggendorf-Landau,DONAUISAR Klinikum Deggendorf-Landau - Klinikum Deggendorf,Perlasberger Str.,41,94469,deggendorf,0991 380-0,info@donau-isar-klinikum.de,www.donau-isar-klinikum.de,1,DONAUISAR Klinikum Deggendorf-Dingolfing-Landau gKU,2,3,2,1,2,2,2,465,10.0,,,,,,,,,,,,,,,,50.0,,,,30.0,,,,14.0,,,,,,,42.0,,,,,,40.0,,,,,,,,,,,,,,12.0,,,,45.0,,,,,,,,,,30.0,39.0,,,,,,,,,,,,30.0,,,,,48.0,,,,,,1.0,1.0,24.0,,,,6.0,,,,,,,,,,,,,,,,,,,,,,,,,,,,,1.0,32.0,,,,,,,,,,,,,,,,,10.0,,,,,,,,deggendorf,48.7814115,13.0006423,9,38
9,271,119,Klinik Angermühle GmbH,Klinik Angermühle GmbH,Am Stadtpark,1-39,94469,deggendorf,0991 37055-0,info@klinik-angermuehle.de,www.klinik-angermuehle.de,3,Klinik Angermühle GmbH,2,0,2,2,2,2,2,35,,,,,,,,,,,,,,,,,,,,,,,,,,,,,,,,,,,,,,,,,,,,,,,,,,,,,,,,,,,,,,,,,,,,,,,,,,,,,,,,,,,,,,,,,,,,,,,,,,,,,,,,,,,,,,,,,35.0,,,,,,,,,,,,,,,,,,,,,,,,,,,,,,,,,,,,,,deggendorf,48.7814115,13.0006423,9,38
9,273,137,Caritas-Krankenhaus St. Lukas GmbH,Caritas-Krankenhaus St. Lukas GmbH,Traubenweg,3,93309,kelheim,09441 702-0,info@goldbergklinik.de,www.goldbergklinik.de,2,Caritas-Krankenhaus St. Lukas GmbH,2,1,2,2,2,2,2,200,121.0,,,,,,,,,,,,,,,,,,,,,,,,,,,,,,,,,,,,,,,,,,,,,,,,,,,,,,,50.0,,,,,,,,,,,,,,,,,,,,,,,6.0,,,,,18.0,,,,,,5.0,,,,,,,,,,,,,,,,,,,,,,,,,,,,,,,,,,,,,,,,,,,,,,,,,,,,,,,,,,,,,kelheim,48.91849,11.8722777,10,31
9,361,0,Bezirksklinikum Regensburg,Bezirksklinikum Regensburg Psychiatrische Tagesklinik Amberg,Marienstr.,12,92224,amberg,0941 941-0,pressestelle@medbo.de,www.medbo.de,1,Medizinische Einrichtungen des Bezirks Oberpfalz - KU (AöR),2,0,2,2,2,2,2,-,,,,,,,,,,,,,,,,,,,,,,,,,,,,,,,,,,,,,,,,,,,,,,,,,,,,,,,,,,,,,,,,,,,,,,,,,,,,,,,,,,,,,,,,,,,,,,,,,,,,,,,,,,,,,,,,,,,,,,,,,,,,,,,,,,,,,,,,,,,,,,,,,,,,,,,amberg,49.4543662,11.8474021,14,31
9,361,0,Klinikum St. Marien Kommunalunternehmen AöR der Stadt Amberg,Klinikum St. Marien Kommunalunternehmen,Mariahilfbergweg,7,92224,amberg,09621 38-0,verwaltung@klinikum-amberg.de,www.klinikum-st-marien.de,1,KU Klinikum St. Marien,2,3,2,1,2,2,2,578,,,,,,,,,,,,,,,,,25.0,,,,90.0,,,,,,,,,,,71.0,,,18.0,,,44.0,,,,,,,,,,,,,,,,,,62.0,,,,,,,,,,66.0,20.0,34.0,,,,,,,,,,,26.0,,,,,53.0,,,,,,5.0,4.0,49.0,,,,,,,,,,,,,,,,,,,,,,,,,,,,,,,,,2.0,,,,,,,,,,,,,,,,,,9.0,,,,,,,,amberg,49.4543662,11.8474021,14,31
9,372,116,Bezirksklinikum Regensburg,Bezirksklinikum Regensburg Psychiatrisches Zentrum Cham,August-Holz-Str.,1,93413,cham,0941 941-0,pressestelle@medbo.de,www.medbo.de,1,Medizinische Einrichtungen des Bezirks Oberpfalz - KU (AöR),2,0,2,2,2,2,2,50,,,,,,,,,,,,,,,,,,,,,,,,,,,,,,,,,,,,,,,,,,,,,,,,,,,,,,,,,,,,,,,,,,,,,,,,,,,,,,,,,,,,,,,,,,,,,,,,,50.0,,,,,,,,,,,,,,,,,,,,,,,,,,,,,,,,,,,,,,,,,,,,,,,,,,,,,,cham,49.2178194,12.6663832,12,36
9,372,116,Sana Kliniken des Landkreises Cham GmbH,Sana Kliniken des Landkreises Cham GmbH Krankenhaus Cham,August-Holz-Str.,1,93413,cham,09971 409-591,cham@diekliniken.de,www.diekliniken.de,3,Sana Kliniken des Landkreises Cham GmbH,2,1,2,2,2,2,2,250,126.0,,,,,,,,,,,,,,,,,,,,,,,,,,,,,,,,,,,,,,,,,,,,,,,,,,,,,,,78.0,,,,,,,,,,,,,,,,,,,,,,,14.0,,,,,16.0,,,,,,16.0,,,,,,,,,,,,,,,,,,,,,,,,,,,,,,,,,,,,,,,,,,,,,,,,,,,,,,,,,,,,,cham,49.2178194,12.6663832,12,36
9,376,161,Asklepios Orthopädische Klinik Lindenlohe,Asklepios Orthopädische Klinik Lindenlohe,Lindenlohe,18,92421,schwandorf,09431 888-0,info@klinik-lindenlohe.de,www.klinik-lindenlohe.de,3,Asklepios Klinik Lindenlohe GmbH,2,0,2,2,2,2,2,95,,,,,,,,,,,,,,,,,,,,,,,,,,,,,,,,,,,,,,,,,,,,,,,,,,,,,,,,,,,,,,,,,,95.0,,,,,,,,,,,,,,,,,,,,,,,,,,,,,,,,,,,,,,,,,,,,,,,,,,,,,,,,,,,,,,,,,,,,,,,,,,,,,,,,,,,,,schwandorf,49.3261854,12.1092708,13,33
9,376,161,Asklepios Orthopädische Klinik Lindenlohe Privatklinik,Asklepios Orthopädische Klinik Lindenlohe Privatklinik,Lindenlohe,18,92421,schwandorf,,,,3,Asklepios Klinik Lindenlohe GmbH,4,0,2,2,2,2,2,17,,,,,,,,,,,,,,,,,,,,,,,,,,,,,,,,,,,,,,,,,,,,,,,,,,,,,,,,,,,,,,,,,,17.0,,,,,,,,,,,,,,,,,,,,,,,,,,,,,,,,,,,,,,,,,,,,,,,,,,,,,,,,,,,,,,,,,,,,,,,,,,,,,,,,,,,,,schwandorf,49.3261854,12.1092708,13,33
9,376,161,Krankenhaus St. Barbara Schwandorf,Krankenhaus St. Barbara Schwandorf,Steinberger Str.,24,92421,schwandorf,09431 52-0,info@barmherzige-schwandorf.de,www.barmherzige-schwandorf.de,2,Barmherzige Brüder gemeinnützige Krankenhaus GmbH,2,2,2,2,2,2,2,267,144.0,,,,,,,,,,,,,,,,,,,,,,,,,,,,,,,,,,,,,,,,,,,,,,,,,,,,,,,86.0,,,,,,,,,,,,,,,,,,,,,,,9.0,,,,,25.0,,,,,,3.0,,,,,,,,,,,,,,,,,,,,,,,,,,,,,,,,,,,,,,,,,,,,,,,,,,,,,,,,,,,,,schwandorf,49.3261854,12.1092708,13,33
9,377,154,Kliniken Nordoberpfalz AG Krankenhaus Tirschenreuth,Kliniken Nordoberpfalz AG Krankenhaus Tirschenreuth,St.-Peter-Str.,31,95643,tirschenreuth,09631 87-0,tirinfo@kliniken-nordoberpfalz.ag,www.krankenhaus-tirschenreuth.de,1,Kliniken Nordoberpfalz AG,2,1,2,2,2,2,2,145,50.0,20.0,,,,,,,,,,,,,,,,,,,,,,,,,,,,,,,,,,,,,,,,,,,,,,,,,,,,,,17.0,,,,,,,,,,46.0,,,,,,,,,,,,,,,,,,10.0,,,,,,2.0,,,,,,,,,,,,,,,,,,,,,,,,,,,,,,,,,,,,,,,,,,,,,,,,,,,,,,,,,,,,,tirschenreuth,49.8780234,12.3372095,17,34
9,474,126,Klinikum Forchheim - Fränkische Schweiz gGmbH,"Klinikum Forchheim - Fränkische Schweiz gGmbH, Standort Forchheim",Krankenhausstr.,10,91301,forchheim,09191 610-0,info@klinikum-forchheim.de,www.klinikum-forchheim.de,1,Klinikum Forchheim - Fränkische Schweiz gGmbH,2,1,2,2,2,2,2,225,100.0,,,,,,,,,,,,,,,,,,,,,,,,,,,,,,,,,,,,,,,,,,,,,,,,,,,,,,,34.0,,,,,,,,,,43.0,1.0,1.0,1.0,,,,,,,,,,3.0,,,,,40.0,,,,,,1.0,1.0,,,,,,,,,,,,,,,,,,,,,,,,,,,,,,,,,,,,,,,,,,,,,,,,,,,,,,,,,,,,forchheim,49.7187319,11.0595749,16,27
9,474,126,Psychiatrische Tagesklinik Bamberg-Forchheim gGmbH,Psychiatrische Tagesklinik Bamberg-Forchheim gGmbH,Krankenhausstr.,8,91301,forchheim,,,,1,Psychiatrische Tagesklinik Bamberg-Forchheim gGmbH,2,0,2,2,2,2,2,-,,,,,,,,,,,,,,,,,,,,,,,,,,,,,,,,,,,,,,,,,,,,,,,,,,,,,,,,,,,,,,,,,,,,,,,,,,,,,,,,,,,,,,,,,,,,,,,,,,,,,,,,,,,,,,,,,,,,,,,,,,,,,,,,,,,,,,,,,,,,,,,,,,,,,,,forchheim,49.7187319,11.0595749,16,27
9,476,145,Bezirksklinikum Obermain,Bezirksklinikum Obermain Tagesklinik Kronach,Friesener Str.,49,96317,kronach,09547 81-0,info@bezirksklinikum-obermain.de,www.bezirksklinikum-obermain.de,1,Kommunalunternehmen Gesundheitseinrichtungen des Bezirks Oberfranken AöR,2,0,2,2,2,2,2,-,,,,,,,,,,,,,,,,,,,,,,,,,,,,,,,,,,,,,,,,,,,,,,,,,,,,,,,,,,,,,,,,,,,,,,,,,,,,,,,,,,,,,,,,,,,,,,,,,,,,,,,,,,,,,,,,,,,,,,,,,,,,,,,,,,,,,,,,,,,,,,,,,,,,,,,kronach,50.2397846,11.3277669,20,28
9,476,145,HELIOS Frankenwaldklinik Kronach,HELIOS Frankenwaldklinik Kronach,Friesener Str.,41,96317,kronach,09261 59-0,info.kronach@helios-kliniken.de,www.helios-kliniken.de/kronach,3,Helios Frankenwaldklinik Kronach GmbH,2,1,2,2,2,2,2,240,,,76.0,,,,36.0,,,,,,,,,,46.0,,,,,,,,,,,,,,,,,,,,,,,,,,,,,,,,,,,,,,,19.0,,,,,,,,,,29.0,,21.0,,,,,,,,,,,,,,,,,,,,4.0,8.0,1.0,,,,,,,,,,,,,,,,,,,,,,,,,,,,,,,,,,,,,,,,,,,,,,,,,,,,,,,,,,,,,kronach,50.2397846,11.3277669,20,28
9,477,128,Klinikum Kulmbach mit Außenstelle Stadtsteinach,Klinikum Kulmbach,Albert-Schweitzer-Str.,10,95326,kulmbach,09221 98-0,,www.klinikum-kulmbach.de,1,Zweckverband Klinikum Kulmbach,2,3,2,2,2,2,2,540,142.0,,86.0,,,,,,,,,,,,,,,,,,,,,,,,,,,,,,,,,,,,,,,,,,,,,,,,,,,,,41.0,,,,,,,,,,42.0,39.0,24.0,45.0,10.0,,,,,,,,,27.0,,,,,40.0,,,,,,9.0,,35.0,,,,,,,,,,,,,,,,,,,,,,,,,,,,,,,,,,,,,,,,,,,,,,,,,,,,,,,,,,,kulmbach,50.1008448,11.4479149,19,29
9,478,139,Helmut-G.-Walther-Klinikum Lichtenfels GmbH,Regiomed Klinikum Lichtenfels,Prof.-Arneth-Str.,2b,96215,lichtenfels,,,,1,Helmut-G.-Walther-Klinikum Lichtenfels GmbH,2,1,2,2,2,2,2,276,,,,,,,,,,,,,,,,,26.0,,,,59.0,,,,,,,,,,,37.0,,,,,,,,,,,,,,,,,,,,,,,,34.0,,,,,,,,,,41.0,36.0,,,,,,,,,,,,,,,,,32.0,,,,,,1.0,,,,,,,,,,,,,,,,,,,,,,,,,,,,,,,,,,,,10.0,,,,,,,,,,,,,,,,,,,,,,,,,lichtenfels,50.14568,11.06382,19,27
9,562,0,Klinikum am Europakanal,Klinikum am Europakanal Erlangen,Am Europakanal,71,91056,erlangen,09131 753-0,klinikum.am.europakanal@bezirkskliniken-mfr.de,www.klinikum-am-europakanal.de,1,Bezirkskliniken Mittelfranken,2,0,2,2,2,2,2,463,,,,,,,,,,,,,,,,,,,,,,,,,,,,,,,,,,,,,,,,,,,,,,,,,,,,,,,,,,,,,,,,,,,,,,,,,,,,,,,,,,,,,,,,,,,,105.0,,,,,272.0,,,,,,,,,,,,,,,,86.0,,,,,,,,,,,,,,,,,,,,,,,,,,,,,,,,,,,,,,erlangen,49.5891571,10.9812072,15,26
9,562,0,Malteser Waldkrankenhaus Erlangen gGmbH,Malteser Waldkrankenhaus St. Marien gGmbH Akuthaus,Rathsberger Str.,57,91054,erlangen,09131 822-0,info@waldkrankenhaus.de,www.waldkrankenhaus.de,2,Malteser Waldkrankenhaus Erlangen gGmbH,2,2,2,2,2,2,1,290,,,,,,,,,,,,,,,,,65.0,,,,55.0,,,,,,,,,,,53.0,,,,,,,,,,,,,,,,,,,,,,,,19.0,,,,,,41.0,,,,,,,,,,,,,,,,,22.0,,,,,,,,,,,8.0,1.0,,,,,,,,,,,,,,,,,,,,,,,,,,,,,,,,,,,,,,,,,,,,,,,,,,,,,,,26.0,,,,,erlangen,49.5891571,10.9812072,15,26
9,562,0,Universitätsklinikum Erlangen,Universitätsklinikum Erlangen,Maximiliansplatz,2,91054,erlangen,09131 85-0,,www.uk-erlangen.de,1,Universitätsklinikum Erlangen AdöR,1,3,2,1,2,2,2,1319,,,,,,,,,,,,,,,,,,,,,75.0,43.0,,,48.0,,,,,,,78.0,,,,20.0,,45.0,,18.0,,,,,,,,,,23.0,,23.0,13.0,,,49.0,,,,,,,,,,63.0,51.0,21.0,22.0,10.0,,,,22.0,,,,,24.0,,,,,103.0,,,,,,97.0,86.0,63.0,,,,14.0,92.0,,,,,,,,,,,,,34.0,,,22.0,,,,7.0,,48.0,,,29.0,,,33.0,31.0,,,,,,,,,,,,,,,,,12.0,,,,,,,,erlangen,49.5891571,10.9812072,15,26
9,564,0,310KLINIK GmbH,310KLINIK GmbH,Neumeyerstr.,46-48,90411,nürnberg,0911 58068-0,info@310klinik.com,www.310klinik.com,3,310KLINIK GmbH,2,0,2,2,2,2,2,63,,,,,,,,,,,,,,,,,,,,,,,,,,,,,,,,,,,,,,,,,,,,,,,,,,,,,,,,63.0,,,,,,,,,,,,,,,,,,,,,,,,,,,,,,,,,,,,,,,,,,,,,,,,,,,,,,,,,,,,,,,,,,,,,,,,,,,,,,,,,,,,,,,,,,,,,,,nürnberg,49.453872,11.077298,14,27
9,564,0,Clinic im Centrum Nürnberg,Clinic im Centrum Nürnberg,Karl-Grillenberger-Str.,1,90402,nürnberg,0911 2010390,info@clinic-nbg.de,www.clinic-nbg.de,3,Clinic im Centrum Nürnberg,4,0,2,2,2,2,2,5,,,,,,,,,,,,,,,,,,,,,,,,,,,,,,,,,,,,,,,,,,,,,,,,,,,,,,,,,,,,,,,,,,,,,5.0,,,,,,,,,,,,,,,,,,,,,,,,,,,,,,,,,,,,,,,,,,,,,,,,,,,,,,,,,,,,,,,,,,,,,,,,,,,,,,,,,,nürnberg,49.453872,11.077298,14,27
9,564,0,Elisee Klinik Nürnberg GmbH,Elisee Klinik Nürnberg GmbH,Elisabeth-Selbert-Platz,1,90473,nürnberg,0911 81797070,anmeldung@elisee-klinik.de,www.elisee-klinik.de,3,Elisee Klinik Nürnberg GmbH,4,0,2,2,2,2,2,7,,,,,,,,,,,,,,,,,,,,,,,,,,,,,,,,,,,,,,,,,,,,,,,,,,,,,,,,,,,,,,,,,,,,,,,,,,,,,,,,,,,7.0,,,,,,,,,,,,,,,,,,,,,,,,,,,,,,,,,,,,,,,,,,,,,,,,,,,,,,,,,,,,,,,,,,,,nürnberg,49.453872,11.077298,14,27
9,564,0,Internistische Klinik Dr. Steger AG,Internistische Klinik Dr. Steger AG,Philipp-Kittler-Str.,27,90480,nürnberg,0911 9403-301,kontakt@klinik-steger.de,www.klinik-steger.de,3,Internistische Klinik Dr. Steger AG,2,0,2,2,2,2,2,35,35.0,,,,,,,,,,,,,,,,,,,,,,,,,,,,,,,,,,,,,,,,,,,,,,,,,,,,,,,,,,,,,,,,,,,,,,,,,,,,,,,,,,,,,,,,,,,,,,,,,,,,,,,,,,,,,,,,,,,,,,,,,,,,,,,,,,,,,,,,,,,,,,,,,,,,,,nürnberg,49.453872,11.077298,14,27
9,564,0,Klinik am Birkenwald GmbH,Klinik am Birkenwald GmbH,Weiltinger Str.,11,90449,nürnberg,0911 6808-0,verwaltung@sana-klinik-nuernberg.de,www.sana-klinik-nuernberg.de,3,Klinik am Birkenwald GmbH,2,0,2,2,2,2,2,76,7.0,,,,,,,,,,,,,,,,,,,,,,,,,,,,,,,,,,,,,,,,,,,,,,,,,,,,,,,62.0,,,,,,,,,,,,,,,,,,,,,,,,,,,,,,,,1.0,,6.0,,,,,,,,,,,,,,,,,,,,,,,,,,,,,,,,,,,,,,,,,,,,,,,,,,,,,,,,,,,,,nürnberg,49.453872,11.077298,14,27
9,564,0,Klinik Hallerwiese-Cnopf'sche Kinderklinik,Klinik Hallerwiese-Cnopf'sche Kinderklinik,St.-Johannis-Mühlgasse,19,90419,nürnberg,0911 3340-01,cnopfsche@diakonieneuendettelsau.de,www.cnopfsche-kinderklinik.de,2,Diakoneo KdÖR,2,1,2,1,2,2,2,267,40.0,,,,,,,,,,,,,,,,,,,,,,,,,,,,,,,,,,,,,32.0,,11.0,,,,,,,,,,,,43.0,41.0,,,28.0,,,,,,,,,,,,,,,,,,,,,,,,,,,,,,,,10.0,50.0,8.0,,,,,,,,,,,,,,,,,,,,,,,,,,,,,,,,,,,4.0,,,,,,,,,,,,,,,,,,,,,,,,,,nürnberg,49.453872,11.077298,14,27
9,564,0,Klinik Kaiserstrasse GbR,Klinik Kaiserstrasse GbR,Kaiserstr.,36,90403,nürnberg,0911 2743130,info@klinik-kaiserstrasse.de,www.klinik-kaiserstrasse.de,3,Klinik Kaiserstrasse GbR Dr. med. Dimitris Doumouras Dr. med. Christine Federschmidt-Doumouras,4,0,2,2,2,2,2,4,,,,,,,,,,,,,,,,,,,,,,,,,,,,,,,,,,,,,,,,,,,,,,,,,,,,,,,,,,,,,,,,,,,,,4.0,,,,,,,,,,,,,,,,,,,,,,,,,,,,,,,,,,,,,,,,,,,,,,,,,,,,,,,,,,,,,,,,,,,,,,,,,,,,,,,,,,nürnberg,49.453872,11.077298,14,27
9,564,0,Kliniken Dr. Erler gGmbH Fachkrankenhaus für Orthopädie und Chirurgie,Kliniken Dr. Erler gGmbH Fachkrankenhaus für Orthopädie und Chirurgie,Kontumazgarten,4-19,90429,nürnberg,0911 2728-0,info@erler-klinik.de,www.erler-klinik.de,2,Kliniken Dr. Erler gGmbH,2,1,2,2,1,2,2,244,25.0,,,,,,,,,,,,,,,,,,,,,,,,,,,,,,,,,,,,,,,,,,,,,,,,,,,,,,,24.0,,,,,,77.0,,,,62.0,,,7.0,,,,,,,,,,,,,,,,,,,,,,,,,,,,,,,,,,,,,,,,,,,,,,,,,,,,,,,,,,,,,,,,,,,,,,,,,,,,,49.0,,,,,nürnberg,49.453872,11.077298,14,27
9,564,0,Klinikum Nürnberg AöR,Klinikum Nürnberg Klinikum Nürnberg Nord,Prof.-Ernst-Nathan-Str.,1,90419,nürnberg,0911 398-0,,www.klinikum-nuernberg.de,1,Klinikum Nürnberg Kommunalunternehmen AöR,2,2,2,2,2,2,2,1201,,,,,,,,,,,,,,,,,66.0,,,,24.0,,,,108.0,,,,6.0,,,119.0,,,120.0,,,,,,,,,,,,,,,,,,,,,135.0,,,,,,,,,,,,,,,,,,,,,,,63.0,,,,,,,,,30.0,,61.0,34.0,,,,,,176.0,,,,20.0,,,,,,,,,42.0,,,28.0,,,,9.0,,10.0,,,68.0,,,,61.0,,,,,,,,,,,,,,,,,21.0,,,,,,,,nürnberg,49.453872,11.077298,14,27
9,564,0,Klinikum Nürnberg AöR,Klinikum Nürnberg Klinikum Nürnberg Süd,Breslauer Str.,201,90471,nürnberg,0911 398-0,,www.klinikum-nuernberg.de,1,Klinikum Nürnberg Kommunalunternehmen AöR,2,3,2,1,2,2,2,924,,,,,,,,,,,,,,,,,46.0,,,,114.0,106.0,,,,,,,10.0,,,,,,,,,47.0,,,,,,,26.0,,,,,,,,24.0,,,,,,,,,,,,,96.0,41.0,60.0,26.0,,,,,35.0,,,,,,,,,,65.0,,,,,,,,78.0,,,,24.0,,,,,,,,,,,,,,9.0,,,,,,,,,,,,,,,20.0,97.0,,,,,,,,,,,,,,,,,,,,,,,,,nürnberg,49.453872,11.077298,14,27
9,564,0,Krankenhaus Martha-Maria,Krankenhaus Martha-Maria,Stadenstr.,58,90491,nürnberg,0911 959-0,krankenhaus.nuernberg@martha-maria.de,www.martha-maria.de,2,Martha-Maria Krankenhaus gemeinnützige GmbH,2,2,2,2,2,2,2,310,,,70.0,,,,70.0,,,,,,,,,,,,,,,,,,,,,,,,,,,,,,,,,,,,,,,,,,,,,,,,,50.0,,,,,,51.0,,,,,,12.0,,,,,,,,,,,40.0,,,,,12.0,,,,,,5.0,,,,,,,,,,,,,,,,,,,,,,,,,,,,,,,,,,,,,,,,,,,,,,,,,,,,,,,,,,,,,nürnberg,49.453872,11.077298,14,27
9,564,0,Maximilians-Augenklinik gemeinnützige GmbH,Maximilians-Augenklinik gemeinnützige GmbH,Erlenstegenstr.,30,90491,nürnberg,0911 91994-0,info@maximilians-augenklinik.de,www.maximilians-augenklinik.de,2,Maximilians-Augenklinik gemeinnützige GmbH,2,0,2,2,2,2,2,22,,,,,,,,,,,,,,,,,,,,,,,,,,,,,,,,,,,,,,,,,,,,,,,,,,,,,,,,,,,,,,,,,,,,,,,,,,,,,,,,,,,,,,,,,,,22.0,,,,,,,,,,,,,,,,,,,,,,,,,,,,,,,,,,,,,,,,,,,,,,,,,,,,,,,,,,,,nürnberg,49.453872,11.077298,14,27
9,564,0,Metropol Medical Clinic GmbH,Metropol Medical Clinic GmbH,Virnsberger Str.,75,90431,nürnberg,0911 99904-444,harald.steib@mmc-nuernberg.de,www.metropol-medical-clinic.de,3,Metropol Medical Clinic GmbH,4,0,2,2,2,2,2,9,,,,,,,,,,,,,,,,,,,,,,,,,,,,,,,,,,,,,,,,,,,,,,,,,,,,,,,,,,,,,,,,,,,,,,,,,,,,,,,,,,,,,,,,,,,,,,,,,,,,,,,,,,,,,,,,,,,,,,,,,,,,,,,,,,,,,,,,,,,,9.0,,,,,,,,,,,nürnberg,49.453872,11.077298,14,27
9,564,0,Nürnberger Klinik für Ästhetisch-Plastische Chirurgie GmbH & Co.KG,Nürnberger Klinik für Ästhetisch-Plastische Chirurgie GmbH & Co. KG,Sibeliusstr.,15,90491,nürnberg,0911 95961-0,info@nuernbergerklinik.de,www.nuernbergerklinik.de,3,Nürnberger Klinik für Ästhetisch-Plastische Chirurgie GmbH & Co. KG,4,0,2,2,2,2,2,8,,,,,,,,,,,,,,,,,,,,,,,,,,,,,,,,,,,,,,,,,,,,,,,,,,,,,,,,,,,,,,,,,,,,,8.0,,,,,,,,,,,,,,,,,,,,,,,,,,,,,,,,,,,,,,,,,,,,,,,,,,,,,,,,,,,,,,,,,,,,,,,,,,,,,,,,,,nürnberg,49.453872,11.077298,14,27
9,564,0,St. Theresien-Krankenhaus Nürnberg Gemeinnützige GmbH,St. Theresien Krankenhaus gGmbH,Mommsenstr.,24,90491,nürnberg,0911 5699-0,info@theresien-krankenhaus.de,www.theresien-krankenhaus.de,2,St. Theresien Krankenhaus gGmbH,2,2,2,2,2,2,2,230,60.0,,,,,,46.0,,,,,,,,,,,,,,,,,,,,,,,,,,,,,,,,,,,,,,,,,,,,,,,,,25.0,,,,,,,,,,25.0,,,1.0,,,,,,,,,,12.0,,,,,45.0,,,,,,2.0,,,,,,,,,,,,,,,,,,,,,,,,,,,,,3.0,,,,,,1.0,10.0,,,,,,,,,,,,,,,,,,,,,,,,,nürnberg,49.453872,11.077298,14,27
9,564,0,Wallenstein Klinik GmbH,Wallenstein Klinik GmbH,Rothenburger Str.,243,90439,nürnberg,0911 96199-0,info@wallensteinklinik.de,www.wallensteinklinik.de,3,Wallenstein Klinik GmbH,4,0,2,2,2,2,2,6,,,,,,,,,,,,,,,,,,,,,,,,,,,,,,,,,,,,,,,,,,,,,,,,,,,,,,,,6.0,,,,,,,,,,,,,,,,,,,,,,,,,,,,,,,,,,,,,,,,,,,,,,,,,,,,,,,,,,,,,,,,,,,,,,,,,,,,,,,,,,,,,,,,,,,,,,,nürnberg,49.453872,11.077298,14,27
9,565,0,Krankenhaus Schwabach gGmbH,Diakoneo Klinik Schwabach,Regelsbacher Str.,7,91126,schwabach,,,,1,Krankenhaus Schwabach gGmbH,2,1,2,2,2,2,2,170,87.0,,,,,,,,,,,,,,,,,,,,4.0,,,,,,,,,,,,,,,,,,,,,,,,,,,,,,,,,,,71.0,,,,,,,,,,,,,,,,,,,,,,,,,,,,,,,,,,8.0,,,,,,,,,,,,,,,,,,,,,,,,,,,,,,,,,,,,,,,,,,,,,,,,,,,,,,,,,,,,,schwabach,49.3290521,11.0207677,13,27
9,576,143,Bezirksklinikum Ansbach,Psychiatrische Tagesklinik Roth,Weinbergweg,12a,91154,roth,0981 4653-0,info@bezirkskliniken-mfr.de,www.bezirksklinikum-ansbach.de,1,Bezirkskliniken Mittelfranken,2,0,2,2,2,2,2,-,,,,,,,,,,,,,,,,,,,,,,,,,,,,,,,,,,,,,,,,,,,,,,,,,,,,,,,,,,,,,,,,,,,,,,,,,,,,,,,,,,,,,,,,,,,,,,,,,,,,,,,,,,,,,,,,,,,,,,,,,,,,,,,,,,,,,,,,,,,,,,,,,,,,,,,roth,49.1952934,11.0566523,12,27
9,576,143,Kreisklinik Roth,Kreisklinik Roth,Weinbergweg,14,91154,roth,09171 802-0,info@kreisklinik-roth.de,www.kreisklinik-roth.de,1,Kreisklinik Roth AdöR des Landkreises Roth,2,1,2,2,2,2,2,270,110.0,,,,,,,,,,,,,,,,,,,,,,,,,,,,,,,,,,,,,,,,,,,,,,,,,,,,,,,105.0,,,,,,,,,,,,,,,,,,,,,,,8.0,,,,,30.0,,,,,,4.0,3.0,,,,,,,,,,,,,,,,,,,,,,,,,,,,,,,,,,,,,,,,,,,,,,,,,,,,10.0,,,,,,,,roth,49.1952934,11.0566523,12,27
9,672,114,Heiligenfeld Kliniken,Heiligenfeld Kliniken Psychosomatische Medizin u. Psychotherapie,Euerdorfer Str.,4-6,97688,bad kissingen,0971 84-0,info@heiligenfeld.de,www.heiligenfeld.de,3,Heiligenfeld Kliniken GmbH,2,0,2,2,2,2,2,285,,,,,,,,,,,,,,,,,,,,,,,,,,,,,,,,,,,,,,,,,,,,,,,,,,,,,,,,,,,,,,,,,,,,,,,,,,,,,,,,,,,,,,,,,,,,,,,,,,,,,,,,,,,,,,,,,285.0,,,,,,,,,,,,,,,,,,,,,,,,,,,,,,,,,,,,,,bad kissingen,50.1999412,10.0767379,19,21
9,672,114,HELIOS Privatklinik Bad Kissingen,HELIOS Privatklinik Bad Kissingen,Kissinger Str.,150,97688,bad kissingen,,,,3,HELIOS Privatkliniken GmbH,4,1,2,2,2,2,2,14,,,3.0,,,,3.0,1.0,,,,,,,,,,,,,,,,,,,,,,,,,,,,,,,,,,,,,,,,,,,,,,,,2.0,,,,,,,,,,3.0,,,,,,,,,,,,,1.0,,,,,,,,,1.0,,,,,,,,,,,,,,,,,,,,,,,,,,,,,,,,,,,,,,,,,,,,,,,,,,,,,,,,,,,,,,,bad kissingen,50.1999412,10.0767379,19,21
9,672,114,HELIOS St. Elisabeth Krankenhaus Bad Kissingen GmbH,HELIOS St. Elisabeth-Krankenhaus Bad Kissingen GmbH,Kissinger Str.,150,97688,bad kissingen,0971 805-1000,info@elisabeth-online.de,www.elisabeth-online.de,3,HELIOS St. Elisabeth-Krankenhaus Bad Kissingen GmbH,2,1,2,2,2,2,2,195,,,34.0,,,,53.0,18.0,,,,,,,,,,,,,,,,,,,,,,,,,,,,,,14.0,,,,,,,,,,,,,,,,,,18.0,,,,,,,,,,34.0,,,,,,,,,,,,,7.0,,,,,,,,,5.0,,,,,,,,,,,,,,,,,,,,,,,,,,,,,,,,,,,,,,,,,,,,,,,,,,,,,,,,12.0,,,,,,,bad kissingen,50.1999412,10.0767379,19,21
9,672,114,HEMERA Klinik,HEMERA Klinik,Schönbornstr.,16,97688,bad kissingen,0971 699003-0,info@hemera.de,www.hemera.de,3,HEMERA Klinik GmbH,4,0,2,2,2,2,2,40,,,,,,,,,,,,,,,,,,,,,,,,,,,,,,,,,,,,,,,,,,,,,,,,,,,,,,,,,,,,,,,,,,,,,,,,,,,,,,,,,,,,,,,,,,,,,,,,,,,40.0,,,,,,,,,,,,,,,,,,,,,,,,,,,,,,,,,,,,,,,,,,,,,,,,,,,,bad kissingen,50.1999412,10.0767379,19,21
9,672,114,Neurologisches Fach- und Privatkrankenhaus Klinik Bavaria,Neurologisches Fach- und Privatkrankenhaus Klinik Bavaria,Von-der-Tann-Str.,18-22,97688,bad kissingen,0971 829-1101,steinschauer.l@klinik-bavaria.com,kissingen.klinikbavaria.de,3,Klinik Bavaria GmbH & Co. KG,3,0,2,2,2,2,2,20,,,,,,,,,,,,,,,,,,,,,,,,,,,,,,,,,,,,,,,,,,,,,,,,,,,,,,,,,,,,,,,,,,,,,,,,,,,,,,,,,,,,,,,,,,,,20.0,,,,,,,,,,,,,,,,,,,,,,,,,,,,,,,,,,,,,,,,,,,,,,,,,,,,,,,,,,,bad kissingen,50.1999412,10.0767379,19,21
9,675,141,Klinik Kitzinger Land,Klinik Kitzinger Land,Keltenstr.,67,97318,kitzingen,09321 704-0,info@k-kl.de,www.klinik-kitzinger-land.de,1,Klinik Kitzinger Land Kommunalunternehmen des Landkreises Kitzingen,2,1,2,2,2,2,2,200,,,,,,,,,,,,,,,,,,,,,61.0,,,,,,,,,,,42.0,,,,,,,,,,,,,,,,,,,,,,,,66.0,,,,,,,,,,,,,,,,,,,,,,,,,,,,18.0,,,,,,3.0,,,,,,,,,,,,,,,,,,,,,,,,,,,,,,,,,,,,10.0,,,,,,,,,,,,,,,,,,,,,,,,,kitzingen,49.7380667,10.1601218,16,22
9,676,139,HELIOS Kliniken Miltenberg-Erlenbach GmbH,Helios Klinik Miltenberg,Breitendieler Str.,32,63897,miltenberg,09372 700-0,gf.erlenbach@helios-kliniken.de,www.helios-kliniken.de,3,Kliniken Miltenberg-Erlenbach GmbH,2,0,2,2,2,2,2,8,,,,,,,,,,,,,,,,,,,,,,,,,,,,,,,,,,,,,,,,,,,,,,,,,,,,,,,,8.0,,,,,,,,,,,,,,,,,,,,,,,,,,,,,,,,,,,,,,,,,,,,,,,,,,,,,,,,,,,,,,,,,,,,,,,,,,,,,,,,,,,,,,,,,,,,,,,miltenberg,49.7017584,9.2559718,16,17
9,762,0,Bezirkskrankenhaus Kaufbeuren,Bezirkskrankenhaus Kaufbeuren,Kemnater Str.,16,87600,kaufbeuren,08341 72-0,info@bkh-kaufbeuren.de,www.bkh-kaufbeuren.de,1,Bezirkskliniken Schwaben KU AdöR des Bezirks Schwaben,2,1,2,2,2,1,2,246,,,,,,,,,,,,,,,,,,,,,,,,,,,,,,,,,,,,,,,,,,,,,,,,,,,,,,,,,,,,,,,,,,,,,,,,,,,,,,,,,,,,,,,,,,,,44.0,,,,,150.0,,,,52.0,,,,,,,,,,,,,,,,,,,,,,,,,,,,,,,,,,,,,,,,,,,,,,,,,,kaufbeuren,47.8803788,10.622246,2,24
9,762,0,"Kliniken Ostallgäu-Kaufbeuren, AöR des Landkreises Ostallgäu und der Stadt Kaufbeuren - Klinikum Kaufbeuren",Klinikum Kaufbeuren,Dr.-Gutermann-Str.,2,87600,kaufbeuren,08341 42-0,info@klinikum-oal-kf.de,www.kliniken-oal-kf.de,1,Kliniken Ostallgäu-Kaufbeuren Anstalt des öffentlichen Rechts des Landkreises Ostallgäu und der Stadt Kaufbeuren,2,3,2,2,2,2,2,390,93.0,,,,,,,,,,,,,,,,,,,,78.0,,,,,,,,,,,,,,,,,20.0,,,,,,,,,,,,,,,,,,69.0,,,,,,,,,,57.0,,,,,,,,,,,,,14.0,,,,,33.0,,,,,,2.0,,,,,,,,,,,,,,,,,,,,,,,,,,,,,,,,,,,2.0,22.0,,,,,,,,,,,,,,,,,,,,,,,,,kaufbeuren,47.8803788,10.622246,2,24
9,763,0,Bezirkskrankenhaus Kempten,Bezirkskrankenhaus Kempten,Robert-Weixler-Str.,46,87439,kempten (allgäu),0831 54026-0,info@bkh-kempten.de,,1,Bezirkskliniken Schwaben KU AdöR des Bezirks Schwaben,2,0,2,2,2,2,2,121,,,,,,,,,,,,,,,,,,,,,,,,,,,,,,,,,,,,,,,,,,,,,,,,,,,,,,,,,,,,,,,,,,,,,,,,,,,,,,,,,,,,,,,,,,,,,,,,,70.0,,,,21.0,,,,,,,,,,,,30.0,,,,,,,,,,,,,,,,,,,,,,,,,,,,,,,,,,,,,,kempten (allgäu),47.7267063,10.3168835,1,23
9,763,0,KJF Klinik Josefinum gGmbH,KJF Klinik Josefinum gGmbH Standort Kempten,Haubensteigweg,40,87439,kempten (allgäu),0821 2412-0,info@josefinum.de,www.josefinum.de,2,KJF Klinik Josefinum gGmbH,2,0,2,2,2,2,2,25,,,,,,,,,,,,,,,,,,,,,,,,,,,,,,,,,,,,,,,,,,,,,,,,,,,,,,,,,,,,,,,,,,,,,,,,,,,,,,,,,,,,,,,,,,,,,,,,,,,,,,,,,,,,,,25.0,,,,,,,,,,,,,,,,,,,,,,,,,,,,,,,,,,,,,,,,,kempten (allgäu),47.7267063,10.3168835,1,23
9,763,0,Klinikverbund Allgäu gGmbH Klinik Kempten,Klinikum Kempten,Robert-Weixler-Str.,50,87439,kempten (allgäu),0831 530-0,info@klinikum-kempten.de,www.kv-keoa.de,1,Klinikverbund Allgäu gGmbH,2,3,2,1,2,2,2,510,,,52.0,,40.0,,37.0,21.0,,,,,,,,,18.0,,,,,,,,,,,,,,,,,,,,,39.0,,,,,,,,,,,,,,6.0,,,,51.0,,,,,,,,,,62.0,23.0,11.0,,4.0,,,,,,,,,40.0,,,,,55.0,,,,,,6.0,,45.0,,,,,,,,,,,,,,,,,,,,,,,,,,,,,,,,,,,,,,,,,,,,,,,,,,,,,,,,,,,kempten (allgäu),47.7267063,10.3168835,1,23
9,764,0,Bezirkskrankenhaus Memmingen,Bezirkskrankenhaus Memmingen,Bismarckstr.,23,87700,memmingen,08331 70-2663,info@bkh-memmingen.de,www.bkh-memmingen.de,1,Bezirkskliniken Schwaben KU AdöR des Bezirks Schwaben,2,0,2,2,2,2,2,40,,,,,,,,,,,,,,,,,,,,,,,,,,,,,,,,,,,,,,,,,,,,,,,,,,,,,,,,,,,,,,,,,,,,,,,,,,,,,,,,,,,,,,,,,,,,,,,,,20.0,,,,,,,,,,,,,,,,20.0,,,,,,,,,,,,,,,,,,,,,,,,,,,,,,,,,,,,,,memmingen,47.9863099,10.1808016,3,22
9,764,0,Klinikum Memmingen AöR,Klinikum Memmingen,Bismarckstr.,23,87700,memmingen,08331 70-0,verwaltung@klinikum-memmingen.de,www.klinikum-memmingen.de,1,Klinikum Memmingen AöR,2,3,2,2,2,2,2,441,9.0,,,,,,,,,,,,,,,,9.0,,,,66.0,,,,,,,,,,,47.0,,,,,,36.0,,,,,,,,,,,,,,28.0,,,,65.0,,,,,,,,,,43.0,18.0,,,,,,,,,,,,36.0,,,,,,,,,22.0,40.0,,,16.0,,,,,,,,,,,,,,,,,,,,,,,,,,,,,,,,,,,,,,,,,,,,,,,,,,,6.0,,,,,,,,memmingen,47.9863099,10.1808016,3,22
9,774,135,Bezirkskrankenhaus Günzburg,Bezirkskrankenhaus Günzburg,Lindenallee,2,89312,günzburg,08221 96-00,info@bkh-guenzburg.de,www.bkh-guenzburg.de,1,Bezirkskliniken Schwaben KU AdöR des Bezirks Schwaben,2,1,2,2,2,1,2,422,,,,,,,,,,,,,,,,,,,,,,,,,,,,,,,,,,,,,,,,,,,,,,,,,,,,,,,,,,,,,,,,,,,52.0,,,,,,,,,,,,,,,,,,,,,,,,,36.0,,,,,181.0,,,,52.0,20.0,,,,,,,,,,,59.0,,,,,,,,,,,,,,,,,,,,,,,,,,,22.0,,,,,,,,,,,günzburg,48.4555244,10.2766213,7,23
9,774,135,Kreiskliniken Günzburg-Krumbach Klinik Günzburg,Kreiskliniken Günzburg-Krumbach Klinik Günzburg,Lindenallee,1,89312,günzburg,08221 96-01,info@kliniken-gz-kru.de,www.kliniken-gz-kru.de,1,Kreiskliniken Günzburg-Krumbach Kommunalunternehmen des Landkreises Günzburg,2,2,2,2,2,2,2,240,,,,,,,,,,,,,,,,,,,,,47.0,,,,57.0,,,,,,,,,,,,,,,,,,,,,,,,,,,,,,,27.0,,,,,,,,,,44.0,,42.0,,,,,,,,,,,7.0,,,,,12.0,,,,,,4.0,,,,,,,,,,,,,,,,,,,,,,,,,,,,,,,,,,,,,,,,,,,,,,,,,,,,,,,,,,,,,günzburg,48.4555244,10.2766213,7,23
9,775,135,Kreisspitalstiftung Weißenhorn Donauklinik Neu-Ulm,Kreisspitalstiftung Weißenhorn Donauklinik Neu-Ulm,Krankenhausstr.,11,89231,neu-ulm,0731 804-0,donauklinik@id-kliniken.de,www.donauklinik-neu-ulm.de,1,"Kreisspitalstiftung Weißenhorn, kreiskommunale Stiftung des öffentlichen Rechts",2,1,2,2,2,2,2,166,75.0,,,,,,,,,,,,,,,,,,,,,,,,,,,,,,,,,,,,,,,,,,,,,,,,,,,,,,,30.0,,,,,,,,,,19.0,,,5.0,,,,,,,,,,,,,,,30.0,,,,,,7.0,,,,,,,,,,,,,,,,,,,,,,,,,,,,,,,,,,,,,,,,,,,,,,,,,,,,,,,,,,,,,neu-ulm,48.3953489,10.0005211,6,21
10,43,114,Diakonie Klinikum Neunkirchen gGmbH Kreuznacher Diakonie,Diakonie Klinikum Neunkirchen gGmbH,Brunnenstraße,20,66538,neunkirchen,0671  605-2954,"alexander.heusser@kreuznacherdiakonie,de",,2,Diakonie Klinikum Neunkirchen gGmbH,2,1,2,2,2,2,2,270,111.0,,,,,,,,,,,,,,,,,,,,,,,,19.0,,,,,,,,,,,,,,,,,,,,,,,,,,,,,,,54.0,,,,,,,,,,,,,,,,,,,,,,,,,,,,,,,,,,,,60.0,,,,,,,,,,,,,,,,,,,,,,,,,,,,,,,,,,26.0,,,,,,,,,,,,,,,,,,,,,,,,,neunkirchen,50.5456179,8.1025344,22,11
10,43,114,Marienhausklinik St. Josef Kohlhof,Marienhausklinik St. Josef Kohlhof,Klinikweg,1-5,66539,neunkirchen,06824 307374,esther.werkle@marienhaus.de,,2,Marienhaus Kliniken GmbH,2,1,2,1,2,2,2,230,50.0,,,,,,,,,,,,,,,,,,,,,,,,,,,,,,,,,,,,,84.0,,,,,,,,,,,,,,,,,,44.0,,,,,,,,,,,,,,,,,,,,,,,,,,,,34.0,,,,,,,,,,,,,,,,,,,,,,,,,,,,,,,,,,,,,,,,,,18.0,,,,,,,,,,,,,,,,,,,,,,,,,neunkirchen,50.5456179,8.1025344,22,11
10,43,114,Stiftung Kreuznacher Diakonie Fliedner Krankenhaus,Fliedner Krankenhaus Neunkirchen,Theodor-Fliedner-Straße,12,66538,neunkirchen,0671 605-2957,"klaus-peter.wirtz@kreuznacherdiakonie,de",,2,Stiftung kreuznacher diakonie,2,0,2,2,2,2,2,122,,,,,,,,,,,,,,,,,,,,,,,,,,,,,,,,,,,,,,,,,,,,,,,,,,,,,,,,,,,,,,,,,,,,,,,,,,,,,,,,,,,,,,,,,,,,,,,,,122.0,,,,,,,,,,,,,,,,,,,,,,,,,,,,,,,,,,,,,,,,,,,,,,,,,,,,,,neunkirchen,50.5456179,8.1025344,22,11
10,44,115,Krankenhaus Saarlouis vom DRK,Krankenhaus Saarlouis vom DRK,Vaubanstraße,25,66740,saarlouis,06831 171-387,roland.hessedenz@drk-kliniken-saar.de,,2,DRK Krankenhausgesellschaft mbh Saarland,2,1,2,2,2,1,2,246,90.0,,,,,,,,,,,,,,,,,,,,,,,,,,,,,,,,,,,,,,,,,,,,,,,,,,,,,,,44.0,,,,,,,,,,,4.0,,,,,,,,,,,,6.0,,,,,52.0,,,,,,,,30.0,,,,6.0,,,,,,,,,,,,,,,,,,,,,,,,,,,,,,14.0,,,,,,,,,,,,,,,,,,,,,,,,,saarlouis,49.3164661,6.749846,13,3
10,44,115,Marienhaus Klinikum Saarlouis-Dillingen Standort Saarlouis,Marienhausklinikum St. Elisabeth Saarlouis,Kapuzinerstrasse,4,66740,saarlouis,06831 161-002,Ulla.Herber-Meier@Marienhaus.de,,2,Marienhaus Kliniken GmbH,2,2,2,1,2,2,2,409,43.0,,,,,,,,,,,,,,,,,,,,72.0,,,,19.0,,,,,,,,,,,,,23.0,,,,,,,,,,,,,,,13.0,,,25.0,,,16.0,,,,,,,,,,,,,,,,,,,,,86.0,,,,27.0,,,,,,,,35.0,,,,,,,,,,,,,,,,,,,,,,,,,,,4.0,,,,,,,33.0,,,,,,,,,,,,,,,,,13.0,,,,,,,,saarlouis,49.3164661,6.749846,13,3
10,46,117,Marienhaus Klinikum St. Wendel-Otweiler,Marienhaus Klinikum St. Wendel,Am Hirschberg,1a,66606,st. wendel,06824-307370,eckart.polzin@marienhaus.de,,2,Marienhaus Kliniken im Landkreis Neunkirchen GmbH,2,2,2,2,2,2,2,341,48.0,,34.0,,,,,,,,,,,,,,28.0,,,,,,,,,,,,,,,,,,,,,,,,,,,,,,,,,,,,,,,37.0,,15.0,,,,,,,,,,,,,,,,,,,,,,54.0,,,,12.0,,,,,,,,33.0,,,,,57.0,,,,,,,,,,,,,,,,,,,,,,,,,,,,,20.0,,,,,,,,,,,,,,,,,3.0,,,,,,,,st. wendel,49.466972,7.1653135,14,5
10,46,117,Saarland-Heilstätten GmbH  SHG-Kliniken Sonnenberg,Saarland-Heilstätten GmbH SHG Tagesklinik St. Wendel,Hospitalhof,,66606,st. wendel,0681 889-2303,k.bizer@sb.shg-kliniken.de,,1,Saarland-Heilstätten GmbH,2,0,2,2,2,2,2,-,,,,,,,,,,,,,,,,,,,,,,,,,,,,,,,,,,,,,,,,,,,,,,,,,,,,,,,,,,,,,,,,,,,,,,,,,,,,,,,,,,,,,,,,,,,,,,,,,,,,,,,,,,,,,,,,,,,,,,,,,,,,,,,,,,,,,,,,,,,,,,,,,,,,,,,st. wendel,49.466972,7.1653135,14,5
13,3,0,Klinikum Südstadt Rostock,Klinikum Südstadt Rostock,Südring,81,18059,rostock,0381 4401-0,info@kliniksued-rostock.de,www.kliniksued-rostock.de,1,Hanse- und Universitätsstadt Rostock,2,2,2,2,2,2,2,491,186.0,,,,,,,,,,,,,,,,,,,,,,,,,,,,,,,,,,,,,,,,,,,,,,,,,,,27.0,,,,141.0,,,,,,,,,,,,,,,,,,,,,,,,,,,,108.0,,,,,,,,,,,,,,,,,,,,,,,,,,,,,,,,,,,,,,,,,,29.0,,,,,,,,,,,,,,,,,,,,,,,,,rostock,54.0886707,12.1400211,48,33
13,3,0,Tagesklinik für Gerontopsychiatrie und Psychotherapie,Tagesklinik für Gerontopsychiatrie,Goerdelerstraße,52,18069,rostock,0381 123710,geronto@gp-gruppe.de,www.ggp-gruppe.de,3,GPR Gerontopsychiatrie Rostock mbH,2,0,2,2,2,2,2,-,,,,,,,,,,,,,,,,,,,,,,,,,,,,,,,,,,,,,,,,,,,,,,,,,,,,,,,,,,,,,,,,,,,,,,,,,,,,,,,,,,,,,,,,,,,,,,,,,,,,,,,,,,,,,,,,,,,,,,,,,,,,,,,,,,,,,,,,,,,,,,,,,,,,,,,rostock,54.0886707,12.1400211,48,33
13,3,0,Tagesklinik für Psychiatrie/Psychotherapie,TK TS,Trelleborger Straße,10,18107,rostock,0381 123710,kontakt@ggp-gruppe.de,www.ggp-gruppe.de,3,Gesellschaft für Gesundheit und Pädagogik mbH,2,0,2,2,2,2,2,-,,,,,,,,,,,,,,,,,,,,,,,,,,,,,,,,,,,,,,,,,,,,,,,,,,,,,,,,,,,,,,,,,,,,,,,,,,,,,,,,,,,,,,,,,,,,,,,,,,,,,,,,,,,,,,,,,,,,,,,,,,,,,,,,,,,,,,,,,,,,,,,,,,,,,,,rostock,54.0886707,12.1400211,48,33
13,3,0,Tagesklinik für Psychiatrie/Psychotherapie,TK HMP,Hannes Meyer Platz,27,18146,rostock,0381 123710,kontakt@ggp-gruppe.de,www.ggp-gruppe.de,3,Gesellschaft für Gesundheit und Pädagogik mbH,2,0,2,2,2,2,2,-,,,,,,,,,,,,,,,,,,,,,,,,,,,,,,,,,,,,,,,,,,,,,,,,,,,,,,,,,,,,,,,,,,,,,,,,,,,,,,,,,,,,,,,,,,,,,,,,,,,,,,,,,,,,,,,,,,,,,,,,,,,,,,,,,,,,,,,,,,,,,,,,,,,,,,,rostock,54.0886707,12.1400211,48,33
13,3,0,Tagesklinik für Psychiatrie/Psychotherapie,TK KS,Kuphalstraße,79,18069,rostock,0381 123710,kontakt@ggp-gruppe.de,www.ggp-gruppe.de,3,Gesellschaft für Gesundheit und Pädagogik mbH,2,0,2,2,2,2,2,-,,,,,,,,,,,,,,,,,,,,,,,,,,,,,,,,,,,,,,,,,,,,,,,,,,,,,,,,,,,,,,,,,,,,,,,,,,,,,,,,,,,,,,,,,,,,,,,,,,,,,,,,,,,,,,,,,,,,,,,,,,,,,,,,,,,,,,,,,,,,,,,,,,,,,,,rostock,54.0886707,12.1400211,48,33
13,3,0,Tagesklinik für Psychiatrie/Psychotherapie,TK DH,Dierkower Höhe,14,18146,rostock,0381 123710,kontakt@ggp-gruppe.de,www.ggp-gruppe.de,3,Gesellschaft für Gesundheit und Pädagogik mbH,2,0,2,2,2,2,2,-,,,,,,,,,,,,,,,,,,,,,,,,,,,,,,,,,,,,,,,,,,,,,,,,,,,,,,,,,,,,,,,,,,,,,,,,,,,,,,,,,,,,,,,,,,,,,,,,,,,,,,,,,,,,,,,,,,,,,,,,,,,,,,,,,,,,,,,,,,,,,,,,,,,,,,,rostock,54.0886707,12.1400211,48,33
13,3,0,Tagesklinik für Psychiatrie/Psychotherapie,TK CZS,Clara Zetkin Straße,16,18069,rostock,0381 123710,kontakt@ggp-gruppe.de,www.ggp-gruppe.de,3,Gesellschaft für Gesundheit und Pädagogik mbH,2,0,2,2,2,2,2,-,,,,,,,,,,,,,,,,,,,,,,,,,,,,,,,,,,,,,,,,,,,,,,,,,,,,,,,,,,,,,,,,,,,,,,,,,,,,,,,,,,,,,,,,,,,,,,,,,,,,,,,,,,,,,,,,,,,,,,,,,,,,,,,,,,,,,,,,,,,,,,,,,,,,,,,rostock,54.0886707,12.1400211,48,33
13,3,0,Universitätsmedizin Rostock,Zentrum für Nervenheilkunde,Gehlsheimer Straße,20,18147,rostock,0381 494-0,presse@med.uni-rostock.de,www.med.uni-rostock.de,1,Universitätsmedizin Rostock,1,2,2,2,2,2,2,297,,,,,,,,,,,,,,,,,,,,,,,,,,,,,,,,,,,,,,,,,,,,,,,,,,,,,,,,,,,,,,,,,,,,,,,,,,,,,,,,,,,,,,,,,,,,73.0,,,,,167.0,,,,,,,,,,,,,30.0,,,18.0,,,,,,,,,,,,,,,,,,,,,,,9.0,,,,,,,,,,,,,,,rostock,54.0886707,12.1400211,48,33
13,3,0,Universitätsmedizin Rostock,Zentrum für Radiologie,Südring,75,18059,rostock,0381 494-0,presse@med.uni-rostock.de,www.med.uni-rostock.de,1,Universitätsmedizin Rostock,1,0,2,2,2,2,2,46,,,,,,,,,,,,,,,,,,,,,,,,,,,,,,,,,,,,,,,,,,,,,,,,,,,,,,,,,,,,,,,,,,,,,,,,,,,,,,,,,,,,,,,,,,,,,,,,,,,,,,,,,,,,,,,,,,,,,,,46.0,,,,,,,,,,,,,,,,,,,,,,,,,,,,,,,,rostock,54.0886707,12.1400211,48,33
13,3,0,Universitätsmedizin Rostock,Tagesklinik für Psychosomatische Medizin und Psychotherapie,Goethestraße,18,18055,rostock,0381 494-0,presse@med.uni-rostock.de,www.med.uni-rostock.de,1,Universitätsmedizin Rostock,1,0,2,2,2,2,2,-,,,,,,,,,,,,,,,,,,,,,,,,,,,,,,,,,,,,,,,,,,,,,,,,,,,,,,,,,,,,,,,,,,,,,,,,,,,,,,,,,,,,,,,,,,,,,,,,,,,,,,,,,,,,,,,,,,,,,,,,,,,,,,,,,,,,,,,,,,,,,,,,,,,,,,,rostock,54.0886707,12.1400211,48,33
13,3,0,Universitätsmedizin Rostock,Campus Schillingallee,Schillingallee,35,18055,rostock,0381 494-0,presse@med.uni-rostock.de,www.med.uni-rostock.de,1,Universitätsmedizin Rostock,1,2,2,2,2,2,2,746,,,79.0,24.0,,7.0,28.0,39.0,,,,,31.0,,,,,,,,,,,,52.0,,,,,,,,,,,,,29.0,,,,,,,,,,,,,,,17.0,,,63.0,,,,,,,,,,57.0,21.0,,,,,,,28.0,,,,,32.0,50.0,,,,,,,,,,41.0,38.0,,,,,,,,,,,,,,,,,,,8.0,,,,,,,10.0,,,,,31.0,,,15.0,27.0,10.0,,9.0,,,,,,,,,,,,,,,,,,,,,,rostock,54.0886707,12.1400211,48,33
13,4,0,Helios Kliniken Schwerin,HELIOS Kliniken Schwerin GmbH,Wismarsche Straße,393-397,19055,schwerin,0385 520-0,info@helios-gesundheit.de,www.helios-gesundheit.de,3,Helios Kliniken Schwerin GmbH,2,3,1,1,2,1,1,828,,,92.0,27.0,11.0,25.0,44.0,69.0,,,,,,,,,,,,,,,,,,,,,,,,,,,,,,63.0,,,,,,,,,,,,,,,19.0,,,70.0,,,,,,,,,,,33.0,,,,,,,,,,,,40.0,87.0,,,,48.0,,,,,,31.0,48.0,52.0,,,,,,,,,,,,,,,,,,,,,,,,,,,19.0,,,30.0,,,7.0,,,,,,,,,,,,,,,,,,13.0,,,,,,,,schwerin,53.6288297,11.4148038,45,29
13,4,0,Helios Kliniken Schwerin,Carl-Friedrich-Flemming Klinik,Wismarsche Straße,393-397,19055,schwerin,0385 520-0,info@helios-gesundheit.de,www.helios-gesundheit.de,3,Helios Kliniken Schwerin GmbH,2,0,2,2,2,2,2,334,,,,,,,,,,,,,,,,,,,,,,,,,,,,,,,,,,,,,,,,,,,,,,,,,,,,,,,,,,,,,,,,,,,,,,,,,,,,,,,,,,,,,,,,,,,,,,,,,244.0,,,,,,,,,,,,,46.0,,,44.0,,,,,,,,,,,,,,,,,,,,,,,,,,,,,,,,,,,,,,schwerin,53.6288297,11.4148038,45,29
13,4,0,Helios Privatklinik Schwerin,Helios Privatklinik Schwerin,Wismarsche Straße,393-397,19055,schwerin,0385 520-0,info@helios-gesundheit.de,www.helios-gesundheit.de,3,Helios Kliniken Schwerin GmbH,4,0,2,2,2,2,2,36,,,4.0,1.0,1.0,1.0,2.0,2.0,,,,,,,,,,,,,,,,,,,,,,,,,,,,,,,,,,,,,,,,,,,,,,,,4.0,,,,,,,,,,,2.0,,,,,,,,,,,,3.0,5.0,,,,3.0,,,,,,1.0,1.0,2.0,,,,,,,,,,,,,,,,,,,,,,,,,,,1.0,,,1.0,,,1.0,,,,,,,,,,,,,,,,,,1.0,,,,,,,,schwerin,53.6288297,11.4148038,45,29
13,4,0,Universitätsmedizin Rostock,Abteilung Herzzentrum NordOst,Wismarsche Straße,393-397,19055,schwerin,0381 494-0,presse@med.uni-rostock.de,www.med.uni-rostock.de,1,Universitätsmedizin Rostock,1,0,2,2,2,2,2,7,,,,,,,,,,,,,,,,,,,,,,,,,,,,,,,,,,,,,,,,,,,,,,,,,,,,,,,,,,,,,,,,,,,,,,,,,,5.0,,,,,,,,,,,,,,,,,,,,,,,,,,,,,,,,,,,,,,,,,,,,,,,,,,,,2.0,,,,,,,,,,,,,,,,,,,,,,,,,schwerin,53.6288297,11.4148038,45,29
14,524,330,"Heinrich-Braun-Klinikum gGmbH, Standort Zwickau","Heinrich-Braun-Klinikum gGmbH, Standort Zwickau",Karl-Keil-Str.,35,8060,zwickau,0375 512575,bianca.steiner@hbk-zwickau.de,www.heinrich-braun-klinikum.de,1,Heinrich-Braun-Klinikum gGmbH,2,3,2,1,2,2,2,768,31.0,,68.0,,59.0,,30.0,30.0,,,,,,,,,23.0,,,,,,,,,,,,,,,,,,,,,25.0,,,,,,,,,,,,,,,6.0,,,27.0,,,20.0,,3.0,,6.0,,9.0,25.0,,,,,,,,,,,,,36.0,40.0,,,,18.0,,,,,,30.0,22.0,36.0,,,,7.0,77.0,,,,,,,,,,,,,26.0,,,,,,,,,28.0,,,18.0,,,11.0,22.0,,,,,6.0,,,,,,,,,,,,,,,29.0,,,,,zwickau,50.7185043,12.4939267,23,35
14,524,330,Paracelsus-Klinik Zwickau,Heinrich-Braun-Klinikum (ehem. Paracelsus-Klinik Zwickau),Werdauer Str.,68,8060,zwickau,0375 512575,bianca.steiner@hbk-zwickau.de,www.heinrich-braun-klinikum.de,3,Paracelsus-Kliniken Deutschland GmbH & Co. KGaA,2,1,2,2,2,1,2,188,38.0,,,,,,,,,,,,,,,,,,,,,,,,,,,,,,,,,,,,,,,,,,,,,,,,,,,,,,,36.0,,,,,,,,,,34.0,34.0,,,,,,,,,,,,,,,,,,,,,,,,,32.0,,,,6.0,,,,,,,,,,,,,,,,,,,,,,,,,,,,,,8.0,,,,,,,,,,,,,,,,,,,,,,,,,zwickau,50.7185043,12.4939267,23,35
14,625,20,"Oberlausitzkliniken gGmbH, Krankenhaus Bautzen","Oberlausitzkliniken gGmbH, Krankenhaus Bautzen",Am Stadtwall,3,2625,bautzen,03591 3632422,udo.hauffe@oberlausitz-kliniken.de,www.oberlausitz-kliniken.de/kliniken-bereiche/krankenhaus-bautzen/,1,Oberlausitz-Kliniken gGmbH,2,2,2,1,2,1,2,411,155.0,,,,,,,,,,,,,,,,,,,,,,,,,,,,,,,,,,,,,31.0,,,,,,,,,,,,,,,,,,131.0,,,,,,,,,,,,,,,,,,,,,,,34.0,,,,,29.0,,,,,,9.0,12.0,,,,,,,,,,,,,,,,,,,,,,,,,,,,,,,,,,,10.0,,,,,,,,,,,,,,,,,,,,,,,,,bautzen,51.1813907,14.4275735,27,45
14,626,110,Krankenhaus St. Carolus Kamenz,Krankenhaus St. Carolus,Carolusstr.,212,2827,görlitz,03578 786108,marlen.koehler@malteser.org,www.malteser-krankenhaus-stcarolus.de,3,Krankenhaus St. Carolus GmbH,2,1,2,2,2,2,2,101,37.0,,,,,,,,,,,,,,,,,,,,,,,,,,,,,,,,,,,,,,,,,,,,,,,,,,,,,,,25.0,,,,,,,,,,,,,,,,,,,,,,,30.0,,,,,,,,,,,,,,,,,,,,,,,,,,,,,,,,,,,,,,,,,,,,,,,,,,,,,,,,,,,,,0.0,,,9.0,,,,,,,,görlitz,51.1563185,14.991018,26,49
14,626,110,SKH Großschweidnitz,Tagesklinik Görlitz,Martin-Opitz-Str.,5,2826,görlitz,03585 4532112,Helge.Lange@skhgr.sms.sachsen.de,www.skh-grossschweidnitz.sachsen.de,1,Sächsisches Staatsministerium,2,0,2,2,2,2,2,0,,,,,,,,,,,,,,,,,,,,,,,,,,,,,,,,,,,,,,,,,,,,,,,,,,,,,,,,,,,,,,,,,,,,,,,,,,,,,,,,,,,,,,,,,,,,,,,,,,,,,,,,,,,,,,,,,,,,,,,,,,,,,,,,,,,,,,,,,,,,,,,,,,,,,,,görlitz,51.1563185,14.991018,26,49
14,626,110,Städtisches Klinikum Görlitz gGmbH,Städt. Klinikum Görlitz gGmbH,Girbigsdorfer Str.,1-3,2828,görlitz,03581 373567,simmank.daniel@klinikum-goerlitz.de,www.klinikum-goerlitz.de,1,Städtisches Klinikum Görlitz gGmbH,2,3,2,1,2,2,2,550,55.0,,50.0,,,,,,,,,,,,,,40.0,,,,,,,,,,,,,,,,,,,,,40.0,,,,,,,,,,,,,,,,,,37.0,,,,,,,,,,24.0,14.0,,12.0,,,,,,,,,,27.0,,,,,20.0,,,,,,15.0,17.0,31.0,,,,,80.0,,,,,,,,,,,,,,,,25.0,,,,,,22.0,,,17.0,,,,24.0,,,,,,,,,,,,,,,,,,,,,,,,,görlitz,51.1563185,14.991018,26,49
14,627,140,ELBLANDKLINIKUM Meißen,ELBLANDKLINIKUM Meißen,Nassauweg,7,1662,meißen,03521 7431180,christoph.scheier@elblandkliniken.de,www.elblandkliniken.de,1,ELBLANDKLINIKEN Stiftung & Co. KG,2,1,2,1,2,2,2,308,61.0,,,,,,,,,,,,,,,,,,,,32.0,,,,,,,,,,,,,,,,,22.0,,,,,,,,,,,,,,,,,,21.0,,14.0,,,,,,,,,,,,,,,,,,,,,,36.0,,,,30.0,,,,,,,,62.0,,,,,,,,,,,,,,,,,,,,,,,,,,,,,,,,,,30.0,,,,,,,,,,,,,,,,,,,,,,,,,meißen,51.1630871,13.4704939,26,40
15,90,535,Johanniter-Krankenhaus Genthin-Stendal GmbH,Johanniter-Krankenhaus Genthin-Stendal,Wendstraße,31,39576,stendal,03931 66-0,krankenhaus@jksdl.de,www.genthin-stendal.krankenhaus.johanniter.de,2,Johanniter GmbH,2,2,2,2,2,2,2,360,73.0,20.0,64.0,,,,,,,,,,,,,,,,,,,,,,,,,,,,,,,,,,,34.0,,,,,,,,,,,,,,,,,,23.0,,20.0,31.0,,,,,,,,,,,,,,,,,,,,18.0,19.0,,,,34.0,,,,,,,,20.0,,,,,,,,,,,,,,,,,,,,,,,,,,,4.0,,,,,,,,,,,,,,,,,,,,,,,,,,,,,,,,stendal,52.6050782,11.8594279,37,31
15,90,535,SALUS gGmbH Fachklinikum Uchtspringe,SALUS Fachklinikum Uchtspringe,Emil-Kraepelin-Straße,6,39576,stendal,039325 70-0,fkh.uchtspringe@salus-lsa.de,www.salus-lsa.de,1,SALUS gGmbH,2,0,2,2,2,2,2,366,,,,,,,,,,,,,,,,,,,,,,,,,,,,,,,,,,,,,,,,,,,,,,,,,,,,,,,,,,,,,,,,,,,,,,,,,,,,,,,,,,,,,,,,,,,,51.0,,,,,139.0,,,,,,,,,,,,,118.0,,,58.0,,,,,,,,,,,,,,,,,,,,,,,,,,,,,,,,,,,,,,stendal,52.6050782,11.8594279,37,31
15,90,535,SALUS gGmbH Fachklinikum Uchtspringe,Tagesklinik Stendal KJP,Westwall,44,39576,stendal,039325 70-0,fkh.uchtspringe@salus-lsa.de,www.salus-lsa.de,1,SALUS gGmbH,2,0,2,2,2,2,2,-,,,,,,,,,,,,,,,,,,,,,,,,,,,,,,,,,,,,,,,,,,,,,,,,,,,,,,,,,,,,,,,,,,,,,,,,,,,,,,,,,,,,,,,,,,,,,,,,,,,,,,,,,,,,,,,,,,,,,,,,,,,,,,,,,,,,,,,,,,,,,,,,,,,,,,,stendal,52.6050782,11.8594279,37,31
15,90,535,SALUS gGmbH Fachklinikum Uchtspringe,Tagesklinik Stendal - Erwachsene,Stadtseeallee,1,39576,stendal,039325 70-0,fkh.uchtspringe@salus-lsa.de,www.salus-lsa.de,1,SALUS gGmbH,2,0,2,2,2,2,2,-,,,,,,,,,,,,,,,,,,,,,,,,,,,,,,,,,,,,,,,,,,,,,,,,,,,,,,,,,,,,,,,,,,,,,,,,,,,,,,,,,,,,,,,,,,,,,,,,,,,,,,,,,,,,,,,,,,,,,,,,,,,,,,,,,,,,,,,,,,,,,,,,,,,,,,,stendal,52.6050782,11.8594279,37,31
16,62,41,Südharz Klinikum Nordhausen gGmbH,Südharz Klinikum Nordhausen gGmbH,Dr.-Robert-Koch-Straße,39,99734,nordhausen,03631 41-0,info@shk-ndh.de,www.shk-ndh.de,1,Südharz Klinikum Nordhausen gGmbH,2,3,2,1,2,2,2,815,93.0,,57.0,29.0,10.0,,,,,,,,,,,,,,,,,,,,,,,,,,,,,,,,,50.0,,,,,,,,,,,,,,20.0,,,,33.0,,,57.0,,,,,,,,28.0,,,,,,,,,,,,31.0,,,,64.0,18.0,,,,22.0,,32.0,16.0,44.0,,,,,51.0,,,,,,,,,,,,,52.0,,,13.0,,,,4.0,,22.0,,,28.0,,,2.0,14.0,13.0,,,,,,,,,,,,,,,,12.0,,,,,,,,nordhausen,51.5051574,10.7925317,29,25
16,67,29,Helios Klinikum Gotha GmbH,Tagesklinik für Psychiatrie und Psychosomatik Gotha,Hauptmarkt,2,99867,gotha,03621 220-0,info@helios-gesundheit.de,www.helios-gesundheit.de/kliniken/gotha/,3,HELIOS Klinikum Gotha GmbH,2,0,2,2,2,2,2,-,,,,,,,,,,,,,,,,,,,,,,,,,,,,,,,,,,,,,,,,,,,,,,,,,,,,,,,,,,,,,,,,,,,,,,,,,,,,,,,,,,,,,,,,,,,,,,,,,,,,,,,,,,,,,,,,,,,,,,,,,,,,,,,,,,,,,,,,,,,,,,,,,,,,,,,gotha,50.9494849,10.7014435,25,25
16,67,29,Helios Klinikum Gotha GmbH,Gotha,Heliosstraße,1,99867,gotha,03621 220-0,info@helios-gesundheit.de,www.helios-gesundheit.de/kliniken/gotha/,3,HELIOS Klinikum Gotha GmbH,2,2,2,1,2,1,1,355,160.0,,,,,,,,,,,,,,,,,,,,,,,,,,,,,,,,,,,,,15.0,,,,,,,,,,,,,,,,,,43.0,,,,,,,,,,,,,,,,,,,,,,,28.0,,,,63.0,20.0,,,,,,1.0,,25.0,,,,,,,,,,,,,,,,,,,,,,,,,,,,,,,,,,,,,,,,,,,,,,,,,,,,,,,,,,,gotha,50.9494849,10.7014435,25,25
16,67,29,Ökumenisches Hainich Klinikum gGmbH,Tagesklinik Gotha,Bahnhofstraße,2-4,99867,gotha,03601 803-0,klinikleitung@oehk.de,www.oehk.de,2,Ökumenisches Hainich Klinikum gGmbH,2,0,2,2,2,2,2,-,,,,,,,,,,,,,,,,,,,,,,,,,,,,,,,,,,,,,,,,,,,,,,,,,,,,,,,,,,,,,,,,,,,,,,,,,,,,,,,,,,,,,,,,,,,,,,,,,,,,,,,,,,,,,,,,,,,,,,,,,,,,,,,,,,,,,,,,,,,,,,,,,,,,,,,gotha,50.9494849,10.7014435,25,25
16,68,51,KMG Klinikum Thueringen Brandenburg gGmbH,KMG Klinikum Sömmerda,Bahnhofstraße,36,99610,sömmerda,034671 65-0,bad-frankenhausen@kmg-kliniken.de,www.kmg-kliniken.de/kmg-manniske-klinik-bad-frankenhausen/,3,KMG Klinikum Thueringen Brandenburg gGmbH,2,1,2,2,2,2,2,181,92.0,,,,,,,,,,,,,,,,,,,,,,,,,,,,,,,,,,,,,16.0,,,,,,,,,,,,,,,,,,23.0,,,,,,,,,,22.0,,,,,,,,,,,,,,,,,,18.0,,,,,,,,,,,,,,,,,,,,,,,,,,,,,,,,,,,,,,,,,,10.0,,,,,,,,,,,,,,,,,,,,,,,,,sömmerda,51.1618258,11.1174874,26,27
16,69,24,Helios Fachkliniken Hildburghausen GmbH,Helios Fachkliniken Hildburghausen GmbH,Eisfelder Straße,41,98646,hildburghausen,03685 776-0,info@helios-gesundheit.de,www.helios-gesundheit.de/kliniken/hildburghausen-fachkliniken/,3,Helios Fachkliniken Hildburghausen GmbH,2,0,2,2,2,1,2,333,,,,,,,,,,,,,,,,,,,,,,,,,,,,,,,,,,,,,,,,,,,,,,,,,,,,,,,,,,,,,,,,,,,,,,,,,,,,,,,,,,,,,,,,,,,,42.0,,,,,245.0,,,,,,,,,,,,,28.0,,,18.0,,,,,,,,,,,,,,,,,,,,,,,,,,,,,,,,,,,,,,hildburghausen,50.4266327,10.7300263,21,25
16,69,24,REGIOMED Klinikum Hildburghausen,REGIOMED Klinikum Hildburghausen,Schleusinger Straße,17,98646,hildburghausen,03685 773-0,info.hbn@regiomed-kliniken.de,www.regiomed-kliniken.de/startseite-klinikum-hildburghausen.de,1,Henneberg-Kliniken-Betriebsgesellschaft mbH,2,1,2,2,2,2,2,129,57.0,,,,,,,,,,,,,,,,32.0,,,,,,,,,,,,,,,,,,,,,,,,,,,,,,,,,,,,,,,17.0,,,,,,,,,,,,,,,,,,,,,,,,,,,15.0,,,,,,,,,,,,,,,,,,,,,,,,,,,,,,,,,,,,,,,,,,,8.0,,,,,,,,,,,,,,,,,,,,,,,,,hildburghausen,50.4266327,10.7300263,21,25
16,72,18,Helios Fachkliniken Hildburghausen GmbH,Tagesklinik Sonneberg,Köppelsdorfer Straße,36,96515,sonneberg,03685 776-0,info@helios-gesundheit.de,www.helios-gesundheit.de/kliniken/hildburghausen-fachkliniken/,3,Helios Fachkliniken Hildburghausen GmbH,2,0,2,2,2,2,2,-,,,,,,,,,,,,,,,,,,,,,,,,,,,,,,,,,,,,,,,,,,,,,,,,,,,,,,,,,,,,,,,,,,,,,,,,,,,,,,,,,,,,,,,,,,,,,,,,,,,,,,,,,,,,,,,,,,,,,,,,,,,,,,,,,,,,,,,,,,,,,,,,,,,,,,,sonneberg,50.3575412,11.1691714,21,27
16,72,18,REGIOMED Klinikum Sonneberg/Neuhaus,Standort Sonneberg,Neustadter Straße,61,96515,sonneberg,03675 821-0,info@medinos-kliniken.de,www.regiomed-kliniken.de/startseite-klinikum-sonneberg-neuhaus.de,1,MEDINOS Kliniken des Landkreises Sonneberg GmbH,2,1,2,2,2,2,2,243,122.0,,,,,,,,,,,,,,,,,,,,,,,,,,,,,,,,,,,,,,,,,,,,,,,,,,,,,,,71.0,,,,,,,,,,,,,,,,,,,,,,,,,,,29.0,13.0,,,,,,,,,,,,,,,,,,,,,,,,,,,,,,,,,,,,,,,,,,8.0,,,,,,,,,,,,,,,,,,,,,,,,,sonneberg,50.3575412,11.1691714,21,27
16,76,22,Asklepios Fachklinikum Stadtroda GmbH,Tagesklinik Greiz,Wichmannstraße,12,7973,greiz,036428 561-0,stadtroda@asklepios.com,www.asklepios.com/stadtroda,3,Asklepios Fachklinikum Stadtroda GmbH,2,0,2,2,2,2,2,-,,,,,,,,,,,,,,,,,,,,,,,,,,,,,,,,,,,,,,,,,,,,,,,,,,,,,,,,,,,,,,,,,,,,,,,,,,,,,,,,,,,,,,,,,,,,,,,,,,,,,,,,,,,,,,,,,,,,,,,,,,,,,,,,,,,,,,,,,,,,,,,,,,,,,,,greiz,50.7783814,12.0763533,24,32
16,76,22,Kreiskrankenhaus Greiz GmbH,Kreiskrankenhaus Greiz GmbH,Wichmannstraße,12,7973,greiz,03661 46-0,info@hospital-greiz.de,www.hospital-greiz.de,1,Kreiskrankenhaus Greiz-Ronneburg GmbH,2,2,2,2,2,2,2,172,83.0,,,,,,,,,,,,,,,,,,,,,,,,,,,,,,,,,,,,,,,,,,,,,,,,,,,,,,,24.0,,,,,,,,,,,,,,,,,,,,,,,13.0,,,,38.0,1.0,,,,,,1.0,,,,,,,,,,,,,,,,,,,,,,,,,,,,,,,,,,,,12.0,,,,,,,,,,,,,,,,,,,,,,,,,greiz,50.7783814,12.0763533,24,32
